{"type":"FeatureCollection","demo":true,"note":"DEMO DATA — synthetic, not surveyed or measured. For demonstration of ARGUS workflows only.","features":[{"type":"Feature","geometry":{"type":"Point","coordinates":[68.3579923,51.8065394]},"properties":{"id":"BN-B1","kind":"BRIDGE","segment_ids":["R2-7"],"bridge_id":"B1","notes":null,"name_kk":"B1 орталық көпір","name_ru":"Центральный мост B1","name_en":"Central bridge B1","name_original":"Центральный мост B1"}},{"type":"Feature","geometry":{"type":"Point","coordinates":[68.4523449,51.8003631]},"properties":{"id":"BN-B2","kind":"BRIDGE","segment_ids":["R8-3"],"bridge_id":"B2","notes":null,"name_kk":"B2 шығыс көпір","name_ru":"Восточный мост B2","name_en":"Eastern bridge B2","name_original":"Восточный мост B2"}},{"type":"Feature","geometry":{"type":"Point","coordinates":[68.378418,51.7978376]},"properties":{"id":"BN-R7","kind":"LOW_ROAD","segment_ids":["R7-2","R7-3"],"bridge_id":null,"notes":null,"name_kk":"R7 ойпаң учаскесі","name_ru":"Пониженный участок R7","name_en":"R7 low section","name_original":"Пониженный участок R7"}}]}