{"type":"FeatureCollection","demo":true,"note":"DEMO DATA — synthetic, not surveyed or measured. For demonstration of ARGUS workflows only.","features":[{"type":"Feature","geometry":{"type":"Point","coordinates":[68.3579923,51.8065394]},"properties":{"id":"B1","name_kk":"B1 орталық көпір","name_ru":"B1 центральный мост","name_en":"B1 central bridge","name_original":"B1 центральный мост","segment_ids":["R2-7"],"deck_clearance_m":3.4,"structure_type":"BRIDGE"}},{"type":"Feature","geometry":{"type":"Point","coordinates":[68.4523449,51.8003631]},"properties":{"id":"B2","name_kk":"B2 ескі шығыс көпірі","name_ru":"B2 старый восточный мост","name_en":"B2 old eastern bridge","name_original":"B2 старый восточный мост","segment_ids":["R8-3"],"deck_clearance_m":2.1,"structure_type":"BRIDGE"}}]}