{"type":"FeatureCollection","demo":true,"note":"DEMO DATA — synthetic, not surveyed or measured. For demonstration of ARGUS workflows only.","features":[{"type":"Feature","geometry":{"type":"Point","coordinates":[68.3447779,51.8176159]},"properties":{"id":"F-HOSP","facility_type":"HOSPITAL","criticality":100,"population_served":25000,"sector_id":"D","name_kk":"Аудандық аурухана (DEMO)","name_ru":"Районная больница (DEMO)","name_en":"District hospital (DEMO)","name_original":"Районная больница (DEMO)","source":"DEMO","verification":"VERIFIED"}},{"type":"Feature","geometry":{"type":"Point","coordinates":[68.3478051,51.8089111]},"properties":{"id":"F-WATER","facility_type":"WATER_SUPPLY","criticality":90,"population_served":30000,"sector_id":"A","name_kk":"Су алу сорғы станциясы (DEMO)","name_ru":"Водозаборная насосная станция (DEMO)","name_en":"Water intake pumping station (DEMO)","name_original":"Водозаборная насосная станция (DEMO)","source":"DEMO","verification":"VERIFIED"}},{"type":"Feature","geometry":{"type":"Point","coordinates":[68.3746461,51.8084275]},"properties":{"id":"F-SUBST","facility_type":"POWER","criticality":85,"population_served":18000,"sector_id":"A","name_kk":"Жағалау электр қосалқы станциясы (DEMO)","name_ru":"Прибрежная электроподстанция (DEMO)","name_en":"Riverside electrical substation (DEMO)","name_original":"Прибрежная электроподстанция (DEMO)","source":"DEMO","verification":"VERIFIED"}},{"type":"Feature","geometry":{"type":"Point","coordinates":[68.3929789,51.793418]},"properties":{"id":"F-CARE","facility_type":"CARE_HOME","criticality":95,"population_served":60,"sector_id":"B","name_kk":"B секторындағы қарттар үйі (DEMO)","name_ru":"Дом престарелых сектора B (DEMO)","name_en":"Sector B care home (DEMO)","name_original":"Дом престарелых сектора B (DEMO)","source":"DEMO","verification":"VERIFIED"}},{"type":"Feature","geometry":{"type":"Point","coordinates":[68.4009534,51.7934589]},"properties":{"id":"F-SCHOOL3","facility_type":"SCHOOL","criticality":70,"population_served":650,"sector_id":"B","name_kk":"№3 мектеп — уақытша пана (DEMO)","name_ru":"Школа №3 — временный пункт (DEMO)","name_en":"School No. 3 — temporary shelter (DEMO)","name_original":"Школа №3 — временный пункт (DEMO)","source":"DEMO","verification":"VERIFIED"}},{"type":"Feature","geometry":{"type":"Point","coordinates":[68.3583605,51.8214671]},"properties":{"id":"F-FIRE","facility_type":"FIRE_STATION","criticality":90,"population_served":40000,"sector_id":"D","name_kk":"Өрт-құтқару бөлімі (DEMO)","name_ru":"Пожарно-спасательная часть (DEMO)","name_en":"Fire & rescue station (DEMO)","name_original":"Пожарно-спасательная часть (DEMO)","source":"DEMO","verification":"VERIFIED"}},{"type":"Feature","geometry":{"type":"Point","coordinates":[68.3624507,51.8195113]},"properties":{"id":"F-AKIMAT","facility_type":"ADMINISTRATION","criticality":60,"population_served":40000,"sector_id":"D","name_kk":"Аудан әкімдігі (DEMO)","name_ru":"Акимат района (DEMO)","name_en":"District akimat (DEMO)","name_original":"Акимат района (DEMO)","source":"DEMO","verification":"VERIFIED"}},{"type":"Feature","geometry":{"type":"Point","coordinates":[68.3403536,51.8225364]},"properties":{"id":"F-SCHOOL1","facility_type":"SHELTER","criticality":65,"population_served":900,"sector_id":"D","name_kk":"№1 мектеп — эвакуация пункті (DEMO)","name_ru":"Школа №1 — пункт временного размещения (DEMO)","name_en":"School No. 1 — evacuation centre (DEMO)","name_original":"Школа №1 — пункт временного размещения (DEMO)","source":"DEMO","verification":"VERIFIED"}},{"type":"Feature","geometry":{"type":"Point","coordinates":[68.3092916,51.8138163]},"properties":{"id":"F-CLINIC","facility_type":"CLINIC","criticality":75,"population_served":4000,"sector_id":"C","name_kk":"C секторы емханасы (DEMO)","name_ru":"Поликлиника сектора C (DEMO)","name_en":"Sector C outpatient clinic (DEMO)","name_original":"Поликлиника сектора C (DEMO)","source":"DEMO","verification":"VERIFIED"}},{"type":"Feature","geometry":{"type":"Point","coordinates":[68.3954314,51.8268785]},"properties":{"id":"F-HEAT","facility_type":"HEATING","criticality":70,"population_served":20000,"sector_id":null,"name_kk":"Жылу орталығы (DEMO)","name_ru":"Котельная (DEMO)","name_en":"Heating plant (DEMO)","name_original":"Котельная (DEMO)","source":"DEMO","verification":"VERIFIED"}}]}