{"type":"FeatureCollection","demo":true,"note":"DEMO DATA — synthetic, not surveyed or measured. For demonstration of ARGUS workflows only.","features":[{"type":"Feature","geometry":{"type":"Polygon","coordinates":[[[68.3420261,51.8073288],[68.3391235,51.8074449],[68.3362196,51.8076471],[68.3333144,51.8079332],[68.3332814,51.8101708],[68.3434344,51.810228],[68.3434768,51.8073097],[68.3420261,51.8073288]]]},"properties":{"id":"PZ-ATB-A1","sector_id":"A","population":260,"vulnerable_share":0.15,"source":"DEMO aggregated synthetic population (floor area / 32 m² per person)"}},{"type":"Feature","geometry":{"type":"Polygon","coordinates":[[[68.3433977,51.8127528],[68.3434344,51.810228],[68.3332814,51.8101708],[68.3332442,51.8126957],[68.3433977,51.8127528]]]},"properties":{"id":"PZ-ATB-A2","sector_id":"A","population":440,"vulnerable_share":0.13,"source":"DEMO aggregated synthetic population (floor area / 32 m² per person)"}},{"type":"Feature","geometry":{"type":"Polygon","coordinates":[[[68.3507283,51.8073699],[68.3478282,51.8073127],[68.3449276,51.8072906],[68.3434768,51.8073097],[68.3434344,51.810228],[68.3535875,51.8102842],[68.3536283,51.8074323],[68.3507283,51.8073699]]]},"properties":{"id":"PZ-ATB-A3","sector_id":"A","population":370,"vulnerable_share":0.13,"source":"DEMO aggregated synthetic population (floor area / 32 m² per person)"}},{"type":"Feature","geometry":{"type":"Polygon","coordinates":[[[68.3535514,51.8128091],[68.3535875,51.8102842],[68.3434344,51.810228],[68.3433977,51.8127528],[68.3535514,51.8128091]]]},"properties":{"id":"PZ-ATB-A4","sector_id":"A","population":540,"vulnerable_share":0.15,"source":"DEMO aggregated synthetic population (floor area / 32 m² per person)"}},{"type":"Feature","geometry":{"type":"Polygon","coordinates":[[[68.3623322,51.8073466],[68.3594299,51.807448],[68.3565287,51.8074683],[68.3536283,51.8074323],[68.3535875,51.8102842],[68.3637406,51.8103396],[68.3637841,51.8072467],[68.3623322,51.8073466]]]},"properties":{"id":"PZ-ATB-A5","sector_id":"A","population":540,"vulnerable_share":0.14,"source":"DEMO aggregated synthetic population (floor area / 32 m² per person)"}},{"type":"Feature","geometry":{"type":"Polygon","coordinates":[[[68.363705,51.8128645],[68.3637406,51.8103396],[68.3535875,51.8102842],[68.3535514,51.8128091],[68.363705,51.8128645]]]},"properties":{"id":"PZ-ATB-A6","sector_id":"A","population":460,"vulnerable_share":0.21,"source":"DEMO aggregated synthetic population (floor area / 32 m² per person)"}},{"type":"Feature","geometry":{"type":"Polygon","coordinates":[[[68.3710477,51.8064316],[68.3681411,51.8068409],[68.365236,51.8071468],[68.3637841,51.8072467],[68.3637406,51.8103396],[68.3738937,51.8103941],[68.3739555,51.8059322],[68.3710477,51.8064316]]]},"properties":{"id":"PZ-ATB-A7","sector_id":"A","population":690,"vulnerable_share":0.18,"source":"DEMO aggregated synthetic population (floor area / 32 m² per person)"}},{"type":"Feature","geometry":{"type":"Polygon","coordinates":[[[68.3738587,51.812919],[68.3738937,51.8103941],[68.3637406,51.8103396],[68.363705,51.8128645],[68.3738587,51.812919]]]},"properties":{"id":"PZ-ATB-A8","sector_id":"A","population":480,"vulnerable_share":0.13,"source":"DEMO aggregated synthetic population (floor area / 32 m² per person)"}},{"type":"Feature","geometry":{"type":"Polygon","coordinates":[[[68.3797732,51.8047584],[68.3768641,51.8053647],[68.3739555,51.8059322],[68.3738937,51.8103941],[68.3825963,51.8104401],[68.3826823,51.8041466],[68.3797732,51.8047584]]]},"properties":{"id":"PZ-ATB-A9","sector_id":"A","population":740,"vulnerable_share":0.23,"source":"DEMO aggregated synthetic population (floor area / 32 m² per person)"}},{"type":"Feature","geometry":{"type":"Polygon","coordinates":[[[68.3825618,51.812965],[68.3825963,51.8104401],[68.3738937,51.8103941],[68.3738587,51.812919],[68.3825618,51.812965]]]},"properties":{"id":"PZ-ATB-A10","sector_id":"A","population":380,"vulnerable_share":0.17,"source":"DEMO aggregated synthetic population (floor area / 32 m² per person)"}},{"type":"Feature","geometry":{"type":"Polygon","coordinates":[[[68.3843443,51.7886077],[68.3847329,51.7949037],[68.3944083,51.7949539],[68.3944926,51.7886604],[68.3843443,51.7886077]]]},"properties":{"id":"PZ-ATB-B1","sector_id":"B","population":540,"vulnerable_share":0.13,"source":"DEMO aggregated synthetic population (floor area / 32 m² per person)"}},{"type":"Feature","geometry":{"type":"Polygon","coordinates":[[[68.3943647,51.7982074],[68.3944083,51.7949539],[68.3847329,51.7949037],[68.3849383,51.7982316],[68.3943647,51.7982074]]]},"properties":{"id":"PZ-ATB-B2","sector_id":"B","population":450,"vulnerable_share":0.12,"source":"DEMO aggregated synthetic population (floor area / 32 m² per person)"}},{"type":"Feature","geometry":{"type":"Polygon","coordinates":[[[68.3944926,51.7886604],[68.3944083,51.7949539],[68.404558,51.7950057],[68.4046409,51.7887122],[68.3944926,51.7886604]]]},"properties":{"id":"PZ-ATB-B3","sector_id":"B","population":780,"vulnerable_share":0.17,"source":"DEMO aggregated synthetic population (floor area / 32 m² per person)"}},{"type":"Feature","geometry":{"type":"Polygon","coordinates":[[[68.4045162,51.7981806],[68.404558,51.7950057],[68.3944083,51.7949539],[68.3943647,51.7982074],[68.4045162,51.7981806]]]},"properties":{"id":"PZ-ATB-B4","sector_id":"B","population":360,"vulnerable_share":0.18,"source":"DEMO aggregated synthetic population (floor area / 32 m² per person)"}},{"type":"Feature","geometry":{"type":"Polygon","coordinates":[[[68.4089902,51.7887341],[68.4046409,51.7887122],[68.404558,51.7950057],[68.4084246,51.7950253],[68.4089902,51.7887341]]]},"properties":{"id":"PZ-ATB-B5","sector_id":"B","population":300,"vulnerable_share":0.17,"source":"DEMO aggregated synthetic population (floor area / 32 m² per person)"}},{"type":"Feature","geometry":{"type":"Polygon","coordinates":[[[68.3034774,51.8102879],[68.3008438,51.8100445],[68.2982112,51.8097406],[68.2955792,51.8093991],[68.2954879,51.8152517],[68.305642,51.8153121],[68.3057171,51.8104273],[68.3034774,51.8102879]]]},"properties":{"id":"PZ-ATB-C1","sector_id":"C","population":670,"vulnerable_share":0.15,"source":"DEMO aggregated synthetic population (floor area / 32 m² per person)"}},{"type":"Feature","geometry":{"type":"Polygon","coordinates":[[[68.3056308,51.8160425],[68.305642,51.8153121],[68.2954879,51.8152517],[68.2954765,51.8159822],[68.3056308,51.8160425]]]},"properties":{"id":"PZ-ATB-C2","sector_id":"C","population":70,"vulnerable_share":0.12,"source":"DEMO aggregated synthetic population (floor area / 32 m² per person)"}},{"type":"Feature","geometry":{"type":"Polygon","coordinates":[[[68.3140257,51.8103697],[68.3113864,51.8104957],[68.3087486,51.8105234],[68.3061123,51.8104519],[68.3057171,51.8104273],[68.305642,51.8153121],[68.3157961,51.8153716],[68.3158741,51.8102181],[68.3140257,51.8103697]]]},"properties":{"id":"PZ-ATB-C3","sector_id":"C","population":620,"vulnerable_share":0.19,"source":"DEMO aggregated synthetic population (floor area / 32 m² per person)"}},{"type":"Feature","geometry":{"type":"Polygon","coordinates":[[[68.3219507,51.8095111],[68.3193081,51.8098604],[68.3166663,51.8101531],[68.3158741,51.8102181],[68.3157961,51.8153716],[68.3244996,51.8154219],[68.3245937,51.8091285],[68.3219507,51.8095111]]]},"properties":{"id":"PZ-ATB-C4","sector_id":"C","population":310,"vulnerable_share":0.19,"source":"DEMO aggregated synthetic population (floor area / 32 m² per person)"}},{"type":"Feature","geometry":{"type":"Polygon","coordinates":[[[68.3244887,51.8161524],[68.3244996,51.8154219],[68.3157961,51.8153716],[68.315785,51.8161021],[68.3244887,51.8161524]]]},"properties":{"id":"PZ-ATB-C5","sector_id":"C","population":100,"vulnerable_share":0.23,"source":"DEMO aggregated synthetic population (floor area / 32 m² per person)"}},{"type":"Feature","geometry":{"type":"Polygon","coordinates":[[[68.3332442,51.8126957],[68.3331513,51.8189891],[68.3433063,51.8190463],[68.3433977,51.8127528],[68.3332442,51.8126957]]]},"properties":{"id":"PZ-ATB-D1","sector_id":"D","population":3820,"vulnerable_share":0.15,"source":"DEMO aggregated synthetic population (floor area / 32 m² per person)"}},{"type":"Feature","geometry":{"type":"Polygon","coordinates":[[[68.3330584,51.8252826],[68.3432148,51.8253397],[68.3433063,51.8190463],[68.3331513,51.8189891],[68.3330584,51.8252826]]]},"properties":{"id":"PZ-ATB-D2","sector_id":"D","population":3740,"vulnerable_share":0.21,"source":"DEMO aggregated synthetic population (floor area / 32 m² per person)"}},{"type":"Feature","geometry":{"type":"Polygon","coordinates":[[[68.3431965,51.8265984],[68.3432148,51.8253397],[68.3330584,51.8252826],[68.3330398,51.8265413],[68.3431965,51.8265984]]]},"properties":{"id":"PZ-ATB-D3","sector_id":"D","population":630,"vulnerable_share":0.14,"source":"DEMO aggregated synthetic population (floor area / 32 m² per person)"}},{"type":"Feature","geometry":{"type":"Polygon","coordinates":[[[68.3433977,51.8127528],[68.3433063,51.8190463],[68.3534613,51.8191025],[68.3535514,51.8128091],[68.3433977,51.8127528]]]},"properties":{"id":"PZ-ATB-D4","sector_id":"D","population":6170,"vulnerable_share":0.24,"source":"DEMO aggregated synthetic population (floor area / 32 m² per person)"}},{"type":"Feature","geometry":{"type":"Polygon","coordinates":[[[68.3433063,51.8190463],[68.3432148,51.8253397],[68.3533712,51.825396],[68.3534613,51.8191025],[68.3433063,51.8190463]]]},"properties":{"id":"PZ-ATB-D5","sector_id":"D","population":5690,"vulnerable_share":0.14,"source":"DEMO aggregated synthetic population (floor area / 32 m² per person)"}},{"type":"Feature","geometry":{"type":"Polygon","coordinates":[[[68.3533532,51.8266547],[68.3533712,51.825396],[68.3432148,51.8253397],[68.3431965,51.8265984],[68.3533532,51.8266547]]]},"properties":{"id":"PZ-ATB-D6","sector_id":"D","population":590,"vulnerable_share":0.16,"source":"DEMO aggregated synthetic population (floor area / 32 m² per person)"}},{"type":"Feature","geometry":{"type":"Polygon","coordinates":[[[68.3535514,51.8128091],[68.3534613,51.8191025],[68.3636163,51.8191579],[68.363705,51.8128645],[68.3535514,51.8128091]]]},"properties":{"id":"PZ-ATB-D7","sector_id":"D","population":8230,"vulnerable_share":0.19,"source":"DEMO aggregated synthetic population (floor area / 32 m² per person)"}},{"type":"Feature","geometry":{"type":"Polygon","coordinates":[[[68.3534613,51.8191025],[68.3533712,51.825396],[68.3635277,51.8254514],[68.3636163,51.8191579],[68.3534613,51.8191025]]]},"properties":{"id":"PZ-ATB-D8","sector_id":"D","population":9280,"vulnerable_share":0.15,"source":"DEMO aggregated synthetic population (floor area / 32 m² per person)"}},{"type":"Feature","geometry":{"type":"Polygon","coordinates":[[[68.3635099,51.8267101],[68.3635277,51.8254514],[68.3533712,51.825396],[68.3533532,51.8266547],[68.3635099,51.8267101]]]},"properties":{"id":"PZ-ATB-D9","sector_id":"D","population":800,"vulnerable_share":0.14,"source":"DEMO aggregated synthetic population (floor area / 32 m² per person)"}},{"type":"Feature","geometry":{"type":"Polygon","coordinates":[[[68.363705,51.8128645],[68.3636163,51.8191579],[68.3737714,51.8192124],[68.3738587,51.812919],[68.363705,51.8128645]]]},"properties":{"id":"PZ-ATB-D10","sector_id":"D","population":4960,"vulnerable_share":0.13,"source":"DEMO aggregated synthetic population (floor area / 32 m² per person)"}},{"type":"Feature","geometry":{"type":"Polygon","coordinates":[[[68.3636163,51.8191579],[68.3635277,51.8254514],[68.3736842,51.8255059],[68.3737714,51.8192124],[68.3636163,51.8191579]]]},"properties":{"id":"PZ-ATB-D11","sector_id":"D","population":4260,"vulnerable_share":0.17,"source":"DEMO aggregated synthetic population (floor area / 32 m² per person)"}},{"type":"Feature","geometry":{"type":"Polygon","coordinates":[[[68.3736667,51.8267646],[68.3736842,51.8255059],[68.3635277,51.8254514],[68.3635099,51.8267101],[68.3736667,51.8267646]]]},"properties":{"id":"PZ-ATB-D12","sector_id":"D","population":240,"vulnerable_share":0.21,"source":"DEMO aggregated synthetic population (floor area / 32 m² per person)"}},{"type":"Feature","geometry":{"type":"Polygon","coordinates":[[[68.3738587,51.812919],[68.3737714,51.8192124],[68.3824758,51.8192585],[68.3825618,51.812965],[68.3738587,51.812919]]]},"properties":{"id":"PZ-ATB-D13","sector_id":"D","population":3990,"vulnerable_share":0.19,"source":"DEMO aggregated synthetic population (floor area / 32 m² per person)"}},{"type":"Feature","geometry":{"type":"Polygon","coordinates":[[[68.3824758,51.8192585],[68.3737714,51.8192124],[68.3736842,51.8255059],[68.3823898,51.825552],[68.3824758,51.8192585]]]},"properties":{"id":"PZ-ATB-D14","sector_id":"D","population":2690,"vulnerable_share":0.2,"source":"DEMO aggregated synthetic population (floor area / 32 m² per person)"}},{"type":"Feature","geometry":{"type":"Polygon","coordinates":[[[68.3823725,51.8268107],[68.3823898,51.825552],[68.3736842,51.8255059],[68.3736667,51.8267646],[68.3823725,51.8268107]]]},"properties":{"id":"PZ-ATB-D15","sector_id":"D","population":590,"vulnerable_share":0.16,"source":"DEMO aggregated synthetic population (floor area / 32 m² per person)"}},{"type":"Feature","geometry":{"type":"Polygon","coordinates":[[[68.3525465,51.7816933],[68.3524564,51.7879868],[68.3626045,51.7880422],[68.3626932,51.7817487],[68.3525465,51.7816933]]]},"properties":{"id":"PZ-ATB-E1","sector_id":"E","population":370,"vulnerable_share":0.18,"source":"DEMO aggregated synthetic population (floor area / 32 m² per person)"}},{"type":"Feature","geometry":{"type":"Polygon","coordinates":[[[68.3524564,51.7879868],[68.3523663,51.7942803],[68.3625158,51.7943358],[68.3626045,51.7880422],[68.3524564,51.7879868]]]},"properties":{"id":"PZ-ATB-E2","sector_id":"E","population":360,"vulnerable_share":0.14,"source":"DEMO aggregated synthetic population (floor area / 32 m² per person)"}},{"type":"Feature","geometry":{"type":"Polygon","coordinates":[[[68.3523663,51.7942803],[68.3522761,51.8005738],[68.362427,51.8006293],[68.3625158,51.7943358],[68.3523663,51.7942803]]]},"properties":{"id":"PZ-ATB-E3","sector_id":"E","population":390,"vulnerable_share":0.17,"source":"DEMO aggregated synthetic population (floor area / 32 m² per person)"}},{"type":"Feature","geometry":{"type":"Polygon","coordinates":[[[68.3526732,51.8066037],[68.3562179,51.8066574],[68.3597638,51.806632],[68.3623439,51.8065232],[68.362427,51.8006293],[68.3522761,51.8005738],[68.3521898,51.8065932],[68.3526732,51.8066037]]]},"properties":{"id":"PZ-ATB-E4","sector_id":"E","population":440,"vulnerable_share":0.23,"source":"DEMO aggregated synthetic population (floor area / 32 m² per person)"}},{"type":"Feature","geometry":{"type":"Polygon","coordinates":[[[68.3625158,51.7943358],[68.362427,51.8006293],[68.3725779,51.8006839],[68.3726653,51.7943903],[68.3625158,51.7943358]]]},"properties":{"id":"PZ-ATB-E5","sector_id":"E","population":180,"vulnerable_share":0.19,"source":"DEMO aggregated synthetic population (floor area / 32 m² per person)"}},{"type":"Feature","geometry":{"type":"Polygon","coordinates":[[[68.3633114,51.8064824],[68.3668611,51.8061808],[68.370413,51.8057218],[68.3725129,51.805368],[68.3725779,51.8006839],[68.362427,51.8006293],[68.3623439,51.8065232],[68.3633114,51.8064824]]]},"properties":{"id":"PZ-ATB-E6","sector_id":"E","population":280,"vulnerable_share":0.23,"source":"DEMO aggregated synthetic population (floor area / 32 m² per person)"}},{"type":"Feature","geometry":{"type":"Polygon","coordinates":[[[68.3741152,51.7943981],[68.3726653,51.7943903],[68.3725779,51.8006839],[68.3740281,51.8006916],[68.3741152,51.7943981]]]},"properties":{"id":"PZ-ATB-E7","sector_id":"E","population":70,"vulnerable_share":0.16,"source":"DEMO aggregated synthetic population (floor area / 32 m² per person)"}}]}