{"type":"FeatureCollection","demo":true,"note":"DEMO DATA — synthetic, not surveyed or measured. For demonstration of ARGUS workflows only.","nodes":[{"type":"Feature","geometry":{"type":"Point","coordinates":[68.2445405,51.8255565]},"properties":{"id":"W1"}},{"type":"Feature","geometry":{"type":"Point","coordinates":[68.2851374,51.8276086]},"properties":{"id":"D1"}},{"type":"Feature","geometry":{"type":"Point","coordinates":[68.3286709,51.8275954]},"properties":{"id":"N2"}},{"type":"Feature","geometry":{"type":"Point","coordinates":[68.3359271,51.8275467]},"properties":{"id":"N3"}},{"type":"Feature","geometry":{"type":"Point","coordinates":[68.3576933,51.8275776]},"properties":{"id":"N4"}},{"type":"Feature","geometry":{"type":"Point","coordinates":[68.3794595,51.8276046]},"properties":{"id":"N5"}},{"type":"Feature","geometry":{"type":"Point","coordinates":[68.4084831,51.8274844]},"properties":{"id":"N6"}},{"type":"Feature","geometry":{"type":"Point","coordinates":[68.4520201,51.8271558]},"properties":{"id":"N7"}},{"type":"Feature","geometry":{"type":"Point","coordinates":[68.4708853,51.8270623]},"properties":{"id":"E1"}},{"type":"Feature","geometry":{"type":"Point","coordinates":[68.2851132,51.829137]},"properties":{"id":"DP"}},{"type":"Feature","geometry":{"type":"Point","coordinates":[68.3577828,51.8212842]},"properties":{"id":"BA"}},{"type":"Feature","geometry":{"type":"Point","coordinates":[68.3579591,51.808877]},"properties":{"id":"R2a"}},{"type":"Feature","geometry":{"type":"Point","coordinates":[68.3580255,51.8042019]},"properties":{"id":"B1S"}},{"type":"Feature","geometry":{"type":"Point","coordinates":[68.3581149,51.7979084]},"properties":{"id":"R2b"}},{"type":"Feature","geometry":{"type":"Point","coordinates":[68.3582808,51.7862204]},"properties":{"id":"R2c"}},{"type":"Feature","geometry":{"type":"Point","coordinates":[68.3585358,51.768239]},"properties":{"id":"S0"}},{"type":"Feature","geometry":{"type":"Point","coordinates":[68.3361769,51.8105544]},"properties":{"id":"R4w"}},{"type":"Feature","geometry":{"type":"Point","coordinates":[68.3434369,51.8100556]},"properties":{"id":"R4b"}},{"type":"Feature","geometry":{"type":"Point","coordinates":[68.3506968,51.8095565]},"properties":{"id":"R4c"}},{"type":"Feature","geometry":{"type":"Point","coordinates":[68.3652212,51.8081971]},"properties":{"id":"R4d"}},{"type":"Feature","geometry":{"type":"Point","coordinates":[68.3724831,51.8075168]},"properties":{"id":"R4e"}},{"type":"Feature","geometry":{"type":"Point","coordinates":[68.3797447,51.806836]},"properties":{"id":"R4f"}},{"type":"Feature","geometry":{"type":"Point","coordinates":[68.36823,51.8004807]},"properties":{"id":"R7a"}},{"type":"Feature","geometry":{"type":"Point","coordinates":[68.378423,51.797478]},"properties":{"id":"R7b"}},{"type":"Feature","geometry":{"type":"Point","coordinates":[68.3886,51.7955532]},"properties":{"id":"R7c"}},{"type":"Feature","geometry":{"type":"Point","coordinates":[68.3958643,51.7945118]},"properties":{"id":"SB"}},{"type":"Feature","geometry":{"type":"Point","coordinates":[68.3915459,51.7921518]},"properties":{"id":"SB1"}},{"type":"Feature","geometry":{"type":"Point","coordinates":[68.4009653,51.7925598]},"properties":{"id":"SB2"}},{"type":"Feature","geometry":{"type":"Point","coordinates":[68.3972878,51.7964972]},"properties":{"id":"SB3"}},{"type":"Feature","geometry":{"type":"Point","coordinates":[68.4133173,51.7904642]},"properties":{"id":"R9a"}},{"type":"Feature","geometry":{"type":"Point","coordinates":[68.4335968,51.7920022]},"properties":{"id":"R9b"}},{"type":"Feature","geometry":{"type":"Point","coordinates":[68.4523994,51.7958677]},"properties":{"id":"R8b"}},{"type":"Feature","geometry":{"type":"Point","coordinates":[68.4523624,51.7989246]},"properties":{"id":"B2S"}},{"type":"Feature","geometry":{"type":"Point","coordinates":[68.4523275,51.8018016]},"properties":{"id":"B2N"}},{"type":"Feature","geometry":{"type":"Point","coordinates":[68.4521728,51.8145686]},"properties":{"id":"R8a"}},{"type":"Feature","geometry":{"type":"Point","coordinates":[68.325946,51.8157112]},"properties":{"id":"R3a"}},{"type":"Feature","geometry":{"type":"Point","coordinates":[68.3143685,51.813846]},"properties":{"id":"R3b"}},{"type":"Feature","geometry":{"type":"Point","coordinates":[68.3085801,51.8129129]},"properties":{"id":"SC"}},{"type":"Feature","geometry":{"type":"Point","coordinates":[68.3042508,51.8114488]},"properties":{"id":"SC1"}},{"type":"Feature","geometry":{"type":"Point","coordinates":[68.2969481,51.8146423]},"properties":{"id":"R3c"}},{"type":"Feature","geometry":{"type":"Point","coordinates":[68.2852725,51.8190676]},"properties":{"id":"R11b"}},{"type":"Feature","geometry":{"type":"Point","coordinates":[68.3954374,51.826429]},"properties":{"id":"IN1"}},{"type":"Feature","geometry":{"type":"Point","coordinates":[68.3361531,51.8121727]},"properties":{"id":"G-1500_700"}},{"type":"Feature","geometry":{"type":"Point","coordinates":[68.3361003,51.8157689]},"properties":{"id":"G-1500_1100"}},{"type":"Feature","geometry":{"type":"Point","coordinates":[68.3360474,51.8193652]},"properties":{"id":"G-1500_1500"}},{"type":"Feature","geometry":{"type":"Point","coordinates":[68.3359946,51.8229614]},"properties":{"id":"G-1500_1900"}},{"type":"Feature","geometry":{"type":"Point","coordinates":[68.3434056,51.8122134]},"properties":{"id":"G-1000_700"}},{"type":"Feature","geometry":{"type":"Point","coordinates":[68.3433533,51.8158097]},"properties":{"id":"G-1000_1100"}},{"type":"Feature","geometry":{"type":"Point","coordinates":[68.343301,51.8194059]},"properties":{"id":"G-1000_1500"}},{"type":"Feature","geometry":{"type":"Point","coordinates":[68.3432488,51.8230022]},"properties":{"id":"G-1000_1900"}},{"type":"Feature","geometry":{"type":"Point","coordinates":[68.3506581,51.8122537]},"properties":{"id":"G-500_700"}},{"type":"Feature","geometry":{"type":"Point","coordinates":[68.3506064,51.8158499]},"properties":{"id":"G-500_1100"}},{"type":"Feature","geometry":{"type":"Point","coordinates":[68.3505547,51.8194462]},"properties":{"id":"G-500_1500"}},{"type":"Feature","geometry":{"type":"Point","coordinates":[68.350503,51.8230425]},"properties":{"id":"G-500_1900"}},{"type":"Feature","geometry":{"type":"Point","coordinates":[68.3579106,51.8122935]},"properties":{"id":"G0_700"}},{"type":"Feature","geometry":{"type":"Point","coordinates":[68.3578595,51.8158898]},"properties":{"id":"G0_1100"}},{"type":"Feature","geometry":{"type":"Point","coordinates":[68.3578083,51.819486]},"properties":{"id":"G0_1500"}},{"type":"Feature","geometry":{"type":"Point","coordinates":[68.3577572,51.8230823]},"properties":{"id":"G0_1900"}},{"type":"Feature","geometry":{"type":"Point","coordinates":[68.3651631,51.8123329]},"properties":{"id":"G500_700"}},{"type":"Feature","geometry":{"type":"Point","coordinates":[68.3651126,51.8159291]},"properties":{"id":"G500_1100"}},{"type":"Feature","geometry":{"type":"Point","coordinates":[68.365062,51.8195254]},"properties":{"id":"G500_1500"}},{"type":"Feature","geometry":{"type":"Point","coordinates":[68.3650115,51.8231217]},"properties":{"id":"G500_1900"}},{"type":"Feature","geometry":{"type":"Point","coordinates":[68.3724156,51.8123718]},"properties":{"id":"G1000_700"}},{"type":"Feature","geometry":{"type":"Point","coordinates":[68.3723657,51.8159681]},"properties":{"id":"G1000_1100"}},{"type":"Feature","geometry":{"type":"Point","coordinates":[68.3723157,51.8195643]},"properties":{"id":"G1000_1500"}},{"type":"Feature","geometry":{"type":"Point","coordinates":[68.3722657,51.8231606]},"properties":{"id":"G1000_1900"}},{"type":"Feature","geometry":{"type":"Point","coordinates":[68.3796682,51.8124103]},"properties":{"id":"G1500_700"}},{"type":"Feature","geometry":{"type":"Point","coordinates":[68.3796188,51.8160065]},"properties":{"id":"G1500_1100"}},{"type":"Feature","geometry":{"type":"Point","coordinates":[68.3795694,51.8196028]},"properties":{"id":"G1500_1500"}},{"type":"Feature","geometry":{"type":"Point","coordinates":[68.37952,51.8231991]},"properties":{"id":"G1500_1900"}}],"features":[{"type":"Feature","geometry":{"type":"LineString","coordinates":[[68.2445405,51.8255565],[68.2851374,51.8276086]]},"properties":{"id":"R1-1","road_id":"R1","road_class":"highway","speed_kmh":80,"u":"W1","v":"D1","length_m":2807.1,"bridge_id":null,"embankment_m":1.5,"key":"W1>D1","name_kk":"R1 солтүстік тас жолы","name_ru":"R1 северная трасса","name_en":"R1 northern highway","name_original":"R1 северная трасса","source":"DEMO"}},{"type":"Feature","geometry":{"type":"LineString","coordinates":[[68.2851374,51.8276086],[68.3286709,51.8275954]]},"properties":{"id":"R1-2","road_id":"R1","road_class":"highway","speed_kmh":80,"u":"D1","v":"N2","length_m":3000.1,"bridge_id":null,"embankment_m":1.5,"key":"D1>N2","name_kk":"R1 солтүстік тас жолы","name_ru":"R1 северная трасса","name_en":"R1 northern highway","name_original":"R1 северная трасса","source":"DEMO"}},{"type":"Feature","geometry":{"type":"LineString","coordinates":[[68.3286709,51.8275954],[68.3359271,51.8275467]]},"properties":{"id":"R1-3","road_id":"R1","road_class":"highway","speed_kmh":80,"u":"N2","v":"N3","length_m":500.1,"bridge_id":null,"embankment_m":1.5,"key":"N2>N3","name_kk":"R1 солтүстік тас жолы","name_ru":"R1 северная трасса","name_en":"R1 northern highway","name_original":"R1 северная трасса","source":"DEMO"}},{"type":"Feature","geometry":{"type":"LineString","coordinates":[[68.3359271,51.8275467],[68.3576933,51.8275776]]},"properties":{"id":"R1-4","road_id":"R1","road_class":"highway","speed_kmh":80,"u":"N3","v":"N4","length_m":1500.0,"bridge_id":null,"embankment_m":1.5,"key":"N3>N4","name_kk":"R1 солтүстік тас жолы","name_ru":"R1 северная трасса","name_en":"R1 northern highway","name_original":"R1 северная трасса","source":"DEMO"}},{"type":"Feature","geometry":{"type":"LineString","coordinates":[[68.3576933,51.8275776],[68.3794595,51.8276046]]},"properties":{"id":"R1-5","road_id":"R1","road_class":"highway","speed_kmh":80,"u":"N4","v":"N5","length_m":1500.0,"bridge_id":null,"embankment_m":1.5,"key":"N4>N5","name_kk":"R1 солтүстік тас жолы","name_ru":"R1 северная трасса","name_en":"R1 northern highway","name_original":"R1 северная трасса","source":"DEMO"}},{"type":"Feature","geometry":{"type":"LineString","coordinates":[[68.3794595,51.8276046],[68.3954374,51.826429]]},"properties":{"id":"R1-6","road_id":"R1","road_class":"highway","speed_kmh":80,"u":"N5","v":"IN1","length_m":1108.9,"bridge_id":null,"embankment_m":1.5,"key":"N5>IN1","name_kk":"R1 солтүстік тас жолы","name_ru":"R1 северная трасса","name_en":"R1 northern highway","name_original":"R1 северная трасса","source":"DEMO"}},{"type":"Feature","geometry":{"type":"LineString","coordinates":[[68.3954374,51.826429],[68.4084831,51.8274844]]},"properties":{"id":"R1-7","road_id":"R1","road_class":"highway","speed_kmh":80,"u":"IN1","v":"N6","length_m":906.7,"bridge_id":null,"embankment_m":1.5,"key":"IN1>N6","name_kk":"R1 солтүстік тас жолы","name_ru":"R1 северная трасса","name_en":"R1 northern highway","name_original":"R1 северная трасса","source":"DEMO"}},{"type":"Feature","geometry":{"type":"LineString","coordinates":[[68.4084831,51.8274844],[68.4520201,51.8271558]]},"properties":{"id":"R1-8","road_id":"R1","road_class":"highway","speed_kmh":80,"u":"N6","v":"N7","length_m":3000.6,"bridge_id":null,"embankment_m":1.5,"key":"N6>N7","name_kk":"R1 солтүстік тас жолы","name_ru":"R1 северная трасса","name_en":"R1 northern highway","name_original":"R1 северная трасса","source":"DEMO"}},{"type":"Feature","geometry":{"type":"LineString","coordinates":[[68.4520201,51.8271558],[68.4708853,51.8270623]]},"properties":{"id":"R1-9","road_id":"R1","road_class":"highway","speed_kmh":80,"u":"N7","v":"E1","length_m":1300.2,"bridge_id":null,"embankment_m":1.5,"key":"N7>E1","name_kk":"R1 солтүстік тас жолы","name_ru":"R1 северная трасса","name_en":"R1 northern highway","name_original":"R1 северная трасса","source":"DEMO"}},{"type":"Feature","geometry":{"type":"LineString","coordinates":[[68.2851132,51.829137],[68.2851374,51.8276086]]},"properties":{"id":"R11-1","road_id":"R11","road_class":"rural","speed_kmh":50,"u":"DP","v":"D1","length_m":170.0,"bridge_id":null,"embankment_m":1.0,"key":"DP>D1","name_kk":"R11 қойма жолы","name_ru":"R11 дорога к складу","name_en":"R11 depot road","name_original":"R11 дорога к складу","source":"DEMO"}},{"type":"Feature","geometry":{"type":"LineString","coordinates":[[68.3576933,51.8275776],[68.3577572,51.8230823]]},"properties":{"id":"R2-1","road_id":"R2","road_class":"urban_main","speed_kmh":40,"u":"N4","v":"G0_1900","length_m":500.0,"bridge_id":null,"embankment_m":0.3,"key":"N4>G0_1900","name_kk":"R2 орталық көше","name_ru":"R2 центральная улица","name_en":"R2 main street","name_original":"R2 центральная улица","source":"DEMO"}},{"type":"Feature","geometry":{"type":"LineString","coordinates":[[68.3577572,51.8230823],[68.3577828,51.8212842]]},"properties":{"id":"R2-2","road_id":"R2","road_class":"urban_main","speed_kmh":40,"u":"G0_1900","v":"BA","length_m":200.0,"bridge_id":null,"embankment_m":0.3,"key":"G0_1900>BA","name_kk":"R2 орталық көше","name_ru":"R2 центральная улица","name_en":"R2 main street","name_original":"R2 центральная улица","source":"DEMO"}},{"type":"Feature","geometry":{"type":"LineString","coordinates":[[68.3577828,51.8212842],[68.3578083,51.819486]]},"properties":{"id":"R2-3","road_id":"R2","road_class":"urban_main","speed_kmh":40,"u":"BA","v":"G0_1500","length_m":200.0,"bridge_id":null,"embankment_m":0.3,"key":"BA>G0_1500","name_kk":"R2 орталық көше","name_ru":"R2 центральная улица","name_en":"R2 main street","name_original":"R2 центральная улица","source":"DEMO"}},{"type":"Feature","geometry":{"type":"LineString","coordinates":[[68.3578083,51.819486],[68.3578595,51.8158898]]},"properties":{"id":"R2-4","road_id":"R2","road_class":"urban_main","speed_kmh":40,"u":"G0_1500","v":"G0_1100","length_m":400.0,"bridge_id":null,"embankment_m":0.3,"key":"G0_1500>G0_1100","name_kk":"R2 орталық көше","name_ru":"R2 центральная улица","name_en":"R2 main street","name_original":"R2 центральная улица","source":"DEMO"}},{"type":"Feature","geometry":{"type":"LineString","coordinates":[[68.3578595,51.8158898],[68.3579106,51.8122935]]},"properties":{"id":"R2-5","road_id":"R2","road_class":"urban_main","speed_kmh":40,"u":"G0_1100","v":"G0_700","length_m":400.0,"bridge_id":null,"embankment_m":0.3,"key":"G0_1100>G0_700","name_kk":"R2 орталық көше","name_ru":"R2 центральная улица","name_en":"R2 main street","name_original":"R2 центральная улица","source":"DEMO"}},{"type":"Feature","geometry":{"type":"LineString","coordinates":[[68.3579106,51.8122935],[68.3579591,51.808877]]},"properties":{"id":"R2-6","road_id":"R2","road_class":"urban_main","speed_kmh":40,"u":"G0_700","v":"R2a","length_m":380.0,"bridge_id":null,"embankment_m":1.193,"key":"G0_700>R2a","name_kk":"R2 орталық көше","name_ru":"R2 центральная улица","name_en":"R2 main street","name_original":"R2 центральная улица","source":"DEMO"}},{"type":"Feature","geometry":{"type":"LineString","coordinates":[[68.3579591,51.808877],[68.3580255,51.8042019]]},"properties":{"id":"R2-7","road_id":"R2","road_class":"urban_main","speed_kmh":40,"u":"R2a","v":"B1S","length_m":520.0,"bridge_id":"B1","embankment_m":0.0,"key":"R2a>B1S","name_kk":"R2 орталық көше","name_ru":"R2 центральная улица","name_en":"R2 main street","name_original":"R2 центральная улица","source":"DEMO"}},{"type":"Feature","geometry":{"type":"LineString","coordinates":[[68.3580255,51.8042019],[68.3581149,51.7979084]]},"properties":{"id":"R2-8","road_id":"R2","road_class":"urban_main","speed_kmh":40,"u":"B1S","v":"R2b","length_m":700.0,"bridge_id":null,"embankment_m":1.185,"key":"B1S>R2b","name_kk":"R2 орталық көше","name_ru":"R2 центральная улица","name_en":"R2 main street","name_original":"R2 центральная улица","source":"DEMO"}},{"type":"Feature","geometry":{"type":"LineString","coordinates":[[68.3581149,51.7979084],[68.3582808,51.7862204]]},"properties":{"id":"R2-9","road_id":"R2","road_class":"urban_main","speed_kmh":40,"u":"R2b","v":"R2c","length_m":1300.0,"bridge_id":null,"embankment_m":0.038,"key":"R2b>R2c","name_kk":"R2 орталық көше","name_ru":"R2 центральная улица","name_en":"R2 main street","name_original":"R2 центральная улица","source":"DEMO"}},{"type":"Feature","geometry":{"type":"LineString","coordinates":[[68.3582808,51.7862204],[68.3585358,51.768239]]},"properties":{"id":"R2-10","road_id":"R2","road_class":"urban_main","speed_kmh":40,"u":"R2c","v":"S0","length_m":2000.0,"bridge_id":null,"embankment_m":0.3,"key":"R2c>S0","name_kk":"R2 орталық көше","name_ru":"R2 центральная улица","name_en":"R2 main street","name_original":"R2 центральная улица","source":"DEMO"}},{"type":"Feature","geometry":{"type":"LineString","coordinates":[[68.3361769,51.8105544],[68.3434369,51.8100556]]},"properties":{"id":"R4-1","road_id":"R4","road_class":"urban","speed_kmh":30,"u":"R4w","v":"R4b","length_m":503.6,"bridge_id":null,"embankment_m":0.0,"key":"R4w>R4b","name_kk":"R4 жағалау көшесі","name_ru":"R4 набережная","name_en":"R4 riverside street","name_original":"R4 набережная","source":"DEMO"}},{"type":"Feature","geometry":{"type":"LineString","coordinates":[[68.3434369,51.8100556],[68.3506968,51.8095565]]},"properties":{"id":"R4-2","road_id":"R4","road_class":"urban","speed_kmh":30,"u":"R4b","v":"R4c","length_m":503.6,"bridge_id":null,"embankment_m":0.164,"key":"R4b>R4c","name_kk":"R4 жағалау көшесі","name_ru":"R4 набережная","name_en":"R4 riverside street","name_original":"R4 набережная","source":"DEMO"}},{"type":"Feature","geometry":{"type":"LineString","coordinates":[[68.3506968,51.8095565],[68.3579591,51.808877]]},"properties":{"id":"R4-3","road_id":"R4","road_class":"urban","speed_kmh":30,"u":"R4c","v":"R2a","length_m":506.4,"bridge_id":null,"embankment_m":0.593,"key":"R4c>R2a","name_kk":"R4 жағалау көшесі","name_ru":"R4 набережная","name_en":"R4 riverside street","name_original":"R4 набережная","source":"DEMO"}},{"type":"Feature","geometry":{"type":"LineString","coordinates":[[68.3579591,51.808877],[68.3652212,51.8081971]]},"properties":{"id":"R4-4","road_id":"R4","road_class":"urban","speed_kmh":30,"u":"R2a","v":"R4d","length_m":506.4,"bridge_id":null,"embankment_m":0.987,"key":"R2a>R4d","name_kk":"R4 жағалау көшесі","name_ru":"R4 набережная","name_en":"R4 riverside street","name_original":"R4 набережная","source":"DEMO"}},{"type":"Feature","geometry":{"type":"LineString","coordinates":[[68.3652212,51.8081971],[68.3724831,51.8075168]]},"properties":{"id":"R4-5","road_id":"R4","road_class":"urban","speed_kmh":30,"u":"R4d","v":"R4e","length_m":506.4,"bridge_id":null,"embankment_m":0.987,"key":"R4d>R4e","name_kk":"R4 жағалау көшесі","name_ru":"R4 набережная","name_en":"R4 riverside street","name_original":"R4 набережная","source":"DEMO"}},{"type":"Feature","geometry":{"type":"LineString","coordinates":[[68.3724831,51.8075168],[68.3797447,51.806836]]},"properties":{"id":"R4-6","road_id":"R4","road_class":"urban","speed_kmh":30,"u":"R4e","v":"R4f","length_m":506.4,"bridge_id":null,"embankment_m":0.768,"key":"R4e>R4f","name_kk":"R4 жағалау көшесі","name_ru":"R4 набережная","name_en":"R4 riverside street","name_original":"R4 набережная","source":"DEMO"}},{"type":"Feature","geometry":{"type":"LineString","coordinates":[[68.3580255,51.8042019],[68.36823,51.8004807]]},"properties":{"id":"R7-1","road_id":"R7","road_class":"rural","speed_kmh":50,"u":"B1S","v":"R7a","length_m":816.3,"bridge_id":null,"embankment_m":1.135,"key":"B1S>R7a","name_kk":"R7 жайылма жолы","name_ru":"R7 пойменная дорога","name_en":"R7 floodplain road","name_original":"R7 пойменная дорога","source":"DEMO"}},{"type":"Feature","geometry":{"type":"LineString","coordinates":[[68.36823,51.8004807],[68.378423,51.797478]]},"properties":{"id":"R7-2","road_id":"R7","road_class":"rural","speed_kmh":50,"u":"R7a","v":"R7b","length_m":778.2,"bridge_id":null,"embankment_m":0.377,"key":"R7a>R7b","name_kk":"R7 жайылма жолы","name_ru":"R7 пойменная дорога","name_en":"R7 floodplain road","name_original":"R7 пойменная дорога","source":"DEMO"}},{"type":"Feature","geometry":{"type":"LineString","coordinates":[[68.378423,51.797478],[68.3886,51.7955532]]},"properties":{"id":"R7-3","road_id":"R7","road_class":"rural","speed_kmh":50,"u":"R7b","v":"R7c","length_m":733.8,"bridge_id":null,"embankment_m":0.0,"key":"R7b>R7c","name_kk":"R7 жайылма жолы","name_ru":"R7 пойменная дорога","name_en":"R7 floodplain road","name_original":"R7 пойменная дорога","source":"DEMO"}},{"type":"Feature","geometry":{"type":"LineString","coordinates":[[68.3886,51.7955532],[68.3958643,51.7945118]]},"properties":{"id":"R7-4","road_id":"R7","road_class":"rural","speed_kmh":50,"u":"R7c","v":"SB","length_m":514.2,"bridge_id":null,"embankment_m":0.308,"key":"R7c>SB","name_kk":"R7 жайылма жолы","name_ru":"R7 пойменная дорога","name_en":"R7 floodplain road","name_original":"R7 пойменная дорога","source":"DEMO"}},{"type":"Feature","geometry":{"type":"LineString","coordinates":[[68.3972878,51.7964972],[68.3958643,51.7945118]]},"properties":{"id":"R10-1","road_id":"R10","road_class":"urban","speed_kmh":30,"u":"SB3","v":"SB","length_m":241.7,"bridge_id":null,"embankment_m":0.5,"key":"SB3>SB","name_kk":"R10 B секторының көшелері","name_ru":"R10 улицы сектора B","name_en":"R10 Sector B streets","name_original":"R10 улицы сектора B","source":"DEMO"}},{"type":"Feature","geometry":{"type":"LineString","coordinates":[[68.3958643,51.7945118],[68.3915459,51.7921518]]},"properties":{"id":"R10-2","road_id":"R10","road_class":"urban","speed_kmh":30,"u":"SB","v":"SB1","length_m":397.0,"bridge_id":null,"embankment_m":0.5,"key":"SB>SB1","name_kk":"R10 B секторының көшелері","name_ru":"R10 улицы сектора B","name_en":"R10 Sector B streets","name_original":"R10 улицы сектора B","source":"DEMO"}},{"type":"Feature","geometry":{"type":"LineString","coordinates":[[68.3915459,51.7921518],[68.4009653,51.7925598]]},"properties":{"id":"R10-3","road_id":"R10","road_class":"urban","speed_kmh":30,"u":"SB1","v":"SB2","length_m":651.2,"bridge_id":null,"embankment_m":0.5,"key":"SB1>SB2","name_kk":"R10 B секторының көшелері","name_ru":"R10 улицы сектора B","name_en":"R10 Sector B streets","name_original":"R10 улицы сектора B","source":"DEMO"}},{"type":"Feature","geometry":{"type":"LineString","coordinates":[[68.4009653,51.7925598],[68.3958643,51.7945118]]},"properties":{"id":"R10-4","road_id":"R10","road_class":"urban","speed_kmh":30,"u":"SB2","v":"SB","length_m":413.4,"bridge_id":null,"embankment_m":0.5,"key":"SB2>SB","name_kk":"R10 B секторының көшелері","name_ru":"R10 улицы сектора B","name_en":"R10 Sector B streets","name_original":"R10 улицы сектора B","source":"DEMO"}},{"type":"Feature","geometry":{"type":"LineString","coordinates":[[68.4009653,51.7925598],[68.4133173,51.7904642]]},"properties":{"id":"R9-1","road_id":"R9","road_class":"track","speed_kmh":25,"u":"SB2","v":"R9a","length_m":883.2,"bridge_id":null,"embankment_m":1.0,"key":"SB2>R9a","name_kk":"R9 террасалық дала жолы","name_ru":"R9 полевая дорога по террасе","name_en":"R9 terrace field road","name_original":"R9 полевая дорога по террасе","source":"DEMO"}},{"type":"Feature","geometry":{"type":"LineString","coordinates":[[68.4133173,51.7904642],[68.4335968,51.7920022]]},"properties":{"id":"R9-2","road_id":"R9","road_class":"track","speed_kmh":25,"u":"R9a","v":"R9b","length_m":1409.1,"bridge_id":null,"embankment_m":1.0,"key":"R9a>R9b","name_kk":"R9 террасалық дала жолы","name_ru":"R9 полевая дорога по террасе","name_en":"R9 terrace field road","name_original":"R9 полевая дорога по террасе","source":"DEMO"}},{"type":"Feature","geometry":{"type":"LineString","coordinates":[[68.4335968,51.7920022],[68.4523994,51.7958677]]},"properties":{"id":"R9-3","road_id":"R9","road_class":"track","speed_kmh":25,"u":"R9b","v":"R8b","length_m":1366.2,"bridge_id":null,"embankment_m":1.0,"key":"R9b>R8b","name_kk":"R9 террасалық дала жолы","name_ru":"R9 полевая дорога по террасе","name_en":"R9 terrace field road","name_original":"R9 полевая дорога по террасе","source":"DEMO"}},{"type":"Feature","geometry":{"type":"LineString","coordinates":[[68.4520201,51.8271558],[68.4521728,51.8145686]]},"properties":{"id":"R8-1","road_id":"R8","road_class":"rural","speed_kmh":60,"u":"N7","v":"R8a","length_m":1400.0,"bridge_id":null,"embankment_m":0.3,"key":"N7>R8a","name_kk":"R8 шығыс жолы","name_ru":"R8 восточная дорога","name_en":"R8 eastern road","name_original":"R8 восточная дорога","source":"DEMO"}},{"type":"Feature","geometry":{"type":"LineString","coordinates":[[68.4521728,51.8145686],[68.4523275,51.8018016]]},"properties":{"id":"R8-2","road_id":"R8","road_class":"rural","speed_kmh":60,"u":"R8a","v":"B2N","length_m":1420.0,"bridge_id":null,"embankment_m":0.693,"key":"R8a>B2N","name_kk":"R8 шығыс жолы","name_ru":"R8 восточная дорога","name_en":"R8 eastern road","name_original":"R8 восточная дорога","source":"DEMO"}},{"type":"Feature","geometry":{"type":"LineString","coordinates":[[68.4523275,51.8018016],[68.4523624,51.7989246]]},"properties":{"id":"R8-3","road_id":"R8","road_class":"rural","speed_kmh":60,"u":"B2N","v":"B2S","length_m":320.0,"bridge_id":"B2","embankment_m":0.0,"key":"B2N>B2S","name_kk":"R8 шығыс жолы","name_ru":"R8 восточная дорога","name_en":"R8 eastern road","name_original":"R8 восточная дорога","source":"DEMO"}},{"type":"Feature","geometry":{"type":"LineString","coordinates":[[68.4523624,51.7989246],[68.4523994,51.7958677]]},"properties":{"id":"R8-4","road_id":"R8","road_class":"rural","speed_kmh":60,"u":"B2S","v":"R8b","length_m":340.0,"bridge_id":null,"embankment_m":1.781,"key":"B2S>R8b","name_kk":"R8 шығыс жолы","name_ru":"R8 восточная дорога","name_en":"R8 eastern road","name_original":"R8 восточная дорога","source":"DEMO"}},{"type":"Feature","geometry":{"type":"LineString","coordinates":[[68.3286709,51.8275954],[68.325946,51.8157112]]},"properties":{"id":"R3-1","road_id":"R3","road_class":"rural","speed_kmh":50,"u":"N2","v":"R3a","length_m":1335.1,"bridge_id":null,"embankment_m":0.6,"key":"N2>R3a","name_kk":"R3 батыс жолы","name_ru":"R3 западная дорога","name_en":"R3 western road","name_original":"R3 западная дорога","source":"DEMO"}},{"type":"Feature","geometry":{"type":"LineString","coordinates":[[68.325946,51.8157112],[68.3143685,51.813846]]},"properties":{"id":"R3-2","road_id":"R3","road_class":"rural","speed_kmh":50,"u":"R3a","v":"R3b","length_m":824.6,"bridge_id":null,"embankment_m":0.6,"key":"R3a>R3b","name_kk":"R3 батыс жолы","name_ru":"R3 западная дорога","name_en":"R3 western road","name_original":"R3 западная дорога","source":"DEMO"}},{"type":"Feature","geometry":{"type":"LineString","coordinates":[[68.3143685,51.813846],[68.3085801,51.8129129]]},"properties":{"id":"R3-3","road_id":"R3","road_class":"rural","speed_kmh":50,"u":"R3b","v":"SC","length_m":412.3,"bridge_id":null,"embankment_m":0.6,"key":"R3b>SC","name_kk":"R3 батыс жолы","name_ru":"R3 западная дорога","name_en":"R3 western road","name_original":"R3 западная дорога","source":"DEMO"}},{"type":"Feature","geometry":{"type":"LineString","coordinates":[[68.3085801,51.8129129],[68.3042508,51.8114488]]},"properties":{"id":"R3-4","road_id":"R3","road_class":"rural","speed_kmh":50,"u":"SC","v":"SC1","length_m":340.0,"bridge_id":null,"embankment_m":0.579,"key":"SC>SC1","name_kk":"R3 батыс жолы","name_ru":"R3 западная дорога","name_en":"R3 western road","name_original":"R3 западная дорога","source":"DEMO"}},{"type":"Feature","geometry":{"type":"LineString","coordinates":[[68.3085801,51.8129129],[68.2969481,51.8146423]]},"properties":{"id":"R12-1","road_id":"R12","road_class":"rural","speed_kmh":50,"u":"SC","v":"R3c","length_m":824.6,"bridge_id":null,"embankment_m":0.8,"key":"SC>R3c","name_kk":"R12 қойма айналма жолы","name_ru":"R12 объездная к складу","name_en":"R12 depot bypass","name_original":"R12 объездная к складу","source":"DEMO"}},{"type":"Feature","geometry":{"type":"LineString","coordinates":[[68.2969481,51.8146423],[68.2852725,51.8190676]]},"properties":{"id":"R12-2","road_id":"R12","road_class":"rural","speed_kmh":50,"u":"R3c","v":"R11b","length_m":943.4,"bridge_id":null,"embankment_m":0.8,"key":"R3c>R11b","name_kk":"R12 қойма айналма жолы","name_ru":"R12 объездная к складу","name_en":"R12 depot bypass","name_original":"R12 объездная к складу","source":"DEMO"}},{"type":"Feature","geometry":{"type":"LineString","coordinates":[[68.2852725,51.8190676],[68.2851374,51.8276086]]},"properties":{"id":"R12-3","road_id":"R12","road_class":"rural","speed_kmh":50,"u":"R11b","v":"D1","length_m":950.0,"bridge_id":null,"embankment_m":0.8,"key":"R11b>D1","name_kk":"R12 қойма айналма жолы","name_ru":"R12 объездная к складу","name_en":"R12 depot bypass","name_original":"R12 объездная к складу","source":"DEMO"}},{"type":"Feature","geometry":{"type":"LineString","coordinates":[[68.3361003,51.8157689],[68.325946,51.8157112]]},"properties":{"id":"U1-1","road_id":"U1","road_class":"urban","speed_kmh":30,"u":"G-1500_1100","v":"R3a","length_m":700.0,"bridge_id":null,"embankment_m":0.3,"key":"G-1500_1100>R3a","name_kk":"U1 қала көшесі","name_ru":"U1 городская улица","name_en":"U1 town street","name_original":"U1 городская улица","source":"DEMO"}},{"type":"Feature","geometry":{"type":"LineString","coordinates":[[68.3361531,51.8121727],[68.3434056,51.8122134]]},"properties":{"id":"U700-1","road_id":"U700","road_class":"urban","speed_kmh":30,"u":"G-1500_700","v":"G-1000_700","length_m":500.0,"bridge_id":null,"embankment_m":0.3,"key":"G-1500_700>G-1000_700","name_kk":"Қала көшесі 700","name_ru":"Городская улица 700","name_en":"Town street 700","name_original":"Городская улица 700","source":"DEMO"}},{"type":"Feature","geometry":{"type":"LineString","coordinates":[[68.3434056,51.8122134],[68.3506581,51.8122537]]},"properties":{"id":"U700-2","road_id":"U700","road_class":"urban","speed_kmh":30,"u":"G-1000_700","v":"G-500_700","length_m":500.0,"bridge_id":null,"embankment_m":0.3,"key":"G-1000_700>G-500_700","name_kk":"Қала көшесі 700","name_ru":"Городская улица 700","name_en":"Town street 700","name_original":"Городская улица 700","source":"DEMO"}},{"type":"Feature","geometry":{"type":"LineString","coordinates":[[68.3506581,51.8122537],[68.3579106,51.8122935]]},"properties":{"id":"U700-3","road_id":"U700","road_class":"urban","speed_kmh":30,"u":"G-500_700","v":"G0_700","length_m":500.0,"bridge_id":null,"embankment_m":0.3,"key":"G-500_700>G0_700","name_kk":"Қала көшесі 700","name_ru":"Городская улица 700","name_en":"Town street 700","name_original":"Городская улица 700","source":"DEMO"}},{"type":"Feature","geometry":{"type":"LineString","coordinates":[[68.3579106,51.8122935],[68.3651631,51.8123329]]},"properties":{"id":"U700-4","road_id":"U700","road_class":"urban","speed_kmh":30,"u":"G0_700","v":"G500_700","length_m":500.0,"bridge_id":null,"embankment_m":0.3,"key":"G0_700>G500_700","name_kk":"Қала көшесі 700","name_ru":"Городская улица 700","name_en":"Town street 700","name_original":"Городская улица 700","source":"DEMO"}},{"type":"Feature","geometry":{"type":"LineString","coordinates":[[68.3651631,51.8123329],[68.3724156,51.8123718]]},"properties":{"id":"U700-5","road_id":"U700","road_class":"urban","speed_kmh":30,"u":"G500_700","v":"G1000_700","length_m":500.0,"bridge_id":null,"embankment_m":0.3,"key":"G500_700>G1000_700","name_kk":"Қала көшесі 700","name_ru":"Городская улица 700","name_en":"Town street 700","name_original":"Городская улица 700","source":"DEMO"}},{"type":"Feature","geometry":{"type":"LineString","coordinates":[[68.3724156,51.8123718],[68.3796682,51.8124103]]},"properties":{"id":"U700-6","road_id":"U700","road_class":"urban","speed_kmh":30,"u":"G1000_700","v":"G1500_700","length_m":500.0,"bridge_id":null,"embankment_m":0.3,"key":"G1000_700>G1500_700","name_kk":"Қала көшесі 700","name_ru":"Городская улица 700","name_en":"Town street 700","name_original":"Городская улица 700","source":"DEMO"}},{"type":"Feature","geometry":{"type":"LineString","coordinates":[[68.3361003,51.8157689],[68.3433533,51.8158097]]},"properties":{"id":"U1100-1","road_id":"U1100","road_class":"urban","speed_kmh":30,"u":"G-1500_1100","v":"G-1000_1100","length_m":500.0,"bridge_id":null,"embankment_m":0.3,"key":"G-1500_1100>G-1000_1100","name_kk":"Қала көшесі 1100","name_ru":"Городская улица 1100","name_en":"Town street 1100","name_original":"Городская улица 1100","source":"DEMO"}},{"type":"Feature","geometry":{"type":"LineString","coordinates":[[68.3433533,51.8158097],[68.3506064,51.8158499]]},"properties":{"id":"U1100-2","road_id":"U1100","road_class":"urban","speed_kmh":30,"u":"G-1000_1100","v":"G-500_1100","length_m":500.0,"bridge_id":null,"embankment_m":0.3,"key":"G-1000_1100>G-500_1100","name_kk":"Қала көшесі 1100","name_ru":"Городская улица 1100","name_en":"Town street 1100","name_original":"Городская улица 1100","source":"DEMO"}},{"type":"Feature","geometry":{"type":"LineString","coordinates":[[68.3506064,51.8158499],[68.3578595,51.8158898]]},"properties":{"id":"U1100-3","road_id":"U1100","road_class":"urban","speed_kmh":30,"u":"G-500_1100","v":"G0_1100","length_m":500.0,"bridge_id":null,"embankment_m":0.3,"key":"G-500_1100>G0_1100","name_kk":"Қала көшесі 1100","name_ru":"Городская улица 1100","name_en":"Town street 1100","name_original":"Городская улица 1100","source":"DEMO"}},{"type":"Feature","geometry":{"type":"LineString","coordinates":[[68.3578595,51.8158898],[68.3651126,51.8159291]]},"properties":{"id":"U1100-4","road_id":"U1100","road_class":"urban","speed_kmh":30,"u":"G0_1100","v":"G500_1100","length_m":500.0,"bridge_id":null,"embankment_m":0.3,"key":"G0_1100>G500_1100","name_kk":"Қала көшесі 1100","name_ru":"Городская улица 1100","name_en":"Town street 1100","name_original":"Городская улица 1100","source":"DEMO"}},{"type":"Feature","geometry":{"type":"LineString","coordinates":[[68.3651126,51.8159291],[68.3723657,51.8159681]]},"properties":{"id":"U1100-5","road_id":"U1100","road_class":"urban","speed_kmh":30,"u":"G500_1100","v":"G1000_1100","length_m":500.0,"bridge_id":null,"embankment_m":0.3,"key":"G500_1100>G1000_1100","name_kk":"Қала көшесі 1100","name_ru":"Городская улица 1100","name_en":"Town street 1100","name_original":"Городская улица 1100","source":"DEMO"}},{"type":"Feature","geometry":{"type":"LineString","coordinates":[[68.3723657,51.8159681],[68.3796188,51.8160065]]},"properties":{"id":"U1100-6","road_id":"U1100","road_class":"urban","speed_kmh":30,"u":"G1000_1100","v":"G1500_1100","length_m":500.0,"bridge_id":null,"embankment_m":0.3,"key":"G1000_1100>G1500_1100","name_kk":"Қала көшесі 1100","name_ru":"Городская улица 1100","name_en":"Town street 1100","name_original":"Городская улица 1100","source":"DEMO"}},{"type":"Feature","geometry":{"type":"LineString","coordinates":[[68.3360474,51.8193652],[68.343301,51.8194059]]},"properties":{"id":"U1500-1","road_id":"U1500","road_class":"urban","speed_kmh":30,"u":"G-1500_1500","v":"G-1000_1500","length_m":500.0,"bridge_id":null,"embankment_m":0.3,"key":"G-1500_1500>G-1000_1500","name_kk":"Қала көшесі 1500","name_ru":"Городская улица 1500","name_en":"Town street 1500","name_original":"Городская улица 1500","source":"DEMO"}},{"type":"Feature","geometry":{"type":"LineString","coordinates":[[68.343301,51.8194059],[68.3505547,51.8194462]]},"properties":{"id":"U1500-2","road_id":"U1500","road_class":"urban","speed_kmh":30,"u":"G-1000_1500","v":"G-500_1500","length_m":500.0,"bridge_id":null,"embankment_m":0.3,"key":"G-1000_1500>G-500_1500","name_kk":"Қала көшесі 1500","name_ru":"Городская улица 1500","name_en":"Town street 1500","name_original":"Городская улица 1500","source":"DEMO"}},{"type":"Feature","geometry":{"type":"LineString","coordinates":[[68.3505547,51.8194462],[68.3578083,51.819486]]},"properties":{"id":"U1500-3","road_id":"U1500","road_class":"urban","speed_kmh":30,"u":"G-500_1500","v":"G0_1500","length_m":500.0,"bridge_id":null,"embankment_m":0.3,"key":"G-500_1500>G0_1500","name_kk":"Қала көшесі 1500","name_ru":"Городская улица 1500","name_en":"Town street 1500","name_original":"Городская улица 1500","source":"DEMO"}},{"type":"Feature","geometry":{"type":"LineString","coordinates":[[68.3578083,51.819486],[68.365062,51.8195254]]},"properties":{"id":"U1500-4","road_id":"U1500","road_class":"urban","speed_kmh":30,"u":"G0_1500","v":"G500_1500","length_m":500.0,"bridge_id":null,"embankment_m":0.3,"key":"G0_1500>G500_1500","name_kk":"Қала көшесі 1500","name_ru":"Городская улица 1500","name_en":"Town street 1500","name_original":"Городская улица 1500","source":"DEMO"}},{"type":"Feature","geometry":{"type":"LineString","coordinates":[[68.365062,51.8195254],[68.3723157,51.8195643]]},"properties":{"id":"U1500-5","road_id":"U1500","road_class":"urban","speed_kmh":30,"u":"G500_1500","v":"G1000_1500","length_m":500.0,"bridge_id":null,"embankment_m":0.3,"key":"G500_1500>G1000_1500","name_kk":"Қала көшесі 1500","name_ru":"Городская улица 1500","name_en":"Town street 1500","name_original":"Городская улица 1500","source":"DEMO"}},{"type":"Feature","geometry":{"type":"LineString","coordinates":[[68.3723157,51.8195643],[68.3795694,51.8196028]]},"properties":{"id":"U1500-6","road_id":"U1500","road_class":"urban","speed_kmh":30,"u":"G1000_1500","v":"G1500_1500","length_m":500.0,"bridge_id":null,"embankment_m":0.3,"key":"G1000_1500>G1500_1500","name_kk":"Қала көшесі 1500","name_ru":"Городская улица 1500","name_en":"Town street 1500","name_original":"Городская улица 1500","source":"DEMO"}},{"type":"Feature","geometry":{"type":"LineString","coordinates":[[68.3359946,51.8229614],[68.3432488,51.8230022]]},"properties":{"id":"U1900-1","road_id":"U1900","road_class":"urban","speed_kmh":30,"u":"G-1500_1900","v":"G-1000_1900","length_m":500.0,"bridge_id":null,"embankment_m":0.3,"key":"G-1500_1900>G-1000_1900","name_kk":"Қала көшесі 1900","name_ru":"Городская улица 1900","name_en":"Town street 1900","name_original":"Городская улица 1900","source":"DEMO"}},{"type":"Feature","geometry":{"type":"LineString","coordinates":[[68.3432488,51.8230022],[68.350503,51.8230425]]},"properties":{"id":"U1900-2","road_id":"U1900","road_class":"urban","speed_kmh":30,"u":"G-1000_1900","v":"G-500_1900","length_m":500.0,"bridge_id":null,"embankment_m":0.3,"key":"G-1000_1900>G-500_1900","name_kk":"Қала көшесі 1900","name_ru":"Городская улица 1900","name_en":"Town street 1900","name_original":"Городская улица 1900","source":"DEMO"}},{"type":"Feature","geometry":{"type":"LineString","coordinates":[[68.350503,51.8230425],[68.3577572,51.8230823]]},"properties":{"id":"U1900-3","road_id":"U1900","road_class":"urban","speed_kmh":30,"u":"G-500_1900","v":"G0_1900","length_m":500.0,"bridge_id":null,"embankment_m":0.3,"key":"G-500_1900>G0_1900","name_kk":"Қала көшесі 1900","name_ru":"Городская улица 1900","name_en":"Town street 1900","name_original":"Городская улица 1900","source":"DEMO"}},{"type":"Feature","geometry":{"type":"LineString","coordinates":[[68.3577572,51.8230823],[68.3650115,51.8231217]]},"properties":{"id":"U1900-4","road_id":"U1900","road_class":"urban","speed_kmh":30,"u":"G0_1900","v":"G500_1900","length_m":500.0,"bridge_id":null,"embankment_m":0.3,"key":"G0_1900>G500_1900","name_kk":"Қала көшесі 1900","name_ru":"Городская улица 1900","name_en":"Town street 1900","name_original":"Городская улица 1900","source":"DEMO"}},{"type":"Feature","geometry":{"type":"LineString","coordinates":[[68.3650115,51.8231217],[68.3722657,51.8231606]]},"properties":{"id":"U1900-5","road_id":"U1900","road_class":"urban","speed_kmh":30,"u":"G500_1900","v":"G1000_1900","length_m":500.0,"bridge_id":null,"embankment_m":0.3,"key":"G500_1900>G1000_1900","name_kk":"Қала көшесі 1900","name_ru":"Городская улица 1900","name_en":"Town street 1900","name_original":"Городская улица 1900","source":"DEMO"}},{"type":"Feature","geometry":{"type":"LineString","coordinates":[[68.3722657,51.8231606],[68.37952,51.8231991]]},"properties":{"id":"U1900-6","road_id":"U1900","road_class":"urban","speed_kmh":30,"u":"G1000_1900","v":"G1500_1900","length_m":500.0,"bridge_id":null,"embankment_m":0.3,"key":"G1000_1900>G1500_1900","name_kk":"Қала көшесі 1900","name_ru":"Городская улица 1900","name_en":"Town street 1900","name_original":"Городская улица 1900","source":"DEMO"}},{"type":"Feature","geometry":{"type":"LineString","coordinates":[[68.3361531,51.8121727],[68.3361003,51.8157689]]},"properties":{"id":"V-1500-1","road_id":"V-1500","road_class":"urban","speed_kmh":30,"u":"G-1500_700","v":"G-1500_1100","length_m":400.0,"bridge_id":null,"embankment_m":0.3,"key":"G-1500_700>G-1500_1100","name_kk":"Көлденең көше -1500","name_ru":"Поперечная улица -1500","name_en":"Cross street -1500","name_original":"Поперечная улица -1500","source":"DEMO"}},{"type":"Feature","geometry":{"type":"LineString","coordinates":[[68.3361003,51.8157689],[68.3360474,51.8193652]]},"properties":{"id":"V-1500-2","road_id":"V-1500","road_class":"urban","speed_kmh":30,"u":"G-1500_1100","v":"G-1500_1500","length_m":400.0,"bridge_id":null,"embankment_m":0.3,"key":"G-1500_1100>G-1500_1500","name_kk":"Көлденең көше -1500","name_ru":"Поперечная улица -1500","name_en":"Cross street -1500","name_original":"Поперечная улица -1500","source":"DEMO"}},{"type":"Feature","geometry":{"type":"LineString","coordinates":[[68.3360474,51.8193652],[68.3359946,51.8229614]]},"properties":{"id":"V-1500-3","road_id":"V-1500","road_class":"urban","speed_kmh":30,"u":"G-1500_1500","v":"G-1500_1900","length_m":400.0,"bridge_id":null,"embankment_m":0.3,"key":"G-1500_1500>G-1500_1900","name_kk":"Көлденең көше -1500","name_ru":"Поперечная улица -1500","name_en":"Cross street -1500","name_original":"Поперечная улица -1500","source":"DEMO"}},{"type":"Feature","geometry":{"type":"LineString","coordinates":[[68.3434056,51.8122134],[68.3433533,51.8158097]]},"properties":{"id":"V-1000-1","road_id":"V-1000","road_class":"urban","speed_kmh":30,"u":"G-1000_700","v":"G-1000_1100","length_m":400.0,"bridge_id":null,"embankment_m":0.3,"key":"G-1000_700>G-1000_1100","name_kk":"Көлденең көше -1000","name_ru":"Поперечная улица -1000","name_en":"Cross street -1000","name_original":"Поперечная улица -1000","source":"DEMO"}},{"type":"Feature","geometry":{"type":"LineString","coordinates":[[68.3433533,51.8158097],[68.343301,51.8194059]]},"properties":{"id":"V-1000-2","road_id":"V-1000","road_class":"urban","speed_kmh":30,"u":"G-1000_1100","v":"G-1000_1500","length_m":400.0,"bridge_id":null,"embankment_m":0.3,"key":"G-1000_1100>G-1000_1500","name_kk":"Көлденең көше -1000","name_ru":"Поперечная улица -1000","name_en":"Cross street -1000","name_original":"Поперечная улица -1000","source":"DEMO"}},{"type":"Feature","geometry":{"type":"LineString","coordinates":[[68.343301,51.8194059],[68.3432488,51.8230022]]},"properties":{"id":"V-1000-3","road_id":"V-1000","road_class":"urban","speed_kmh":30,"u":"G-1000_1500","v":"G-1000_1900","length_m":400.0,"bridge_id":null,"embankment_m":0.3,"key":"G-1000_1500>G-1000_1900","name_kk":"Көлденең көше -1000","name_ru":"Поперечная улица -1000","name_en":"Cross street -1000","name_original":"Поперечная улица -1000","source":"DEMO"}},{"type":"Feature","geometry":{"type":"LineString","coordinates":[[68.3506581,51.8122537],[68.3506064,51.8158499]]},"properties":{"id":"V-500-1","road_id":"V-500","road_class":"urban","speed_kmh":30,"u":"G-500_700","v":"G-500_1100","length_m":400.0,"bridge_id":null,"embankment_m":0.3,"key":"G-500_700>G-500_1100","name_kk":"Көлденең көше -500","name_ru":"Поперечная улица -500","name_en":"Cross street -500","name_original":"Поперечная улица -500","source":"DEMO"}},{"type":"Feature","geometry":{"type":"LineString","coordinates":[[68.3506064,51.8158499],[68.3505547,51.8194462]]},"properties":{"id":"V-500-2","road_id":"V-500","road_class":"urban","speed_kmh":30,"u":"G-500_1100","v":"G-500_1500","length_m":400.0,"bridge_id":null,"embankment_m":0.3,"key":"G-500_1100>G-500_1500","name_kk":"Көлденең көше -500","name_ru":"Поперечная улица -500","name_en":"Cross street -500","name_original":"Поперечная улица -500","source":"DEMO"}},{"type":"Feature","geometry":{"type":"LineString","coordinates":[[68.3505547,51.8194462],[68.350503,51.8230425]]},"properties":{"id":"V-500-3","road_id":"V-500","road_class":"urban","speed_kmh":30,"u":"G-500_1500","v":"G-500_1900","length_m":400.0,"bridge_id":null,"embankment_m":0.3,"key":"G-500_1500>G-500_1900","name_kk":"Көлденең көше -500","name_ru":"Поперечная улица -500","name_en":"Cross street -500","name_original":"Поперечная улица -500","source":"DEMO"}},{"type":"Feature","geometry":{"type":"LineString","coordinates":[[68.3651631,51.8123329],[68.3651126,51.8159291]]},"properties":{"id":"V500-1","road_id":"V500","road_class":"urban","speed_kmh":30,"u":"G500_700","v":"G500_1100","length_m":400.0,"bridge_id":null,"embankment_m":0.3,"key":"G500_700>G500_1100","name_kk":"Көлденең көше 500","name_ru":"Поперечная улица 500","name_en":"Cross street 500","name_original":"Поперечная улица 500","source":"DEMO"}},{"type":"Feature","geometry":{"type":"LineString","coordinates":[[68.3651126,51.8159291],[68.365062,51.8195254]]},"properties":{"id":"V500-2","road_id":"V500","road_class":"urban","speed_kmh":30,"u":"G500_1100","v":"G500_1500","length_m":400.0,"bridge_id":null,"embankment_m":0.3,"key":"G500_1100>G500_1500","name_kk":"Көлденең көше 500","name_ru":"Поперечная улица 500","name_en":"Cross street 500","name_original":"Поперечная улица 500","source":"DEMO"}},{"type":"Feature","geometry":{"type":"LineString","coordinates":[[68.365062,51.8195254],[68.3650115,51.8231217]]},"properties":{"id":"V500-3","road_id":"V500","road_class":"urban","speed_kmh":30,"u":"G500_1500","v":"G500_1900","length_m":400.0,"bridge_id":null,"embankment_m":0.3,"key":"G500_1500>G500_1900","name_kk":"Көлденең көше 500","name_ru":"Поперечная улица 500","name_en":"Cross street 500","name_original":"Поперечная улица 500","source":"DEMO"}},{"type":"Feature","geometry":{"type":"LineString","coordinates":[[68.3724156,51.8123718],[68.3723657,51.8159681]]},"properties":{"id":"V1000-1","road_id":"V1000","road_class":"urban","speed_kmh":30,"u":"G1000_700","v":"G1000_1100","length_m":400.0,"bridge_id":null,"embankment_m":0.3,"key":"G1000_700>G1000_1100","name_kk":"Көлденең көше 1000","name_ru":"Поперечная улица 1000","name_en":"Cross street 1000","name_original":"Поперечная улица 1000","source":"DEMO"}},{"type":"Feature","geometry":{"type":"LineString","coordinates":[[68.3723657,51.8159681],[68.3723157,51.8195643]]},"properties":{"id":"V1000-2","road_id":"V1000","road_class":"urban","speed_kmh":30,"u":"G1000_1100","v":"G1000_1500","length_m":400.0,"bridge_id":null,"embankment_m":0.3,"key":"G1000_1100>G1000_1500","name_kk":"Көлденең көше 1000","name_ru":"Поперечная улица 1000","name_en":"Cross street 1000","name_original":"Поперечная улица 1000","source":"DEMO"}},{"type":"Feature","geometry":{"type":"LineString","coordinates":[[68.3723157,51.8195643],[68.3722657,51.8231606]]},"properties":{"id":"V1000-3","road_id":"V1000","road_class":"urban","speed_kmh":30,"u":"G1000_1500","v":"G1000_1900","length_m":400.0,"bridge_id":null,"embankment_m":0.3,"key":"G1000_1500>G1000_1900","name_kk":"Көлденең көше 1000","name_ru":"Поперечная улица 1000","name_en":"Cross street 1000","name_original":"Поперечная улица 1000","source":"DEMO"}},{"type":"Feature","geometry":{"type":"LineString","coordinates":[[68.3796682,51.8124103],[68.3796188,51.8160065]]},"properties":{"id":"V1500-1","road_id":"V1500","road_class":"urban","speed_kmh":30,"u":"G1500_700","v":"G1500_1100","length_m":400.0,"bridge_id":null,"embankment_m":0.3,"key":"G1500_700>G1500_1100","name_kk":"Көлденең көше 1500","name_ru":"Поперечная улица 1500","name_en":"Cross street 1500","name_original":"Поперечная улица 1500","source":"DEMO"}},{"type":"Feature","geometry":{"type":"LineString","coordinates":[[68.3796188,51.8160065],[68.3795694,51.8196028]]},"properties":{"id":"V1500-2","road_id":"V1500","road_class":"urban","speed_kmh":30,"u":"G1500_1100","v":"G1500_1500","length_m":400.0,"bridge_id":null,"embankment_m":0.3,"key":"G1500_1100>G1500_1500","name_kk":"Көлденең көше 1500","name_ru":"Поперечная улица 1500","name_en":"Cross street 1500","name_original":"Поперечная улица 1500","source":"DEMO"}},{"type":"Feature","geometry":{"type":"LineString","coordinates":[[68.3795694,51.8196028],[68.37952,51.8231991]]},"properties":{"id":"V1500-3","road_id":"V1500","road_class":"urban","speed_kmh":30,"u":"G1500_1500","v":"G1500_1900","length_m":400.0,"bridge_id":null,"embankment_m":0.3,"key":"G1500_1500>G1500_1900","name_kk":"Көлденең көше 1500","name_ru":"Поперечная улица 1500","name_en":"Cross street 1500","name_original":"Поперечная улица 1500","source":"DEMO"}},{"type":"Feature","geometry":{"type":"LineString","coordinates":[[68.3361769,51.8105544],[68.3361531,51.8121727]]},"properties":{"id":"V-1500-4","road_id":"V-1500","road_class":"urban","speed_kmh":30,"u":"R4w","v":"G-1500_700","length_m":180.0,"bridge_id":null,"embankment_m":0.076,"key":"R4w>G-1500_700","name_kk":"Көлденең көше -1500","name_ru":"Поперечная улица -1500","name_en":"Cross street -1500","name_original":"Поперечная улица -1500","source":"DEMO"}},{"type":"Feature","geometry":{"type":"LineString","coordinates":[[68.3434369,51.8100556],[68.3434056,51.8122134]]},"properties":{"id":"V-1000-4","road_id":"V-1000","road_class":"urban","speed_kmh":30,"u":"R4b","v":"G-1000_700","length_m":240.0,"bridge_id":null,"embankment_m":0.0,"key":"R4b>G-1000_700","name_kk":"Көлденең көше -1000","name_ru":"Поперечная улица -1000","name_en":"Cross street -1000","name_original":"Поперечная улица -1000","source":"DEMO"}},{"type":"Feature","geometry":{"type":"LineString","coordinates":[[68.3506968,51.8095565],[68.3506581,51.8122537]]},"properties":{"id":"V-500-4","road_id":"V-500","road_class":"urban","speed_kmh":30,"u":"R4c","v":"G-500_700","length_m":300.0,"bridge_id":null,"embankment_m":0.314,"key":"R4c>G-500_700","name_kk":"Көлденең көше -500","name_ru":"Поперечная улица -500","name_en":"Cross street -500","name_original":"Поперечная улица -500","source":"DEMO"}},{"type":"Feature","geometry":{"type":"LineString","coordinates":[[68.3652212,51.8081971],[68.3651631,51.8123329]]},"properties":{"id":"V500-4","road_id":"V500","road_class":"urban","speed_kmh":30,"u":"R4d","v":"G500_700","length_m":460.0,"bridge_id":null,"embankment_m":1.137,"key":"R4d>G500_700","name_kk":"Көлденең көше 500","name_ru":"Поперечная улица 500","name_en":"Cross street 500","name_original":"Поперечная улица 500","source":"DEMO"}},{"type":"Feature","geometry":{"type":"LineString","coordinates":[[68.3724831,51.8075168],[68.3724156,51.8123718]]},"properties":{"id":"V1000-4","road_id":"V1000","road_class":"urban","speed_kmh":30,"u":"R4e","v":"G1000_700","length_m":540.0,"bridge_id":null,"embankment_m":0.918,"key":"R4e>G1000_700","name_kk":"Көлденең көше 1000","name_ru":"Поперечная улица 1000","name_en":"Cross street 1000","name_original":"Поперечная улица 1000","source":"DEMO"}},{"type":"Feature","geometry":{"type":"LineString","coordinates":[[68.3797447,51.806836],[68.3796682,51.8124103]]},"properties":{"id":"V1500-4","road_id":"V1500","road_class":"urban","speed_kmh":30,"u":"R4f","v":"G1500_700","length_m":620.0,"bridge_id":null,"embankment_m":0.547,"key":"R4f>G1500_700","name_kk":"Көлденең көше 1500","name_ru":"Поперечная улица 1500","name_en":"Cross street 1500","name_original":"Поперечная улица 1500","source":"DEMO"}},{"type":"Feature","geometry":{"type":"LineString","coordinates":[[68.3359946,51.8229614],[68.3359271,51.8275467]]},"properties":{"id":"V-1500-5","road_id":"V-1500","road_class":"urban","speed_kmh":30,"u":"G-1500_1900","v":"N3","length_m":510.0,"bridge_id":null,"embankment_m":0.5,"key":"G-1500_1900>N3","name_kk":"Көлденең көше -1500","name_ru":"Поперечная улица -1500","name_en":"Cross street -1500","name_original":"Поперечная улица -1500","source":"DEMO"}},{"type":"Feature","geometry":{"type":"LineString","coordinates":[[68.37952,51.8231991],[68.3794595,51.8276046]]},"properties":{"id":"V1500-5","road_id":"V1500","road_class":"urban","speed_kmh":30,"u":"G1500_1900","v":"N5","length_m":490.0,"bridge_id":null,"embankment_m":0.5,"key":"G1500_1900>N5","name_kk":"Көлденең көше 1500","name_ru":"Поперечная улица 1500","name_en":"Cross street 1500","name_original":"Поперечная улица 1500","source":"DEMO"}}]}