{"type":"FeatureCollection","demo":true,"note":"DEMO DATA — synthetic, not surveyed or measured. For demonstration of ARGUS workflows only.","features":[{"type":"Feature","geometry":{"type":"Polygon","coordinates":[[[68.3333144,51.8079332],[68.3362196,51.8076471],[68.3391235,51.8074449],[68.3420261,51.8073288],[68.3449276,51.8072906],[68.3478282,51.8073127],[68.3507283,51.8073699],[68.3536283,51.8074323],[68.3565287,51.8074683],[68.3594299,51.807448],[68.3623322,51.8073466],[68.365236,51.8071468],[68.3681411,51.8068409],[68.3710477,51.8064316],[68.3739555,51.8059322],[68.3768641,51.8053647],[68.3797732,51.8047584],[68.3826823,51.8041466],[68.3825618,51.812965],[68.3332442,51.8126957],[68.3333144,51.8079332]]]},"properties":{"id":"A","code":"A","name_kk":"A секторы — жағалау","name_ru":"Сектор A — прибрежный","name_en":"Sector A — riverside","name_original":"Сектор A — прибрежный"}},{"type":"Feature","geometry":{"type":"Polygon","coordinates":[[[68.3849383,51.7982316],[68.4081417,51.7981708],[68.4089902,51.7887341],[68.3843443,51.7886077],[68.3849383,51.7982316]]]},"properties":{"id":"B","code":"B","name_kk":"B секторы — оңтүстік ойпаң","name_ru":"Сектор B — южная низина","name_en":"Sector B — southern lowland","name_original":"Сектор B — южная низина"}},{"type":"Feature","geometry":{"type":"Polygon","coordinates":[[[68.2955792,51.8093991],[68.2982112,51.8097406],[68.3008438,51.8100445],[68.3034774,51.8102879],[68.3061123,51.8104519],[68.3087486,51.8105234],[68.3113864,51.8104957],[68.3140257,51.8103697],[68.3166663,51.8101531],[68.3193081,51.8098604],[68.3219507,51.8095111],[68.3245937,51.8091285],[68.3244887,51.8161524],[68.2954765,51.8159822],[68.2955792,51.8093991]]]},"properties":{"id":"C","code":"C","name_kk":"C секторы — батыс жағалау","name_ru":"Сектор C — западный берег","name_en":"Sector C — western riverside","name_original":"Сектор C — западный берег"}},{"type":"Feature","geometry":{"type":"Polygon","coordinates":[[[68.3332442,51.8126957],[68.3825618,51.812965],[68.3823725,51.8268107],[68.3330398,51.8265413],[68.3332442,51.8126957]]]},"properties":{"id":"D","code":"D","name_kk":"D секторы — қала орталығы","name_ru":"Сектор D — центр города","name_en":"Sector D — town centre","name_original":"Сектор D — центр города"}},{"type":"Feature","geometry":{"type":"Polygon","coordinates":[[[68.3420379,51.8065197],[68.3455839,51.8064819],[68.3491288,51.8065263],[68.3526732,51.8066037],[68.3562179,51.8066574],[68.3597638,51.806632],[68.3633114,51.8064824],[68.3668611,51.8061808],[68.370413,51.8057218],[68.3739667,51.805123],[68.3742894,51.781811],[68.3423999,51.781637],[68.3420379,51.8065197]]]},"properties":{"id":"E","code":"E","name_kk":"E секторы — оңтүстік жаға","name_ru":"Сектор E — южный берег","name_en":"Sector E — southern bank","name_original":"Сектор E — южный берег"}}]}