{"type":"FeatureCollection","demo":true,"note":"DEMO DATA — synthetic, not surveyed or measured. For demonstration of ARGUS workflows only.","features":[{"type":"Feature","geometry":{"type":"Point","coordinates":[68.3536253,51.8076394]},"properties":{"id":"S-LEVEE-A","kind":"LEVEE","sector_id":"A","protects":{"sector_ids":["A"],"facility_ids":["F-WATER"]},"work_depth_limit_m":-0.3,"name_kk":"A секторы бөгетінің учаскесі","name_ru":"Участок дамбы сектора A","name_en":"Sector A levee section","name_original":"Участок дамбы сектора A"}},{"type":"Feature","geometry":{"type":"Point","coordinates":[68.3107888,51.810768]},"properties":{"id":"S-LEVEE-C","kind":"LEVEE","sector_id":"C","protects":{"sector_ids":["C"],"facility_ids":["F-CLINIC"]},"work_depth_limit_m":-0.3,"name_kk":"C секторы бөгетінің учаскесі","name_ru":"Участок дамбы сектора C","name_en":"Sector C levee section","name_original":"Участок дамбы сектора C"}},{"type":"Feature","geometry":{"type":"Point","coordinates":[68.3478051,51.8089111]},"properties":{"id":"S-WATER","kind":"FACILITY","sector_id":"A","protects":{"facility_ids":["F-WATER"]},"work_depth_limit_m":0.2,"name_kk":"Су алу станциясы","name_ru":"Водозаборная станция","name_en":"Water intake station","name_original":"Водозаборная станция"}},{"type":"Feature","geometry":{"type":"Point","coordinates":[68.3746461,51.8084275]},"properties":{"id":"S-SUBST","kind":"FACILITY","sector_id":"A","protects":{"facility_ids":["F-SUBST"]},"work_depth_limit_m":0.2,"name_kk":"Электр қосалқы станциясы","name_ru":"Электроподстанция","name_en":"Electrical substation","name_original":"Электроподстанция"}},{"type":"Feature","geometry":{"type":"Point","coordinates":[68.3958679,51.7942421]},"properties":{"id":"S-DRAIN-B","kind":"DRAINAGE_POINT","sector_id":"B","protects":{"sector_ids":["B"],"facility_ids":["F-CARE"]},"work_depth_limit_m":0.25,"name_kk":"B секторының дренаж нүктесі","name_ru":"Дренажная точка сектора B","name_en":"Sector B drainage point","name_original":"Дренажная точка сектора B"}},{"type":"Feature","geometry":{"type":"Point","coordinates":[68.3929789,51.793418]},"properties":{"id":"S-CARE","kind":"FACILITY","sector_id":"B","protects":{"facility_ids":["F-CARE"]},"work_depth_limit_m":0.3,"name_kk":"Қарттар үйі (B)","name_ru":"Дом престарелых (B)","name_en":"Care home (B)","name_original":"Дом престарелых (B)"}},{"type":"Feature","geometry":{"type":"Point","coordinates":[68.4009534,51.7934589]},"properties":{"id":"S-SCHOOL3","kind":"FACILITY","sector_id":"B","protects":{"facility_ids":["F-SCHOOL3"]},"work_depth_limit_m":0.3,"name_kk":"№3 мектеп (B)","name_ru":"Школа №3 (B)","name_en":"School No. 3 (B)","name_original":"Школа №3 (B)"}},{"type":"Feature","geometry":{"type":"Point","coordinates":[68.4009653,51.7925598]},"properties":{"id":"S-STAGE-B","kind":"STAGING","sector_id":"B","protects":{"sector_ids":["B"]},"work_depth_limit_m":0.4,"name_kk":"B секторының жинақтау алаңы","name_ru":"Площадка сосредоточения сектора B","name_en":"Sector B staging area","name_original":"Площадка сосредоточения сектора B"}},{"type":"Feature","geometry":{"type":"Point","coordinates":[68.357917,51.8118439]},"properties":{"id":"S-R7-CTRL","kind":"ROAD_CLOSURE","sector_id":"D","protects":{"sector_ids":["B"],"road_ids":["R7"]},"work_depth_limit_m":0.2,"name_kk":"R7 жолын жабу нүктесі","name_ru":"Пункт перекрытия дороги R7","name_en":"Road R7 closure point","name_original":"Пункт перекрытия дороги R7"}},{"type":"Feature","geometry":{"type":"Point","coordinates":[68.3447779,51.8176159]},"properties":{"id":"S-HOSP","kind":"FACILITY","sector_id":"D","protects":{"facility_ids":["F-HOSP"]},"work_depth_limit_m":0.3,"name_kk":"Аурухана","name_ru":"Больница","name_en":"Hospital","name_original":"Больница"}},{"type":"Feature","geometry":{"type":"Point","coordinates":[68.3064182,51.8120011]},"properties":{"id":"S-DRAIN-C","kind":"DRAINAGE_POINT","sector_id":"C","protects":{"sector_ids":["C"]},"work_depth_limit_m":0.25,"name_kk":"C секторының дренаж нүктесі","name_ru":"Дренажная точка сектора C","name_en":"Sector C drainage point","name_original":"Дренажная точка сектора C"}},{"type":"Feature","geometry":{"type":"Point","coordinates":[68.3092916,51.8138163]},"properties":{"id":"S-CLINIC","kind":"FACILITY","sector_id":"C","protects":{"facility_ids":["F-CLINIC"]},"work_depth_limit_m":0.3,"name_kk":"C секторы емханасы","name_ru":"Поликлиника сектора C","name_en":"Sector C clinic","name_original":"Поликлиника сектора C"}}]}