{"type":"FeatureCollection","demo":true,"note":"DEMO DATA — synthetic, not surveyed or measured. For demonstration of ARGUS workflows only.","features":[{"type":"Feature","geometry":{"type":"Point","coordinates":[69.395983,53.2811573]},"properties":{"id":"KBN-B1","kind":"BRIDGE","segment_ids":["KA1-8"],"bridge_id":"KB1","notes":null,"name_kk":"KB1 орталық көпір","name_ru":"Центральный мост KB1","name_en":"Central bridge KB1","name_original":"Центральный мост KB1"}},{"type":"Feature","geometry":{"type":"Point","coordinates":[69.4139793,53.2809614]},"properties":{"id":"KBN-B2","kind":"BRIDGE","segment_ids":["KA2-2"],"bridge_id":"KB2","notes":null,"name_kk":"KB2 Әуезов көпірі","name_ru":"Мост KB2 по Ауэзова","name_en":"Auezov bridge KB2","name_original":"Мост KB2 по Ауэзова"}},{"type":"Feature","geometry":{"type":"Point","coordinates":[69.4499805,53.2814152]},"properties":{"id":"KBN-B3","kind":"BRIDGE","segment_ids":["KA3-2"],"bridge_id":"KB3","notes":null,"name_kk":"KB3 шығыс көпірі","name_ru":"Восточный мост KB3","name_en":"Eastern bridge KB3","name_original":"Восточный мост KB3"}},{"type":"Feature","geometry":{"type":"Point","coordinates":[69.3599867,53.2811815]},"properties":{"id":"KBN-B4","kind":"BRIDGE","segment_ids":["KA4-2"],"bridge_id":"KB4","notes":null,"name_kk":"KB4 батыс көпірі","name_ru":"Западный мост KB4","name_en":"Western bridge KB4","name_original":"Западный мост KB4"}},{"type":"Feature","geometry":{"type":"Point","coordinates":[69.3961496,53.2991798]},"properties":{"id":"KBN-UP","kind":"LOW_ROAD","segment_ids":["KA1-3"],"bridge_id":null,"notes":null,"name_kk":"Теміржол астындағы өткел","name_ru":"Путепровод под ж/д","name_en":"Railway underpass","name_original":"Путепровод под ж/д"}},{"type":"Feature","geometry":{"type":"Point","coordinates":[69.3420905,53.2939537]},"properties":{"id":"KBN-CV","kind":"CULVERT","segment_ids":["KR-3"],"bridge_id":null,"notes":null,"name_kk":"Батыс су өткізгіш құбыры","name_ru":"Западная водопропускная труба","name_en":"Western culvert","name_original":"Западная водопропускная труба"}},{"type":"Feature","geometry":{"type":"Point","coordinates":[69.4139689,53.2798827]},"properties":{"id":"KBN-CH","kind":"CHANNEL_CONSTRAINT","segment_ids":["KA2-1","KA2-3"],"bridge_id":null,"notes":"Operational element only: if flagged constrained, the adjacent KB2 approaches are treated as unavailable. ARGUS makes no hydrodynamic claim about the constraint.","name_kk":"KB2 маңындағы арна тарылуы","name_ru":"Сужение русла у моста KB2","name_en":"Channel narrowing near KB2","name_original":"Сужение русла у моста KB2"}}]}