{"type":"FeatureCollection","demo":true,"note":"DEMO DATA — synthetic, not surveyed or measured. For demonstration of ARGUS workflows only.","features":[{"type":"Feature","geometry":{"type":"Point","coordinates":[69.395983,53.2811573]},"properties":{"id":"KB1","name_kk":"KB1 орталық көпір","name_ru":"KB1 центральный мост","name_en":"KB1 central bridge","name_original":"KB1 центральный мост","segment_ids":["KA1-8"],"deck_clearance_m":2.3,"structure_type":"BRIDGE"}},{"type":"Feature","geometry":{"type":"Point","coordinates":[69.4139793,53.2809614]},"properties":{"id":"KB2","name_kk":"KB2 Әуезов көпірі","name_ru":"KB2 мост по Ауэзова","name_en":"KB2 Auezov bridge","name_original":"KB2 мост по Ауэзова","segment_ids":["KA2-2"],"deck_clearance_m":1.5,"structure_type":"BRIDGE"}},{"type":"Feature","geometry":{"type":"Point","coordinates":[69.4499805,53.2814152]},"properties":{"id":"KB3","name_kk":"KB3 шығыс көпірі","name_ru":"KB3 восточный мост","name_en":"KB3 eastern bridge","name_original":"KB3 восточный мост","segment_ids":["KA3-2"],"deck_clearance_m":1.9,"structure_type":"BRIDGE"}},{"type":"Feature","geometry":{"type":"Point","coordinates":[69.3599867,53.2811815]},"properties":{"id":"KB4","name_kk":"KB4 батыс көпірі","name_ru":"KB4 западный мост","name_en":"KB4 western bridge","name_original":"KB4 западный мост","segment_ids":["KA4-2"],"deck_clearance_m":1.3,"structure_type":"BRIDGE"}}]}