{"type":"FeatureCollection","demo":true,"note":"DEMO DATA — synthetic, not surveyed or measured. For demonstration of ARGUS workflows only.","features":[{"type":"Feature","geometry":{"type":"Point","coordinates":[69.3872202,53.3072992]},"properties":{"id":"KF-HOSP","facility_type":"HOSPITAL","criticality":100,"population_served":150000,"sector_id":"KN","name_kk":"Облыстық аурухана (DEMO)","name_ru":"Областная больница (DEMO)","name_en":"Regional hospital (DEMO)","name_original":"Областная больница (DEMO)","source":"DEMO","verification":"VERIFIED"}},{"type":"Feature","geometry":{"type":"Point","coordinates":[69.4048718,53.2694866]},"properties":{"id":"KF-MAT","facility_type":"HOSPITAL","criticality":95,"population_served":40000,"sector_id":"KS","name_kk":"Перзентхана (DEMO)","name_ru":"Родильный дом (DEMO)","name_en":"Maternity hospital (DEMO)","name_original":"Родильный дом (DEMO)","source":"DEMO","verification":"VERIFIED"}},{"type":"Feature","geometry":{"type":"Point","coordinates":[69.4604603,53.2796224]},"properties":{"id":"KF-WTP","facility_type":"WATER_SUPPLY","criticality":90,"population_served":140000,"sector_id":null,"name_kk":"Су тазарту құрылыстары (DEMO)","name_ru":"Очистные сооружения (DEMO)","name_en":"Water treatment plant (DEMO)","name_original":"Очистные сооружения (DEMO)","source":"DEMO","verification":"VERIFIED"}},{"type":"Feature","geometry":{"type":"Point","coordinates":[69.440774,53.2612691]},"properties":{"id":"KF-CHP","facility_type":"HEATING","criticality":85,"population_served":120000,"sector_id":"KS","name_kk":"ЖЭО (DEMO)","name_ru":"ТЭЦ (DEMO)","name_en":"Combined heat & power plant (DEMO)","name_original":"ТЭЦ (DEMO)","source":"DEMO","verification":"VERIFIED"}},{"type":"Feature","geometry":{"type":"Point","coordinates":[69.3969716,53.2907274]},"properties":{"id":"KF-FIRE","facility_type":"FIRE_STATION","criticality":90,"population_served":150000,"sector_id":"KC","name_kk":"Өрт сөндіру бөлімі (DEMO)","name_ru":"Пожарная часть (DEMO)","name_en":"Fire station (DEMO)","name_original":"Пожарная часть (DEMO)","source":"DEMO","verification":"VERIFIED"}},{"type":"Feature","geometry":{"type":"Point","coordinates":[69.3778746,53.2686763]},"properties":{"id":"KF-SCH","facility_type":"SHELTER","criticality":70,"population_served":1200,"sector_id":"KS","name_kk":"№12 мектеп — пана (DEMO)","name_ru":"Школа №12 — пункт размещения (DEMO)","name_en":"School No. 12 — shelter (DEMO)","name_original":"Школа №12 — пункт размещения (DEMO)","source":"DEMO","verification":"VERIFIED"}},{"type":"Feature","geometry":{"type":"Point","coordinates":[69.3599652,53.2786197]},"properties":{"id":"KF-SUB","facility_type":"POWER","criticality":85,"population_served":60000,"sector_id":null,"name_kk":"Батыс қосалқы станциясы (DEMO)","name_ru":"Западная подстанция (DEMO)","name_en":"Western substation (DEMO)","name_original":"Западная подстанция (DEMO)","source":"DEMO","verification":"VERIFIED"}}]}