{"type":"FeatureCollection","demo":true,"note":"DEMO DATA — synthetic, not surveyed or measured. For demonstration of ARGUS workflows only.","features":[{"type":"Feature","geometry":{"type":"Polygon","coordinates":[[[69.3690255,53.2857832],[69.3690797,53.2920754],[69.379581,53.2920424],[69.3795253,53.2857503],[69.3690255,53.2857832]]]},"properties":{"id":"PZ-KOK-KC1","sector_id":"KC","population":6670,"vulnerable_share":0.24,"source":"DEMO aggregated synthetic population (floor area / 32 m² per person)"}},{"type":"Feature","geometry":{"type":"Polygon","coordinates":[[[69.3691339,53.2983675],[69.3796368,53.2983346],[69.379581,53.2920424],[69.3690797,53.2920754],[69.3691339,53.2983675]]]},"properties":{"id":"PZ-KOK-KC2","sector_id":"KC","population":5340,"vulnerable_share":0.15,"source":"DEMO aggregated synthetic population (floor area / 32 m² per person)"}},{"type":"Feature","geometry":{"type":"Polygon","coordinates":[[[69.3795253,53.2857503],[69.379581,53.2920424],[69.3900824,53.2920086],[69.3900251,53.2857164],[69.3795253,53.2857503]]]},"properties":{"id":"PZ-KOK-KC3","sector_id":"KC","population":7620,"vulnerable_share":0.19,"source":"DEMO aggregated synthetic population (floor area / 32 m² per person)"}},{"type":"Feature","geometry":{"type":"Polygon","coordinates":[[[69.379581,53.2920424],[69.3796368,53.2983346],[69.3901397,53.2983007],[69.3900824,53.2920086],[69.379581,53.2920424]]]},"properties":{"id":"PZ-KOK-KC4","sector_id":"KC","population":7670,"vulnerable_share":0.16,"source":"DEMO aggregated synthetic population (floor area / 32 m² per person)"}},{"type":"Feature","geometry":{"type":"Polygon","coordinates":[[[69.3900251,53.2857164],[69.3900824,53.2920086],[69.4005837,53.2919737],[69.4005248,53.2856816],[69.3900251,53.2857164]]]},"properties":{"id":"PZ-KOK-KC5","sector_id":"KC","population":11460,"vulnerable_share":0.16,"source":"DEMO aggregated synthetic population (floor area / 32 m² per person)"}},{"type":"Feature","geometry":{"type":"Polygon","coordinates":[[[69.3900824,53.2920086],[69.3901397,53.2983007],[69.4006426,53.2982659],[69.4005837,53.2919737],[69.3900824,53.2920086]]]},"properties":{"id":"PZ-KOK-KC6","sector_id":"KC","population":10900,"vulnerable_share":0.18,"source":"DEMO aggregated synthetic population (floor area / 32 m² per person)"}},{"type":"Feature","geometry":{"type":"Polygon","coordinates":[[[69.4006468,53.2987153],[69.4006426,53.2982659],[69.3901397,53.2983007],[69.3901438,53.2987501],[69.4006468,53.2987153]]]},"properties":{"id":"PZ-KOK-KC7","sector_id":"KC","population":430,"vulnerable_share":0.19,"source":"DEMO aggregated synthetic population (floor area / 32 m² per person)"}},{"type":"Feature","geometry":{"type":"Polygon","coordinates":[[[69.4005248,53.2856816],[69.4005837,53.2919737],[69.411085,53.291938],[69.4110246,53.2856459],[69.4005248,53.2856816]]]},"properties":{"id":"PZ-KOK-KC8","sector_id":"KC","population":7230,"vulnerable_share":0.16,"source":"DEMO aggregated synthetic population (floor area / 32 m² per person)"}},{"type":"Feature","geometry":{"type":"Polygon","coordinates":[[[69.4005837,53.2919737],[69.4006426,53.2982659],[69.4111454,53.2982301],[69.411085,53.291938],[69.4005837,53.2919737]]]},"properties":{"id":"PZ-KOK-KC9","sector_id":"KC","population":7740,"vulnerable_share":0.2,"source":"DEMO aggregated synthetic population (floor area / 32 m² per person)"}},{"type":"Feature","geometry":{"type":"Polygon","coordinates":[[[69.4110246,53.2856459],[69.411085,53.291938],[69.4215862,53.2919014],[69.4215243,53.2856092],[69.4110246,53.2856459]]]},"properties":{"id":"PZ-KOK-KC10","sector_id":"KC","population":8880,"vulnerable_share":0.14,"source":"DEMO aggregated synthetic population (floor area / 32 m² per person)"}},{"type":"Feature","geometry":{"type":"Polygon","coordinates":[[[69.411085,53.291938],[69.4111454,53.2982301],[69.4216482,53.2981935],[69.4215862,53.2919014],[69.411085,53.291938]]]},"properties":{"id":"PZ-KOK-KC11","sector_id":"KC","population":5610,"vulnerable_share":0.15,"source":"DEMO aggregated synthetic population (floor area / 32 m² per person)"}},{"type":"Feature","geometry":{"type":"Polygon","coordinates":[[[69.4215243,53.2856092],[69.4215862,53.2919014],[69.4230864,53.2918961],[69.4230243,53.2856039],[69.4215243,53.2856092]]]},"properties":{"id":"PZ-KOK-KC12","sector_id":"KC","population":880,"vulnerable_share":0.16,"source":"DEMO aggregated synthetic population (floor area / 32 m² per person)"}},{"type":"Feature","geometry":{"type":"Polygon","coordinates":[[[69.4230864,53.2918961],[69.4215862,53.2919014],[69.4216482,53.2981935],[69.4231486,53.2981882],[69.4230864,53.2918961]]]},"properties":{"id":"PZ-KOK-KC13","sector_id":"KC","population":500,"vulnerable_share":0.23,"source":"DEMO aggregated synthetic population (floor area / 32 m² per person)"}},{"type":"Feature","geometry":{"type":"Polygon","coordinates":[[[69.3508049,53.258871],[69.3508564,53.2651632],[69.3613512,53.2651319],[69.3612981,53.2588397],[69.3508049,53.258871]]]},"properties":{"id":"PZ-KOK-KS1","sector_id":"KS","population":3020,"vulnerable_share":0.22,"source":"DEMO aggregated synthetic population (floor area / 32 m² per person)"}},{"type":"Feature","geometry":{"type":"Polygon","coordinates":[[[69.3509079,53.2714554],[69.3614042,53.2714241],[69.3613512,53.2651319],[69.3508564,53.2651632],[69.3509079,53.2714554]]]},"properties":{"id":"PZ-KOK-KS2","sector_id":"KS","population":3410,"vulnerable_share":0.15,"source":"DEMO aggregated synthetic population (floor area / 32 m² per person)"}},{"type":"Feature","geometry":{"type":"Polygon","coordinates":[[[69.3614497,53.2768174],[69.3614042,53.2714241],[69.3509079,53.2714554],[69.3509521,53.2768487],[69.3614497,53.2768174]]]},"properties":{"id":"PZ-KOK-KS3","sector_id":"KS","population":3060,"vulnerable_share":0.24,"source":"DEMO aggregated synthetic population (floor area / 32 m² per person)"}},{"type":"Feature","geometry":{"type":"Polygon","coordinates":[[[69.3612981,53.2588397],[69.3613512,53.2651319],[69.3718459,53.2650996],[69.3717914,53.2588074],[69.3612981,53.2588397]]]},"properties":{"id":"PZ-KOK-KS4","sector_id":"KS","population":1590,"vulnerable_share":0.15,"source":"DEMO aggregated synthetic population (floor area / 32 m² per person)"}},{"type":"Feature","geometry":{"type":"Polygon","coordinates":[[[69.3613512,53.2651319],[69.3614042,53.2714241],[69.3719005,53.2713918],[69.3718459,53.2650996],[69.3613512,53.2651319]]]},"properties":{"id":"PZ-KOK-KS5","sector_id":"KS","population":2720,"vulnerable_share":0.15,"source":"DEMO aggregated synthetic population (floor area / 32 m² per person)"}},{"type":"Feature","geometry":{"type":"Polygon","coordinates":[[[69.3719473,53.2767851],[69.3719005,53.2713918],[69.3614042,53.2714241],[69.3614497,53.2768174],[69.3719473,53.2767851]]]},"properties":{"id":"PZ-KOK-KS6","sector_id":"KS","population":2780,"vulnerable_share":0.15,"source":"DEMO aggregated synthetic population (floor area / 32 m² per person)"}},{"type":"Feature","geometry":{"type":"Polygon","coordinates":[[[69.3717914,53.2588074],[69.3718459,53.2650996],[69.3823407,53.2650664],[69.3822846,53.2587742],[69.3717914,53.2588074]]]},"properties":{"id":"PZ-KOK-KS7","sector_id":"KS","population":2660,"vulnerable_share":0.18,"source":"DEMO aggregated synthetic population (floor area / 32 m² per person)"}},{"type":"Feature","geometry":{"type":"Polygon","coordinates":[[[69.3718459,53.2650996],[69.3719005,53.2713918],[69.3823968,53.2713586],[69.3823407,53.2650664],[69.3718459,53.2650996]]]},"properties":{"id":"PZ-KOK-KS8","sector_id":"KS","population":3310,"vulnerable_share":0.18,"source":"DEMO aggregated synthetic population (floor area / 32 m² per person)"}},{"type":"Feature","geometry":{"type":"Polygon","coordinates":[[[69.382445,53.2767519],[69.3823968,53.2713586],[69.3719005,53.2713918],[69.3719473,53.2767851],[69.382445,53.2767519]]]},"properties":{"id":"PZ-KOK-KS9","sector_id":"KS","population":3440,"vulnerable_share":0.17,"source":"DEMO aggregated synthetic population (floor area / 32 m² per person)"}},{"type":"Feature","geometry":{"type":"Polygon","coordinates":[[[69.3822846,53.2587742],[69.3823407,53.2650664],[69.3928354,53.2650323],[69.3927777,53.2587401],[69.3822846,53.2587742]]]},"properties":{"id":"PZ-KOK-KS10","sector_id":"KS","population":2050,"vulnerable_share":0.18,"source":"DEMO aggregated synthetic population (floor area / 32 m² per person)"}},{"type":"Feature","geometry":{"type":"Polygon","coordinates":[[[69.3823407,53.2650664],[69.3823968,53.2713586],[69.3928931,53.2713245],[69.3928354,53.2650323],[69.3823407,53.2650664]]]},"properties":{"id":"PZ-KOK-KS11","sector_id":"KS","population":2510,"vulnerable_share":0.21,"source":"DEMO aggregated synthetic population (floor area / 32 m² per person)"}},{"type":"Feature","geometry":{"type":"Polygon","coordinates":[[[69.3929425,53.2767178],[69.3928931,53.2713245],[69.3823968,53.2713586],[69.382445,53.2767519],[69.3929425,53.2767178]]]},"properties":{"id":"PZ-KOK-KS12","sector_id":"KS","population":2300,"vulnerable_share":0.24,"source":"DEMO aggregated synthetic population (floor area / 32 m² per person)"}},{"type":"Feature","geometry":{"type":"Polygon","coordinates":[[[69.3927777,53.2587401],[69.3928354,53.2650323],[69.4033301,53.2649973],[69.4032709,53.2587051],[69.3927777,53.2587401]]]},"properties":{"id":"PZ-KOK-KS13","sector_id":"KS","population":2730,"vulnerable_share":0.2,"source":"DEMO aggregated synthetic population (floor area / 32 m² per person)"}},{"type":"Feature","geometry":{"type":"Polygon","coordinates":[[[69.3928354,53.2650323],[69.3928931,53.2713245],[69.4033893,53.2712894],[69.4033301,53.2649973],[69.3928354,53.2650323]]]},"properties":{"id":"PZ-KOK-KS14","sector_id":"KS","population":3420,"vulnerable_share":0.14,"source":"DEMO aggregated synthetic population (floor area / 32 m² per person)"}},{"type":"Feature","geometry":{"type":"Polygon","coordinates":[[[69.4034401,53.2766827],[69.4033893,53.2712894],[69.3928931,53.2713245],[69.3929425,53.2767178],[69.4034401,53.2766827]]]},"properties":{"id":"PZ-KOK-KS15","sector_id":"KS","population":3120,"vulnerable_share":0.2,"source":"DEMO aggregated synthetic population (floor area / 32 m² per person)"}},{"type":"Feature","geometry":{"type":"Polygon","coordinates":[[[69.4032709,53.2587051],[69.4033301,53.2649973],[69.4138248,53.2649613],[69.413764,53.2586692],[69.4032709,53.2587051]]]},"properties":{"id":"PZ-KOK-KS16","sector_id":"KS","population":3060,"vulnerable_share":0.17,"source":"DEMO aggregated synthetic population (floor area / 32 m² per person)"}},{"type":"Feature","geometry":{"type":"Polygon","coordinates":[[[69.4033301,53.2649973],[69.4033893,53.2712894],[69.4138855,53.2712535],[69.4138248,53.2649613],[69.4033301,53.2649973]]]},"properties":{"id":"PZ-KOK-KS17","sector_id":"KS","population":1670,"vulnerable_share":0.16,"source":"DEMO aggregated synthetic population (floor area / 32 m² per person)"}},{"type":"Feature","geometry":{"type":"Polygon","coordinates":[[[69.4139376,53.2766467],[69.4138855,53.2712535],[69.4033893,53.2712894],[69.4034401,53.2766827],[69.4139376,53.2766467]]]},"properties":{"id":"PZ-KOK-KS18","sector_id":"KS","population":2640,"vulnerable_share":0.2,"source":"DEMO aggregated synthetic population (floor area / 32 m² per person)"}},{"type":"Feature","geometry":{"type":"Polygon","coordinates":[[[69.413764,53.2586692],[69.4138248,53.2649613],[69.4243194,53.2649244],[69.4242572,53.2586323],[69.413764,53.2586692]]]},"properties":{"id":"PZ-KOK-KS19","sector_id":"KS","population":2520,"vulnerable_share":0.15,"source":"DEMO aggregated synthetic population (floor area / 32 m² per person)"}},{"type":"Feature","geometry":{"type":"Polygon","coordinates":[[[69.4138248,53.2649613],[69.4138855,53.2712535],[69.4243817,53.2712166],[69.4243194,53.2649244],[69.4138248,53.2649613]]]},"properties":{"id":"PZ-KOK-KS20","sector_id":"KS","population":3030,"vulnerable_share":0.15,"source":"DEMO aggregated synthetic population (floor area / 32 m² per person)"}},{"type":"Feature","geometry":{"type":"Polygon","coordinates":[[[69.4244352,53.2766098],[69.4243817,53.2712166],[69.4138855,53.2712535],[69.4139376,53.2766467],[69.4244352,53.2766098]]]},"properties":{"id":"PZ-KOK-KS21","sector_id":"KS","population":2340,"vulnerable_share":0.22,"source":"DEMO aggregated synthetic population (floor area / 32 m² per person)"}},{"type":"Feature","geometry":{"type":"Polygon","coordinates":[[[69.4242572,53.2586323],[69.4243194,53.2649244],[69.4348141,53.2648866],[69.4347503,53.2585945],[69.4242572,53.2586323]]]},"properties":{"id":"PZ-KOK-KS22","sector_id":"KS","population":2390,"vulnerable_share":0.2,"source":"DEMO aggregated synthetic population (floor area / 32 m² per person)"}},{"type":"Feature","geometry":{"type":"Polygon","coordinates":[[[69.4243194,53.2649244],[69.4243817,53.2712166],[69.4348779,53.2711788],[69.4348141,53.2648866],[69.4243194,53.2649244]]]},"properties":{"id":"PZ-KOK-KS23","sector_id":"KS","population":3570,"vulnerable_share":0.17,"source":"DEMO aggregated synthetic population (floor area / 32 m² per person)"}},{"type":"Feature","geometry":{"type":"Polygon","coordinates":[[[69.4349326,53.276572],[69.4348779,53.2711788],[69.4243817,53.2712166],[69.4244352,53.2766098],[69.4349326,53.276572]]]},"properties":{"id":"PZ-KOK-KS24","sector_id":"KS","population":2500,"vulnerable_share":0.16,"source":"DEMO aggregated synthetic population (floor area / 32 m² per person)"}},{"type":"Feature","geometry":{"type":"Polygon","coordinates":[[[69.4407463,53.2585725],[69.4347503,53.2585945],[69.4348141,53.2648866],[69.440811,53.2648646],[69.4407463,53.2585725]]]},"properties":{"id":"PZ-KOK-KS25","sector_id":"KS","population":1560,"vulnerable_share":0.19,"source":"DEMO aggregated synthetic population (floor area / 32 m² per person)"}},{"type":"Feature","geometry":{"type":"Polygon","coordinates":[[[69.440811,53.2648646],[69.4348141,53.2648866],[69.4348779,53.2711788],[69.4408757,53.2711567],[69.440811,53.2648646]]]},"properties":{"id":"PZ-KOK-KS26","sector_id":"KS","population":1350,"vulnerable_share":0.15,"source":"DEMO aggregated synthetic population (floor area / 32 m² per person)"}},{"type":"Feature","geometry":{"type":"Polygon","coordinates":[[[69.4409312,53.27655],[69.4408757,53.2711567],[69.4348779,53.2711788],[69.4349326,53.276572],[69.4409312,53.27655]]]},"properties":{"id":"PZ-KOK-KS27","sector_id":"KS","population":1080,"vulnerable_share":0.13,"source":"DEMO aggregated synthetic population (floor area / 32 m² per person)"}},{"type":"Feature","geometry":{"type":"Polygon","coordinates":[[[69.4230243,53.2856039],[69.4230864,53.2918961],[69.4335877,53.2918583],[69.433524,53.2855662],[69.4230243,53.2856039]]]},"properties":{"id":"PZ-KOK-KE1","sector_id":"KE","population":7800,"vulnerable_share":0.13,"source":"DEMO aggregated synthetic population (floor area / 32 m² per person)"}},{"type":"Feature","geometry":{"type":"Polygon","coordinates":[[[69.4231486,53.2981882],[69.4336514,53.2981504],[69.4335877,53.2918583],[69.4230864,53.2918961],[69.4231486,53.2981882]]]},"properties":{"id":"PZ-KOK-KE2","sector_id":"KE","population":7670,"vulnerable_share":0.19,"source":"DEMO aggregated synthetic population (floor area / 32 m² per person)"}},{"type":"Feature","geometry":{"type":"Polygon","coordinates":[[[69.4336559,53.2985999],[69.4336514,53.2981504],[69.4231486,53.2981882],[69.423153,53.2986376],[69.4336559,53.2985999]]]},"properties":{"id":"PZ-KOK-KE3","sector_id":"KE","population":290,"vulnerable_share":0.18,"source":"DEMO aggregated synthetic population (floor area / 32 m² per person)"}},{"type":"Feature","geometry":{"type":"Polygon","coordinates":[[[69.433524,53.2855662],[69.4335877,53.2918583],[69.4440889,53.2918197],[69.4440236,53.2855276],[69.433524,53.2855662]]]},"properties":{"id":"PZ-KOK-KE4","sector_id":"KE","population":5600,"vulnerable_share":0.15,"source":"DEMO aggregated synthetic population (floor area / 32 m² per person)"}},{"type":"Feature","geometry":{"type":"Polygon","coordinates":[[[69.4335877,53.2918583],[69.4336514,53.2981504],[69.4441541,53.2981118],[69.4440889,53.2918197],[69.4335877,53.2918583]]]},"properties":{"id":"PZ-KOK-KE5","sector_id":"KE","population":5710,"vulnerable_share":0.21,"source":"DEMO aggregated synthetic population (floor area / 32 m² per person)"}},{"type":"Feature","geometry":{"type":"Polygon","coordinates":[[[69.4441588,53.2985612],[69.4441541,53.2981118],[69.4336514,53.2981504],[69.4336559,53.2985999],[69.4441588,53.2985612]]]},"properties":{"id":"PZ-KOK-KE6","sector_id":"KE","population":100,"vulnerable_share":0.23,"source":"DEMO aggregated synthetic population (floor area / 32 m² per person)"}},{"type":"Feature","geometry":{"type":"Polygon","coordinates":[[[69.4440236,53.2855276],[69.4440889,53.2918197],[69.4545901,53.2917801],[69.4545233,53.285488],[69.4440236,53.2855276]]]},"properties":{"id":"PZ-KOK-KE7","sector_id":"KE","population":7890,"vulnerable_share":0.23,"source":"DEMO aggregated synthetic population (floor area / 32 m² per person)"}},{"type":"Feature","geometry":{"type":"Polygon","coordinates":[[[69.4440889,53.2918197],[69.4441541,53.2981118],[69.4546569,53.2980722],[69.4545901,53.2917801],[69.4440889,53.2918197]]]},"properties":{"id":"PZ-KOK-KE8","sector_id":"KE","population":2900,"vulnerable_share":0.21,"source":"DEMO aggregated synthetic population (floor area / 32 m² per person)"}},{"type":"Feature","geometry":{"type":"Polygon","coordinates":[[[69.3330259,53.2858892],[69.3330749,53.2921814],[69.3435763,53.2921516],[69.3435258,53.2858594],[69.3330259,53.2858892]]]},"properties":{"id":"PZ-KOK-KW1","sector_id":"KW","population":340,"vulnerable_share":0.23,"source":"DEMO aggregated synthetic population (floor area / 32 m² per person)"}},{"type":"Feature","geometry":{"type":"Polygon","coordinates":[[[69.3331238,53.2984735],[69.3436268,53.2984438],[69.3435763,53.2921516],[69.3330749,53.2921814],[69.3331238,53.2984735]]]},"properties":{"id":"PZ-KOK-KW2","sector_id":"KW","population":310,"vulnerable_share":0.23,"source":"DEMO aggregated synthetic population (floor area / 32 m² per person)"}},{"type":"Feature","geometry":{"type":"Polygon","coordinates":[[[69.3436304,53.2988932],[69.3436268,53.2984438],[69.3331238,53.2984735],[69.3331273,53.298923],[69.3436304,53.2988932]]]},"properties":{"id":"PZ-KOK-KW3","sector_id":"KW","population":20,"vulnerable_share":0.23,"source":"DEMO aggregated synthetic population (floor area / 32 m² per person)"}},{"type":"Feature","geometry":{"type":"Polygon","coordinates":[[[69.3435258,53.2858594],[69.3435763,53.2921516],[69.3540777,53.2921209],[69.3540257,53.2858287],[69.3435258,53.2858594]]]},"properties":{"id":"PZ-KOK-KW4","sector_id":"KW","population":570,"vulnerable_share":0.22,"source":"DEMO aggregated synthetic population (floor area / 32 m² per person)"}},{"type":"Feature","geometry":{"type":"Polygon","coordinates":[[[69.3435763,53.2921516],[69.3436268,53.2984438],[69.3541297,53.298413],[69.3540777,53.2921209],[69.3435763,53.2921516]]]},"properties":{"id":"PZ-KOK-KW5","sector_id":"KW","population":490,"vulnerable_share":0.13,"source":"DEMO aggregated synthetic population (floor area / 32 m² per person)"}},{"type":"Feature","geometry":{"type":"Polygon","coordinates":[[[69.3540257,53.2858287],[69.3540777,53.2921209],[69.3645791,53.2920892],[69.3645255,53.2857971],[69.3540257,53.2858287]]]},"properties":{"id":"PZ-KOK-KW6","sector_id":"KW","population":780,"vulnerable_share":0.14,"source":"DEMO aggregated synthetic population (floor area / 32 m² per person)"}},{"type":"Feature","geometry":{"type":"Polygon","coordinates":[[[69.3540777,53.2921209],[69.3541297,53.298413],[69.3646327,53.2983814],[69.3645791,53.2920892],[69.3540777,53.2921209]]]},"properties":{"id":"PZ-KOK-KW7","sector_id":"KW","population":670,"vulnerable_share":0.13,"source":"DEMO aggregated synthetic population (floor area / 32 m² per person)"}},{"type":"Feature","geometry":{"type":"Polygon","coordinates":[[[69.3646365,53.2988308],[69.3646327,53.2983814],[69.3541297,53.298413],[69.3541335,53.2988625],[69.3646365,53.2988308]]]},"properties":{"id":"PZ-KOK-KW8","sector_id":"KW","population":30,"vulnerable_share":0.22,"source":"DEMO aggregated synthetic population (floor area / 32 m² per person)"}},{"type":"Feature","geometry":{"type":"Polygon","coordinates":[[[69.3645255,53.2857971],[69.3645791,53.2920892],[69.3690797,53.2920754],[69.3690255,53.2857832],[69.3645255,53.2857971]]]},"properties":{"id":"PZ-KOK-KW9","sector_id":"KW","population":180,"vulnerable_share":0.22,"source":"DEMO aggregated synthetic population (floor area / 32 m² per person)"}},{"type":"Feature","geometry":{"type":"Polygon","coordinates":[[[69.3690797,53.2920754],[69.3645791,53.2920892],[69.3646327,53.2983814],[69.3691339,53.2983675],[69.3690797,53.2920754]]]},"properties":{"id":"PZ-KOK-KW10","sector_id":"KW","population":200,"vulnerable_share":0.12,"source":"DEMO aggregated synthetic population (floor area / 32 m² per person)"}},{"type":"Feature","geometry":{"type":"Polygon","coordinates":[[[69.3331343,53.2998219],[69.3331833,53.306114],[69.3436881,53.3060842],[69.3436376,53.2997921],[69.3331343,53.2998219]]]},"properties":{"id":"PZ-KOK-KN1","sector_id":"KN","population":1740,"vulnerable_share":0.16,"source":"DEMO aggregated synthetic population (floor area / 32 m² per person)"}},{"type":"Feature","geometry":{"type":"Polygon","coordinates":[[[69.3332323,53.3124062],[69.3437387,53.3123764],[69.3436881,53.3060842],[69.3331833,53.306114],[69.3332323,53.3124062]]]},"properties":{"id":"PZ-KOK-KN2","sector_id":"KN","population":1730,"vulnerable_share":0.15,"source":"DEMO aggregated synthetic population (floor area / 32 m² per person)"}},{"type":"Feature","geometry":{"type":"Polygon","coordinates":[[[69.3436376,53.2997921],[69.3436881,53.3060842],[69.354193,53.3060535],[69.3541409,53.2997614],[69.3436376,53.2997921]]]},"properties":{"id":"PZ-KOK-KN3","sector_id":"KN","population":2550,"vulnerable_share":0.17,"source":"DEMO aggregated synthetic population (floor area / 32 m² per person)"}},{"type":"Feature","geometry":{"type":"Polygon","coordinates":[[[69.3436881,53.3060842],[69.3437387,53.3123764],[69.354245,53.3123457],[69.354193,53.3060535],[69.3436881,53.3060842]]]},"properties":{"id":"PZ-KOK-KN4","sector_id":"KN","population":2320,"vulnerable_share":0.14,"source":"DEMO aggregated synthetic population (floor area / 32 m² per person)"}},{"type":"Feature","geometry":{"type":"Polygon","coordinates":[[[69.3541409,53.2997614],[69.354193,53.3060535],[69.3646978,53.3060219],[69.3646442,53.2997297],[69.3541409,53.2997614]]]},"properties":{"id":"PZ-KOK-KN5","sector_id":"KN","population":2740,"vulnerable_share":0.2,"source":"DEMO aggregated synthetic population (floor area / 32 m² per person)"}},{"type":"Feature","geometry":{"type":"Polygon","coordinates":[[[69.354193,53.3060535],[69.354245,53.3123457],[69.3647514,53.312314],[69.3646978,53.3060219],[69.354193,53.3060535]]]},"properties":{"id":"PZ-KOK-KN6","sector_id":"KN","population":3260,"vulnerable_share":0.12,"source":"DEMO aggregated synthetic population (floor area / 32 m² per person)"}},{"type":"Feature","geometry":{"type":"Polygon","coordinates":[[[69.3646442,53.2997297],[69.3646978,53.3060219],[69.3752025,53.3059893],[69.3751474,53.2996971],[69.3646442,53.2997297]]]},"properties":{"id":"PZ-KOK-KN7","sector_id":"KN","population":2470,"vulnerable_share":0.17,"source":"DEMO aggregated synthetic population (floor area / 32 m² per person)"}},{"type":"Feature","geometry":{"type":"Polygon","coordinates":[[[69.3646978,53.3060219],[69.3647514,53.312314],[69.3752577,53.3122814],[69.3752025,53.3059893],[69.3646978,53.3060219]]]},"properties":{"id":"PZ-KOK-KN8","sector_id":"KN","population":2600,"vulnerable_share":0.19,"source":"DEMO aggregated synthetic population (floor area / 32 m² per person)"}},{"type":"Feature","geometry":{"type":"Polygon","coordinates":[[[69.3751474,53.2996971],[69.3752025,53.3059893],[69.3857073,53.3059558],[69.3856506,53.2996636],[69.3751474,53.2996971]]]},"properties":{"id":"PZ-KOK-KN9","sector_id":"KN","population":2060,"vulnerable_share":0.2,"source":"DEMO aggregated synthetic population (floor area / 32 m² per person)"}},{"type":"Feature","geometry":{"type":"Polygon","coordinates":[[[69.3752025,53.3059893],[69.3752577,53.3122814],[69.385764,53.3122479],[69.3857073,53.3059558],[69.3752025,53.3059893]]]},"properties":{"id":"PZ-KOK-KN10","sector_id":"KN","population":3490,"vulnerable_share":0.16,"source":"DEMO aggregated synthetic population (floor area / 32 m² per person)"}},{"type":"Feature","geometry":{"type":"Polygon","coordinates":[[[69.3856506,53.2996636],[69.3857073,53.3059558],[69.396212,53.3059214],[69.3961538,53.2996292],[69.3856506,53.2996636]]]},"properties":{"id":"PZ-KOK-KN11","sector_id":"KN","population":4060,"vulnerable_share":0.16,"source":"DEMO aggregated synthetic population (floor area / 32 m² per person)"}},{"type":"Feature","geometry":{"type":"Polygon","coordinates":[[[69.3857073,53.3059558],[69.385764,53.3122479],[69.3962703,53.3122135],[69.396212,53.3059214],[69.3857073,53.3059558]]]},"properties":{"id":"PZ-KOK-KN12","sector_id":"KN","population":2370,"vulnerable_share":0.19,"source":"DEMO aggregated synthetic population (floor area / 32 m² per person)"}},{"type":"Feature","geometry":{"type":"Polygon","coordinates":[[[69.3961538,53.2996292],[69.396212,53.3059214],[69.4067168,53.305886],[69.406657,53.2995939],[69.3961538,53.2996292]]]},"properties":{"id":"PZ-KOK-KN13","sector_id":"KN","population":2810,"vulnerable_share":0.19,"source":"DEMO aggregated synthetic population (floor area / 32 m² per person)"}},{"type":"Feature","geometry":{"type":"Polygon","coordinates":[[[69.396212,53.3059214],[69.3962703,53.3122135],[69.4067766,53.3121781],[69.4067168,53.305886],[69.396212,53.3059214]]]},"properties":{"id":"PZ-KOK-KN14","sector_id":"KN","population":2760,"vulnerable_share":0.14,"source":"DEMO aggregated synthetic population (floor area / 32 m² per person)"}},{"type":"Feature","geometry":{"type":"Polygon","coordinates":[[[69.406657,53.2995939],[69.4067168,53.305886],[69.4172215,53.3058497],[69.4171601,53.2995576],[69.406657,53.2995939]]]},"properties":{"id":"PZ-KOK-KN15","sector_id":"KN","population":1830,"vulnerable_share":0.15,"source":"DEMO aggregated synthetic population (floor area / 32 m² per person)"}},{"type":"Feature","geometry":{"type":"Polygon","coordinates":[[[69.4067168,53.305886],[69.4067766,53.3121781],[69.4172828,53.3121418],[69.4172215,53.3058497],[69.4067168,53.305886]]]},"properties":{"id":"PZ-KOK-KN16","sector_id":"KN","population":3060,"vulnerable_share":0.2,"source":"DEMO aggregated synthetic population (floor area / 32 m² per person)"}},{"type":"Feature","geometry":{"type":"Polygon","coordinates":[[[69.4171601,53.2995576],[69.4172215,53.3058497],[69.4277261,53.3058125],[69.4276633,53.2995204],[69.4171601,53.2995576]]]},"properties":{"id":"PZ-KOK-KN17","sector_id":"KN","population":1640,"vulnerable_share":0.12,"source":"DEMO aggregated synthetic population (floor area / 32 m² per person)"}},{"type":"Feature","geometry":{"type":"Polygon","coordinates":[[[69.4172215,53.3058497],[69.4172828,53.3121418],[69.427789,53.3121046],[69.4277261,53.3058125],[69.4172215,53.3058497]]]},"properties":{"id":"PZ-KOK-KN18","sector_id":"KN","population":2880,"vulnerable_share":0.18,"source":"DEMO aggregated synthetic population (floor area / 32 m² per person)"}},{"type":"Feature","geometry":{"type":"Polygon","coordinates":[[[69.4276633,53.2995204],[69.4277261,53.3058125],[69.4382308,53.3057744],[69.4381664,53.2994823],[69.4276633,53.2995204]]]},"properties":{"id":"PZ-KOK-KN19","sector_id":"KN","population":3240,"vulnerable_share":0.13,"source":"DEMO aggregated synthetic population (floor area / 32 m² per person)"}},{"type":"Feature","geometry":{"type":"Polygon","coordinates":[[[69.4277261,53.3058125],[69.427789,53.3121046],[69.4382952,53.3120665],[69.4382308,53.3057744],[69.4277261,53.3058125]]]},"properties":{"id":"PZ-KOK-KN20","sector_id":"KN","population":2680,"vulnerable_share":0.13,"source":"DEMO aggregated synthetic population (floor area / 32 m² per person)"}},{"type":"Feature","geometry":{"type":"Polygon","coordinates":[[[69.4381664,53.2994823],[69.4382308,53.3057744],[69.4487354,53.3057353],[69.4486695,53.2994433],[69.4381664,53.2994823]]]},"properties":{"id":"PZ-KOK-KN21","sector_id":"KN","population":2200,"vulnerable_share":0.19,"source":"DEMO aggregated synthetic population (floor area / 32 m² per person)"}},{"type":"Feature","geometry":{"type":"Polygon","coordinates":[[[69.4382308,53.3057744],[69.4382952,53.3120665],[69.4488014,53.3120274],[69.4487354,53.3057353],[69.4382308,53.3057744]]]},"properties":{"id":"PZ-KOK-KN22","sector_id":"KN","population":2500,"vulnerable_share":0.17,"source":"DEMO aggregated synthetic population (floor area / 32 m² per person)"}},{"type":"Feature","geometry":{"type":"Polygon","coordinates":[[[69.4486695,53.2994433],[69.4487354,53.3057353],[69.45924,53.3056954],[69.4591725,53.2994033],[69.4486695,53.2994433]]]},"properties":{"id":"PZ-KOK-KN23","sector_id":"KN","population":960,"vulnerable_share":0.2,"source":"DEMO aggregated synthetic population (floor area / 32 m² per person)"}},{"type":"Feature","geometry":{"type":"Polygon","coordinates":[[[69.45924,53.3056954],[69.4487354,53.3057353],[69.4488014,53.3120274],[69.4593075,53.3119874],[69.45924,53.3056954]]]},"properties":{"id":"PZ-KOK-KN24","sector_id":"KN","population":1200,"vulnerable_share":0.15,"source":"DEMO aggregated synthetic population (floor area / 32 m² per person)"}}]}