{"type":"FeatureCollection","demo":true,"note":"DEMO DATA — synthetic, not surveyed or measured. For demonstration of ARGUS workflows only.","nodes":[{"type":"Feature","geometry":{"type":"Point","coordinates":[69.3420402,53.2876615]},"properties":{"id":"K-3600_500"}},{"type":"Feature","geometry":{"type":"Point","coordinates":[69.3420905,53.2939537]},"properties":{"id":"K-3600_1200"}},{"type":"Feature","geometry":{"type":"Point","coordinates":[69.3421767,53.3047402]},"properties":{"id":"K-3600_2400"}},{"type":"Feature","geometry":{"type":"Point","coordinates":[69.3422198,53.3101335]},"properties":{"id":"K-3600_3000"}},{"type":"Feature","geometry":{"type":"Point","coordinates":[69.3419397,53.2750771]},"properties":{"id":"K-3600_-900"}},{"type":"Feature","geometry":{"type":"Point","coordinates":[69.3418895,53.2687849]},"properties":{"id":"K-3600_-1600"}},{"type":"Feature","geometry":{"type":"Point","coordinates":[69.3418322,53.2615938]},"properties":{"id":"K-3600_-2400"}},{"type":"Feature","geometry":{"type":"Point","coordinates":[69.3600407,53.2876085]},"properties":{"id":"K-2400_500"}},{"type":"Feature","geometry":{"type":"Point","coordinates":[69.3600936,53.2939007]},"properties":{"id":"K-2400_1200"}},{"type":"Feature","geometry":{"type":"Point","coordinates":[69.3601844,53.3046872]},"properties":{"id":"K-2400_2400"}},{"type":"Feature","geometry":{"type":"Point","coordinates":[69.3602297,53.3100805]},"properties":{"id":"K-2400_3000"}},{"type":"Feature","geometry":{"type":"Point","coordinates":[69.359935,53.2750241]},"properties":{"id":"K-2400_-900"}},{"type":"Feature","geometry":{"type":"Point","coordinates":[69.3598821,53.268732]},"properties":{"id":"K-2400_-1600"}},{"type":"Feature","geometry":{"type":"Point","coordinates":[69.3598217,53.2615409]},"properties":{"id":"K-2400_-2400"}},{"type":"Feature","geometry":{"type":"Point","coordinates":[69.3780412,53.2875528]},"properties":{"id":"K-1200_500"}},{"type":"Feature","geometry":{"type":"Point","coordinates":[69.3780967,53.293845]},"properties":{"id":"K-1200_1200"}},{"type":"Feature","geometry":{"type":"Point","coordinates":[69.378192,53.3046315]},"properties":{"id":"K-1200_2400"}},{"type":"Feature","geometry":{"type":"Point","coordinates":[69.3782397,53.3100248]},"properties":{"id":"K-1200_3000"}},{"type":"Feature","geometry":{"type":"Point","coordinates":[69.3779301,53.2749685]},"properties":{"id":"K-1200_-900"}},{"type":"Feature","geometry":{"type":"Point","coordinates":[69.3778746,53.2686763]},"properties":{"id":"K-1200_-1600"}},{"type":"Feature","geometry":{"type":"Point","coordinates":[69.3778112,53.2614852]},"properties":{"id":"K-1200_-2400"}},{"type":"Feature","geometry":{"type":"Point","coordinates":[69.3960416,53.2874944]},"properties":{"id":"K0_500"}},{"type":"Feature","geometry":{"type":"Point","coordinates":[69.3960997,53.2937865]},"properties":{"id":"K0_1200"}},{"type":"Feature","geometry":{"type":"Point","coordinates":[69.3961996,53.304573]},"properties":{"id":"K0_2400"}},{"type":"Feature","geometry":{"type":"Point","coordinates":[69.3962495,53.3099663]},"properties":{"id":"K0_3000"}},{"type":"Feature","geometry":{"type":"Point","coordinates":[69.3959252,53.2749101]},"properties":{"id":"K0_-900"}},{"type":"Feature","geometry":{"type":"Point","coordinates":[69.3958671,53.2686179]},"properties":{"id":"K0_-1600"}},{"type":"Feature","geometry":{"type":"Point","coordinates":[69.3958007,53.2614269]},"properties":{"id":"K0_-2400"}},{"type":"Feature","geometry":{"type":"Point","coordinates":[69.4140419,53.2874333]},"properties":{"id":"K1200_500"}},{"type":"Feature","geometry":{"type":"Point","coordinates":[69.4141027,53.2937254]},"properties":{"id":"K1200_1200"}},{"type":"Feature","geometry":{"type":"Point","coordinates":[69.4142071,53.3045119]},"properties":{"id":"K1200_2400"}},{"type":"Feature","geometry":{"type":"Point","coordinates":[69.4142593,53.3099051]},"properties":{"id":"K1200_3000"}},{"type":"Feature","geometry":{"type":"Point","coordinates":[69.4139203,53.274849]},"properties":{"id":"K1200_-900"}},{"type":"Feature","geometry":{"type":"Point","coordinates":[69.4138595,53.2685568]},"properties":{"id":"K1200_-1600"}},{"type":"Feature","geometry":{"type":"Point","coordinates":[69.4137901,53.2613658]},"properties":{"id":"K1200_-2400"}},{"type":"Feature","geometry":{"type":"Point","coordinates":[69.4320421,53.2873694]},"properties":{"id":"K2400_500"}},{"type":"Feature","geometry":{"type":"Point","coordinates":[69.4321056,53.2936615]},"properties":{"id":"K2400_1200"}},{"type":"Feature","geometry":{"type":"Point","coordinates":[69.4322145,53.304448]},"properties":{"id":"K2400_2400"}},{"type":"Feature","geometry":{"type":"Point","coordinates":[69.432269,53.3098412]},"properties":{"id":"K2400_3000"}},{"type":"Feature","geometry":{"type":"Point","coordinates":[69.4319152,53.2747852]},"properties":{"id":"K2400_-900"}},{"type":"Feature","geometry":{"type":"Point","coordinates":[69.4318518,53.268493]},"properties":{"id":"K2400_-1600"}},{"type":"Feature","geometry":{"type":"Point","coordinates":[69.4317794,53.261302]},"properties":{"id":"K2400_-2400"}},{"type":"Feature","geometry":{"type":"Point","coordinates":[69.4500423,53.2873029]},"properties":{"id":"K3600_500"}},{"type":"Feature","geometry":{"type":"Point","coordinates":[69.4501085,53.293595]},"properties":{"id":"K3600_1200"}},{"type":"Feature","geometry":{"type":"Point","coordinates":[69.4502219,53.3043814]},"properties":{"id":"K3600_2400"}},{"type":"Feature","geometry":{"type":"Point","coordinates":[69.4502786,53.3097746]},"properties":{"id":"K3600_3000"}},{"type":"Feature","geometry":{"type":"Point","coordinates":[69.4499101,53.2747186]},"properties":{"id":"K3600_-900"}},{"type":"Feature","geometry":{"type":"Point","coordinates":[69.4498441,53.2684265]},"properties":{"id":"K3600_-1600"}},{"type":"Feature","geometry":{"type":"Point","coordinates":[69.4497686,53.2612355]},"properties":{"id":"K3600_-2400"}},{"type":"Feature","geometry":{"type":"Point","coordinates":[69.3960125,53.2843483]},"properties":{"id":"B1N"}},{"type":"Feature","geometry":{"type":"Point","coordinates":[69.3959535,53.2779663]},"properties":{"id":"B1S"}},{"type":"Feature","geometry":{"type":"Point","coordinates":[69.4140141,53.2845569]},"properties":{"id":"B2N"}},{"type":"Feature","geometry":{"type":"Point","coordinates":[69.4139446,53.2773658]},"properties":{"id":"B2S"}},{"type":"Feature","geometry":{"type":"Point","coordinates":[69.4500187,53.2850557]},"properties":{"id":"B3N"}},{"type":"Feature","geometry":{"type":"Point","coordinates":[69.4499422,53.2777748]},"properties":{"id":"B3S"}},{"type":"Feature","geometry":{"type":"Point","coordinates":[69.3600128,53.2842826]},"properties":{"id":"B4N"}},{"type":"Feature","geometry":{"type":"Point","coordinates":[69.3599606,53.2780803]},"properties":{"id":"B4S"}},{"type":"Feature","geometry":{"type":"Point","coordinates":[69.3961621,53.3005281]},"properties":{"id":"UPN"}},{"type":"Feature","geometry":{"type":"Point","coordinates":[69.3961372,53.2978315]},"properties":{"id":"UPS"}},{"type":"Feature","geometry":{"type":"Point","coordinates":[69.360139,53.2992939]},"properties":{"id":"LXW"}},{"type":"Feature","geometry":{"type":"Point","coordinates":[69.4321601,53.2990548]},"properties":{"id":"LXE"}},{"type":"Feature","geometry":{"type":"Point","coordinates":[69.342112,53.2966503]},"properties":{"id":"CVN"}},{"type":"Feature","geometry":{"type":"Point","coordinates":[69.3420689,53.291257]},"properties":{"id":"CVS"}},{"type":"Feature","geometry":{"type":"Point","coordinates":[69.3960665,53.290191]},"properties":{"id":"KB"}},{"type":"Feature","geometry":{"type":"Point","coordinates":[69.3662715,53.3145566]},"properties":{"id":"KD"}},{"type":"Feature","geometry":{"type":"Point","coordinates":[69.4604603,53.2796224]},"properties":{"id":"WTP"}}],"features":[{"type":"Feature","geometry":{"type":"LineString","coordinates":[[69.3962495,53.3099663],[69.3961996,53.304573]]},"properties":{"id":"KA1-1","road_id":"KA1","road_class":"urban_main","speed_kmh":45,"u":"K0_3000","v":"K0_2400","length_m":600.0,"bridge_id":null,"embankment_m":0.4,"key":"K0_3000>K0_2400","name_kk":"KA1 Абай даңғылы (DEMO)","name_ru":"KA1 проспект Абая (DEMO)","name_en":"KA1 Abay avenue (DEMO)","name_original":"KA1 проспект Абая (DEMO)","source":"DEMO"}},{"type":"Feature","geometry":{"type":"LineString","coordinates":[[69.3961996,53.304573],[69.3961621,53.3005281]]},"properties":{"id":"KA1-2","road_id":"KA1","road_class":"urban_main","speed_kmh":45,"u":"K0_2400","v":"UPN","length_m":450.0,"bridge_id":null,"embankment_m":0.4,"key":"K0_2400>UPN","name_kk":"KA1 Абай даңғылы (DEMO)","name_ru":"KA1 проспект Абая (DEMO)","name_en":"KA1 Abay avenue (DEMO)","name_original":"KA1 проспект Абая (DEMO)","source":"DEMO"}},{"type":"Feature","geometry":{"type":"LineString","coordinates":[[69.3961621,53.3005281],[69.3961372,53.2978315]]},"properties":{"id":"KA1-3","road_id":"KA1","road_class":"urban_main","speed_kmh":45,"u":"UPN","v":"UPS","length_m":300.0,"bridge_id":null,"embankment_m":0.0,"key":"UPN>UPS","name_kk":"KA1 Абай даңғылы (DEMO)","name_ru":"KA1 проспект Абая (DEMO)","name_en":"KA1 Abay avenue (DEMO)","name_original":"KA1 проспект Абая (DEMO)","source":"DEMO"}},{"type":"Feature","geometry":{"type":"LineString","coordinates":[[69.3961372,53.2978315],[69.3960997,53.2937865]]},"properties":{"id":"KA1-4","road_id":"KA1","road_class":"urban_main","speed_kmh":45,"u":"UPS","v":"K0_1200","length_m":450.0,"bridge_id":null,"embankment_m":0.4,"key":"UPS>K0_1200","name_kk":"KA1 Абай даңғылы (DEMO)","name_ru":"KA1 проспект Абая (DEMO)","name_en":"KA1 Abay avenue (DEMO)","name_original":"KA1 проспект Абая (DEMO)","source":"DEMO"}},{"type":"Feature","geometry":{"type":"LineString","coordinates":[[69.3960997,53.2937865],[69.3960665,53.290191]]},"properties":{"id":"KA1-5","road_id":"KA1","road_class":"urban_main","speed_kmh":45,"u":"K0_1200","v":"KB","length_m":400.0,"bridge_id":null,"embankment_m":0.4,"key":"K0_1200>KB","name_kk":"KA1 Абай даңғылы (DEMO)","name_ru":"KA1 проспект Абая (DEMO)","name_en":"KA1 Abay avenue (DEMO)","name_original":"KA1 проспект Абая (DEMO)","source":"DEMO"}},{"type":"Feature","geometry":{"type":"LineString","coordinates":[[69.3960665,53.290191],[69.3960416,53.2874944]]},"properties":{"id":"KA1-6","road_id":"KA1","road_class":"urban_main","speed_kmh":45,"u":"KB","v":"K0_500","length_m":300.0,"bridge_id":null,"embankment_m":0.4,"key":"KB>K0_500","name_kk":"KA1 Абай даңғылы (DEMO)","name_ru":"KA1 проспект Абая (DEMO)","name_en":"KA1 Abay avenue (DEMO)","name_original":"KA1 проспект Абая (DEMO)","source":"DEMO"}},{"type":"Feature","geometry":{"type":"LineString","coordinates":[[69.3960416,53.2874944],[69.3960125,53.2843483]]},"properties":{"id":"KA1-7","road_id":"KA1","road_class":"urban_main","speed_kmh":45,"u":"K0_500","v":"B1N","length_m":350.0,"bridge_id":null,"embankment_m":0.4,"key":"K0_500>B1N","name_kk":"KA1 Абай даңғылы (DEMO)","name_ru":"KA1 проспект Абая (DEMO)","name_en":"KA1 Abay avenue (DEMO)","name_original":"KA1 проспект Абая (DEMO)","source":"DEMO"}},{"type":"Feature","geometry":{"type":"LineString","coordinates":[[69.3960125,53.2843483],[69.3959535,53.2779663]]},"properties":{"id":"KA1-8","road_id":"KA1","road_class":"urban_main","speed_kmh":45,"u":"B1N","v":"B1S","length_m":710.0,"bridge_id":"KB1","embankment_m":0.0,"key":"B1N>B1S","name_kk":"KA1 Абай даңғылы (DEMO)","name_ru":"KA1 проспект Абая (DEMO)","name_en":"KA1 Abay avenue (DEMO)","name_original":"KA1 проспект Абая (DEMO)","source":"DEMO"}},{"type":"Feature","geometry":{"type":"LineString","coordinates":[[69.3959535,53.2779663],[69.3959252,53.2749101]]},"properties":{"id":"KA1-9","road_id":"KA1","road_class":"urban_main","speed_kmh":45,"u":"B1S","v":"K0_-900","length_m":340.0,"bridge_id":null,"embankment_m":0.4,"key":"B1S>K0_-900","name_kk":"KA1 Абай даңғылы (DEMO)","name_ru":"KA1 проспект Абая (DEMO)","name_en":"KA1 Abay avenue (DEMO)","name_original":"KA1 проспект Абая (DEMO)","source":"DEMO"}},{"type":"Feature","geometry":{"type":"LineString","coordinates":[[69.3959252,53.2749101],[69.3958671,53.2686179]]},"properties":{"id":"KA1-10","road_id":"KA1","road_class":"urban_main","speed_kmh":45,"u":"K0_-900","v":"K0_-1600","length_m":700.0,"bridge_id":null,"embankment_m":0.4,"key":"K0_-900>K0_-1600","name_kk":"KA1 Абай даңғылы (DEMO)","name_ru":"KA1 проспект Абая (DEMO)","name_en":"KA1 Abay avenue (DEMO)","name_original":"KA1 проспект Абая (DEMO)","source":"DEMO"}},{"type":"Feature","geometry":{"type":"LineString","coordinates":[[69.3958671,53.2686179],[69.3958007,53.2614269]]},"properties":{"id":"KA1-11","road_id":"KA1","road_class":"urban_main","speed_kmh":45,"u":"K0_-1600","v":"K0_-2400","length_m":800.0,"bridge_id":null,"embankment_m":0.4,"key":"K0_-1600>K0_-2400","name_kk":"KA1 Абай даңғылы (DEMO)","name_ru":"KA1 проспект Абая (DEMO)","name_en":"KA1 Abay avenue (DEMO)","name_original":"KA1 проспект Абая (DEMO)","source":"DEMO"}},{"type":"Feature","geometry":{"type":"LineString","coordinates":[[69.4140419,53.2874333],[69.4140141,53.2845569]]},"properties":{"id":"KA2-1","road_id":"KA2","road_class":"urban_main","speed_kmh":40,"u":"K1200_500","v":"B2N","length_m":320.0,"bridge_id":null,"embankment_m":0.0,"key":"K1200_500>B2N","name_kk":"KA2 Әуезов көшесі (DEMO)","name_ru":"KA2 улица Ауэзова (DEMO)","name_en":"KA2 Auezov street (DEMO)","name_original":"KA2 улица Ауэзова (DEMO)","source":"DEMO"}},{"type":"Feature","geometry":{"type":"LineString","coordinates":[[69.4140141,53.2845569],[69.4139446,53.2773658]]},"properties":{"id":"KA2-2","road_id":"KA2","road_class":"urban_main","speed_kmh":40,"u":"B2N","v":"B2S","length_m":800.0,"bridge_id":"KB2","embankment_m":0.0,"key":"B2N>B2S","name_kk":"KA2 Әуезов көшесі (DEMO)","name_ru":"KA2 улица Ауэзова (DEMO)","name_en":"KA2 Auezov street (DEMO)","name_original":"KA2 улица Ауэзова (DEMO)","source":"DEMO"}},{"type":"Feature","geometry":{"type":"LineString","coordinates":[[69.4139446,53.2773658],[69.4139203,53.274849]]},"properties":{"id":"KA2-3","road_id":"KA2","road_class":"urban_main","speed_kmh":40,"u":"B2S","v":"K1200_-900","length_m":280.0,"bridge_id":null,"embankment_m":0.196,"key":"B2S>K1200_-900","name_kk":"KA2 Әуезов көшесі (DEMO)","name_ru":"KA2 улица Ауэзова (DEMO)","name_en":"KA2 Auezov street (DEMO)","name_original":"KA2 улица Ауэзова (DEMO)","source":"DEMO"}},{"type":"Feature","geometry":{"type":"LineString","coordinates":[[69.4500423,53.2873029],[69.4500187,53.2850557]]},"properties":{"id":"KA3-1","road_id":"KA3","road_class":"urban_main","speed_kmh":45,"u":"K3600_500","v":"B3N","length_m":250.0,"bridge_id":null,"embankment_m":0.461,"key":"K3600_500>B3N","name_kk":"KA3 шығыс даңғылы (DEMO)","name_ru":"KA3 восточный проспект (DEMO)","name_en":"KA3 eastern avenue (DEMO)","name_original":"KA3 восточный проспект (DEMO)","source":"DEMO"}},{"type":"Feature","geometry":{"type":"LineString","coordinates":[[69.4500187,53.2850557],[69.4499422,53.2777748]]},"properties":{"id":"KA3-2","road_id":"KA3","road_class":"urban_main","speed_kmh":45,"u":"B3N","v":"B3S","length_m":810.0,"bridge_id":"KB3","embankment_m":0.0,"key":"B3N>B3S","name_kk":"KA3 шығыс даңғылы (DEMO)","name_ru":"KA3 восточный проспект (DEMO)","name_en":"KA3 eastern avenue (DEMO)","name_original":"KA3 восточный проспект (DEMO)","source":"DEMO"}},{"type":"Feature","geometry":{"type":"LineString","coordinates":[[69.4499422,53.2777748],[69.4499101,53.2747186]]},"properties":{"id":"KA3-3","road_id":"KA3","road_class":"urban_main","speed_kmh":45,"u":"B3S","v":"K3600_-900","length_m":340.0,"bridge_id":null,"embankment_m":0.0,"key":"B3S>K3600_-900","name_kk":"KA3 шығыс даңғылы (DEMO)","name_ru":"KA3 восточный проспект (DEMO)","name_en":"KA3 eastern avenue (DEMO)","name_original":"KA3 восточный проспект (DEMO)","source":"DEMO"}},{"type":"Feature","geometry":{"type":"LineString","coordinates":[[69.3600407,53.2876085],[69.3600128,53.2842826]]},"properties":{"id":"KA4-1","road_id":"KA4","road_class":"urban_main","speed_kmh":40,"u":"K-2400_500","v":"B4N","length_m":370.0,"bridge_id":null,"embankment_m":0.0,"key":"K-2400_500>B4N","name_kk":"KA4 батыс көшесі (DEMO)","name_ru":"KA4 западная улица (DEMO)","name_en":"KA4 western street (DEMO)","name_original":"KA4 западная улица (DEMO)","source":"DEMO"}},{"type":"Feature","geometry":{"type":"LineString","coordinates":[[69.3600128,53.2842826],[69.3599606,53.2780803]]},"properties":{"id":"KA4-2","road_id":"KA4","road_class":"urban_main","speed_kmh":40,"u":"B4N","v":"B4S","length_m":690.0,"bridge_id":"KB4","embankment_m":0.0,"key":"B4N>B4S","name_kk":"KA4 батыс көшесі (DEMO)","name_ru":"KA4 западная улица (DEMO)","name_en":"KA4 western street (DEMO)","name_original":"KA4 западная улица (DEMO)","source":"DEMO"}},{"type":"Feature","geometry":{"type":"LineString","coordinates":[[69.3599606,53.2780803],[69.359935,53.2750241]]},"properties":{"id":"KA4-3","road_id":"KA4","road_class":"urban_main","speed_kmh":40,"u":"B4S","v":"K-2400_-900","length_m":340.0,"bridge_id":null,"embankment_m":0.0,"key":"B4S>K-2400_-900","name_kk":"KA4 батыс көшесі (DEMO)","name_ru":"KA4 западная улица (DEMO)","name_en":"KA4 western street (DEMO)","name_original":"KA4 западная улица (DEMO)","source":"DEMO"}},{"type":"Feature","geometry":{"type":"LineString","coordinates":[[69.3422198,53.3101335],[69.3421767,53.3047402]]},"properties":{"id":"KR-1","road_id":"KR","road_class":"urban_main","speed_kmh":50,"u":"K-3600_3000","v":"K-3600_2400","length_m":600.0,"bridge_id":null,"embankment_m":0.6,"key":"K-3600_3000>K-3600_2400","name_kk":"KR батыс айналма жолы (DEMO)","name_ru":"KR западная объездная (DEMO)","name_en":"KR western ring road (DEMO)","name_original":"KR западная объездная (DEMO)","source":"DEMO"}},{"type":"Feature","geometry":{"type":"LineString","coordinates":[[69.3421767,53.3047402],[69.342112,53.2966503]]},"properties":{"id":"KR-2","road_id":"KR","road_class":"urban_main","speed_kmh":50,"u":"K-3600_2400","v":"CVN","length_m":900.0,"bridge_id":null,"embankment_m":0.6,"key":"K-3600_2400>CVN","name_kk":"KR батыс айналма жолы (DEMO)","name_ru":"KR западная объездная (DEMO)","name_en":"KR western ring road (DEMO)","name_original":"KR западная объездная (DEMO)","source":"DEMO"}},{"type":"Feature","geometry":{"type":"LineString","coordinates":[[69.342112,53.2966503],[69.3420689,53.291257]]},"properties":{"id":"KR-3","road_id":"KR","road_class":"urban_main","speed_kmh":50,"u":"CVN","v":"CVS","length_m":600.0,"bridge_id":null,"embankment_m":0.15,"key":"CVN>CVS","name_kk":"KR батыс айналма жолы (DEMO)","name_ru":"KR западная объездная (DEMO)","name_en":"KR western ring road (DEMO)","name_original":"KR западная объездная (DEMO)","source":"DEMO"}},{"type":"Feature","geometry":{"type":"LineString","coordinates":[[69.3420689,53.291257],[69.3420402,53.2876615]]},"properties":{"id":"KR-4","road_id":"KR","road_class":"urban_main","speed_kmh":50,"u":"CVS","v":"K-3600_500","length_m":400.0,"bridge_id":null,"embankment_m":0.6,"key":"CVS>K-3600_500","name_kk":"KR батыс айналма жолы (DEMO)","name_ru":"KR западная объездная (DEMO)","name_en":"KR western ring road (DEMO)","name_original":"KR западная объездная (DEMO)","source":"DEMO"}},{"type":"Feature","geometry":{"type":"LineString","coordinates":[[69.3601844,53.3046872],[69.360139,53.2992939]]},"properties":{"id":"KL-1","road_id":"KL","road_class":"urban","speed_kmh":35,"u":"K-2400_2400","v":"LXW","length_m":600.0,"bridge_id":null,"embankment_m":0.4,"key":"K-2400_2400>LXW","name_kk":"KL деңгейлік өткелдер (DEMO)","name_ru":"KL переезды (DEMO)","name_en":"KL level crossings (DEMO)","name_original":"KL переезды (DEMO)","source":"DEMO"}},{"type":"Feature","geometry":{"type":"LineString","coordinates":[[69.360139,53.2992939],[69.3600936,53.2939007]]},"properties":{"id":"KL-2","road_id":"KL","road_class":"urban","speed_kmh":35,"u":"LXW","v":"K-2400_1200","length_m":600.0,"bridge_id":null,"embankment_m":0.4,"key":"LXW>K-2400_1200","name_kk":"KL деңгейлік өткелдер (DEMO)","name_ru":"KL переезды (DEMO)","name_en":"KL level crossings (DEMO)","name_original":"KL переезды (DEMO)","source":"DEMO"}},{"type":"Feature","geometry":{"type":"LineString","coordinates":[[69.4322145,53.304448],[69.4321601,53.2990548]]},"properties":{"id":"KE-1","road_id":"KE","road_class":"urban","speed_kmh":35,"u":"K2400_2400","v":"LXE","length_m":600.0,"bridge_id":null,"embankment_m":0.4,"key":"K2400_2400>LXE","name_kk":"KE шығыс өткел (DEMO)","name_ru":"KE восточный переезд (DEMO)","name_en":"KE eastern crossing (DEMO)","name_original":"KE восточный переезд (DEMO)","source":"DEMO"}},{"type":"Feature","geometry":{"type":"LineString","coordinates":[[69.4321601,53.2990548],[69.4321056,53.2936615]]},"properties":{"id":"KE-2","road_id":"KE","road_class":"urban","speed_kmh":35,"u":"LXE","v":"K2400_1200","length_m":600.0,"bridge_id":null,"embankment_m":0.4,"key":"LXE>K2400_1200","name_kk":"KE шығыс өткел (DEMO)","name_ru":"KE восточный переезд (DEMO)","name_en":"KE eastern crossing (DEMO)","name_original":"KE восточный переезд (DEMO)","source":"DEMO"}},{"type":"Feature","geometry":{"type":"LineString","coordinates":[[69.3662715,53.3145566],[69.3602297,53.3100805]]},"properties":{"id":"KD1-1","road_id":"KD1","road_class":"rural","speed_kmh":50,"u":"KD","v":"K-2400_3000","length_m":640.3,"bridge_id":null,"embankment_m":1.0,"key":"KD>K-2400_3000","name_kk":"KD1 қойма жолы","name_ru":"KD1 дорога к складу","name_en":"KD1 depot road","name_original":"KD1 дорога к складу","source":"DEMO"}},{"type":"Feature","geometry":{"type":"LineString","coordinates":[[69.4500423,53.2873029],[69.4604603,53.2796224]]},"properties":{"id":"KW-1","road_id":"KW","road_class":"urban","speed_kmh":35,"u":"K3600_500","v":"WTP","length_m":1101.1,"bridge_id":null,"embankment_m":3.15,"key":"K3600_500>WTP","name_kk":"KW су тазарту жолы","name_ru":"KW дорога к очистным","name_en":"KW treatment plant road","name_original":"KW дорога к очистным","source":"DEMO"}},{"type":"Feature","geometry":{"type":"LineString","coordinates":[[69.4604603,53.2796224],[69.4499422,53.2777748]]},"properties":{"id":"KW-2","road_id":"KW","road_class":"urban","speed_kmh":35,"u":"WTP","v":"B3S","length_m":730.8,"bridge_id":null,"embankment_m":0.0,"key":"WTP>B3S","name_kk":"KW су тазарту жолы","name_ru":"KW дорога к очистным","name_en":"KW treatment plant road","name_original":"KW дорога к очистным","source":"DEMO"}},{"type":"Feature","geometry":{"type":"LineString","coordinates":[[69.3420402,53.2876615],[69.3600407,53.2876085]]},"properties":{"id":"N500-1","road_id":"N500","road_class":"urban","speed_kmh":35,"u":"K-3600_500","v":"K-2400_500","length_m":1200.0,"bridge_id":null,"embankment_m":0.25,"key":"K-3600_500>K-2400_500","name_kk":"Көше N500","name_ru":"Улица N500","name_en":"Street N500","name_original":"Улица N500","source":"DEMO"}},{"type":"Feature","geometry":{"type":"LineString","coordinates":[[69.3600407,53.2876085],[69.3780412,53.2875528]]},"properties":{"id":"N500-2","road_id":"N500","road_class":"urban","speed_kmh":35,"u":"K-2400_500","v":"K-1200_500","length_m":1200.0,"bridge_id":null,"embankment_m":0.25,"key":"K-2400_500>K-1200_500","name_kk":"Көше N500","name_ru":"Улица N500","name_en":"Street N500","name_original":"Улица N500","source":"DEMO"}},{"type":"Feature","geometry":{"type":"LineString","coordinates":[[69.3780412,53.2875528],[69.3960416,53.2874944]]},"properties":{"id":"N500-3","road_id":"N500","road_class":"urban","speed_kmh":35,"u":"K-1200_500","v":"K0_500","length_m":1200.0,"bridge_id":null,"embankment_m":0.25,"key":"K-1200_500>K0_500","name_kk":"Көше N500","name_ru":"Улица N500","name_en":"Street N500","name_original":"Улица N500","source":"DEMO"}},{"type":"Feature","geometry":{"type":"LineString","coordinates":[[69.3960416,53.2874944],[69.4140419,53.2874333]]},"properties":{"id":"N500-4","road_id":"N500","road_class":"urban","speed_kmh":35,"u":"K0_500","v":"K1200_500","length_m":1200.0,"bridge_id":null,"embankment_m":0.25,"key":"K0_500>K1200_500","name_kk":"Көше N500","name_ru":"Улица N500","name_en":"Street N500","name_original":"Улица N500","source":"DEMO"}},{"type":"Feature","geometry":{"type":"LineString","coordinates":[[69.4140419,53.2874333],[69.4320421,53.2873694]]},"properties":{"id":"N500-5","road_id":"N500","road_class":"urban","speed_kmh":35,"u":"K1200_500","v":"K2400_500","length_m":1200.0,"bridge_id":null,"embankment_m":0.25,"key":"K1200_500>K2400_500","name_kk":"Көше N500","name_ru":"Улица N500","name_en":"Street N500","name_original":"Улица N500","source":"DEMO"}},{"type":"Feature","geometry":{"type":"LineString","coordinates":[[69.4320421,53.2873694],[69.4500423,53.2873029]]},"properties":{"id":"N500-6","road_id":"N500","road_class":"urban","speed_kmh":35,"u":"K2400_500","v":"K3600_500","length_m":1200.0,"bridge_id":null,"embankment_m":0.25,"key":"K2400_500>K3600_500","name_kk":"Көше N500","name_ru":"Улица N500","name_en":"Street N500","name_original":"Улица N500","source":"DEMO"}},{"type":"Feature","geometry":{"type":"LineString","coordinates":[[69.3420905,53.2939537],[69.3600936,53.2939007]]},"properties":{"id":"N1200-1","road_id":"N1200","road_class":"urban","speed_kmh":35,"u":"K-3600_1200","v":"K-2400_1200","length_m":1200.0,"bridge_id":null,"embankment_m":0.25,"key":"K-3600_1200>K-2400_1200","name_kk":"Көше N1200","name_ru":"Улица N1200","name_en":"Street N1200","name_original":"Улица N1200","source":"DEMO"}},{"type":"Feature","geometry":{"type":"LineString","coordinates":[[69.3600936,53.2939007],[69.3780967,53.293845]]},"properties":{"id":"N1200-2","road_id":"N1200","road_class":"urban","speed_kmh":35,"u":"K-2400_1200","v":"K-1200_1200","length_m":1200.0,"bridge_id":null,"embankment_m":0.25,"key":"K-2400_1200>K-1200_1200","name_kk":"Көше N1200","name_ru":"Улица N1200","name_en":"Street N1200","name_original":"Улица N1200","source":"DEMO"}},{"type":"Feature","geometry":{"type":"LineString","coordinates":[[69.3780967,53.293845],[69.3960997,53.2937865]]},"properties":{"id":"N1200-3","road_id":"N1200","road_class":"urban","speed_kmh":35,"u":"K-1200_1200","v":"K0_1200","length_m":1200.0,"bridge_id":null,"embankment_m":0.25,"key":"K-1200_1200>K0_1200","name_kk":"Көше N1200","name_ru":"Улица N1200","name_en":"Street N1200","name_original":"Улица N1200","source":"DEMO"}},{"type":"Feature","geometry":{"type":"LineString","coordinates":[[69.3960997,53.2937865],[69.4141027,53.2937254]]},"properties":{"id":"N1200-4","road_id":"N1200","road_class":"urban","speed_kmh":35,"u":"K0_1200","v":"K1200_1200","length_m":1200.0,"bridge_id":null,"embankment_m":0.25,"key":"K0_1200>K1200_1200","name_kk":"Көше N1200","name_ru":"Улица N1200","name_en":"Street N1200","name_original":"Улица N1200","source":"DEMO"}},{"type":"Feature","geometry":{"type":"LineString","coordinates":[[69.4141027,53.2937254],[69.4321056,53.2936615]]},"properties":{"id":"N1200-5","road_id":"N1200","road_class":"urban","speed_kmh":35,"u":"K1200_1200","v":"K2400_1200","length_m":1200.0,"bridge_id":null,"embankment_m":0.25,"key":"K1200_1200>K2400_1200","name_kk":"Көше N1200","name_ru":"Улица N1200","name_en":"Street N1200","name_original":"Улица N1200","source":"DEMO"}},{"type":"Feature","geometry":{"type":"LineString","coordinates":[[69.4321056,53.2936615],[69.4501085,53.293595]]},"properties":{"id":"N1200-6","road_id":"N1200","road_class":"urban","speed_kmh":35,"u":"K2400_1200","v":"K3600_1200","length_m":1200.0,"bridge_id":null,"embankment_m":0.25,"key":"K2400_1200>K3600_1200","name_kk":"Көше N1200","name_ru":"Улица N1200","name_en":"Street N1200","name_original":"Улица N1200","source":"DEMO"}},{"type":"Feature","geometry":{"type":"LineString","coordinates":[[69.3421767,53.3047402],[69.3601844,53.3046872]]},"properties":{"id":"N2400-1","road_id":"N2400","road_class":"urban","speed_kmh":35,"u":"K-3600_2400","v":"K-2400_2400","length_m":1200.0,"bridge_id":null,"embankment_m":0.25,"key":"K-3600_2400>K-2400_2400","name_kk":"Көше N2400","name_ru":"Улица N2400","name_en":"Street N2400","name_original":"Улица N2400","source":"DEMO"}},{"type":"Feature","geometry":{"type":"LineString","coordinates":[[69.3601844,53.3046872],[69.378192,53.3046315]]},"properties":{"id":"N2400-2","road_id":"N2400","road_class":"urban","speed_kmh":35,"u":"K-2400_2400","v":"K-1200_2400","length_m":1200.0,"bridge_id":null,"embankment_m":0.25,"key":"K-2400_2400>K-1200_2400","name_kk":"Көше N2400","name_ru":"Улица N2400","name_en":"Street N2400","name_original":"Улица N2400","source":"DEMO"}},{"type":"Feature","geometry":{"type":"LineString","coordinates":[[69.378192,53.3046315],[69.3961996,53.304573]]},"properties":{"id":"N2400-3","road_id":"N2400","road_class":"urban","speed_kmh":35,"u":"K-1200_2400","v":"K0_2400","length_m":1200.0,"bridge_id":null,"embankment_m":0.25,"key":"K-1200_2400>K0_2400","name_kk":"Көше N2400","name_ru":"Улица N2400","name_en":"Street N2400","name_original":"Улица N2400","source":"DEMO"}},{"type":"Feature","geometry":{"type":"LineString","coordinates":[[69.3961996,53.304573],[69.4142071,53.3045119]]},"properties":{"id":"N2400-4","road_id":"N2400","road_class":"urban","speed_kmh":35,"u":"K0_2400","v":"K1200_2400","length_m":1200.0,"bridge_id":null,"embankment_m":0.25,"key":"K0_2400>K1200_2400","name_kk":"Көше N2400","name_ru":"Улица N2400","name_en":"Street N2400","name_original":"Улица N2400","source":"DEMO"}},{"type":"Feature","geometry":{"type":"LineString","coordinates":[[69.4142071,53.3045119],[69.4322145,53.304448]]},"properties":{"id":"N2400-5","road_id":"N2400","road_class":"urban","speed_kmh":35,"u":"K1200_2400","v":"K2400_2400","length_m":1200.0,"bridge_id":null,"embankment_m":0.25,"key":"K1200_2400>K2400_2400","name_kk":"Көше N2400","name_ru":"Улица N2400","name_en":"Street N2400","name_original":"Улица N2400","source":"DEMO"}},{"type":"Feature","geometry":{"type":"LineString","coordinates":[[69.4322145,53.304448],[69.4502219,53.3043814]]},"properties":{"id":"N2400-6","road_id":"N2400","road_class":"urban","speed_kmh":35,"u":"K2400_2400","v":"K3600_2400","length_m":1200.0,"bridge_id":null,"embankment_m":0.25,"key":"K2400_2400>K3600_2400","name_kk":"Көше N2400","name_ru":"Улица N2400","name_en":"Street N2400","name_original":"Улица N2400","source":"DEMO"}},{"type":"Feature","geometry":{"type":"LineString","coordinates":[[69.3422198,53.3101335],[69.3602297,53.3100805]]},"properties":{"id":"N3000-1","road_id":"N3000","road_class":"urban","speed_kmh":35,"u":"K-3600_3000","v":"K-2400_3000","length_m":1200.0,"bridge_id":null,"embankment_m":0.25,"key":"K-3600_3000>K-2400_3000","name_kk":"Көше N3000","name_ru":"Улица N3000","name_en":"Street N3000","name_original":"Улица N3000","source":"DEMO"}},{"type":"Feature","geometry":{"type":"LineString","coordinates":[[69.3602297,53.3100805],[69.3782397,53.3100248]]},"properties":{"id":"N3000-2","road_id":"N3000","road_class":"urban","speed_kmh":35,"u":"K-2400_3000","v":"K-1200_3000","length_m":1200.0,"bridge_id":null,"embankment_m":0.25,"key":"K-2400_3000>K-1200_3000","name_kk":"Көше N3000","name_ru":"Улица N3000","name_en":"Street N3000","name_original":"Улица N3000","source":"DEMO"}},{"type":"Feature","geometry":{"type":"LineString","coordinates":[[69.3782397,53.3100248],[69.3962495,53.3099663]]},"properties":{"id":"N3000-3","road_id":"N3000","road_class":"urban","speed_kmh":35,"u":"K-1200_3000","v":"K0_3000","length_m":1200.0,"bridge_id":null,"embankment_m":0.25,"key":"K-1200_3000>K0_3000","name_kk":"Көше N3000","name_ru":"Улица N3000","name_en":"Street N3000","name_original":"Улица N3000","source":"DEMO"}},{"type":"Feature","geometry":{"type":"LineString","coordinates":[[69.3962495,53.3099663],[69.4142593,53.3099051]]},"properties":{"id":"N3000-4","road_id":"N3000","road_class":"urban","speed_kmh":35,"u":"K0_3000","v":"K1200_3000","length_m":1200.0,"bridge_id":null,"embankment_m":0.25,"key":"K0_3000>K1200_3000","name_kk":"Көше N3000","name_ru":"Улица N3000","name_en":"Street N3000","name_original":"Улица N3000","source":"DEMO"}},{"type":"Feature","geometry":{"type":"LineString","coordinates":[[69.4142593,53.3099051],[69.432269,53.3098412]]},"properties":{"id":"N3000-5","road_id":"N3000","road_class":"urban","speed_kmh":35,"u":"K1200_3000","v":"K2400_3000","length_m":1200.0,"bridge_id":null,"embankment_m":0.25,"key":"K1200_3000>K2400_3000","name_kk":"Көше N3000","name_ru":"Улица N3000","name_en":"Street N3000","name_original":"Улица N3000","source":"DEMO"}},{"type":"Feature","geometry":{"type":"LineString","coordinates":[[69.432269,53.3098412],[69.4502786,53.3097746]]},"properties":{"id":"N3000-6","road_id":"N3000","road_class":"urban","speed_kmh":35,"u":"K2400_3000","v":"K3600_3000","length_m":1200.0,"bridge_id":null,"embankment_m":0.25,"key":"K2400_3000>K3600_3000","name_kk":"Көше N3000","name_ru":"Улица N3000","name_en":"Street N3000","name_original":"Улица N3000","source":"DEMO"}},{"type":"Feature","geometry":{"type":"LineString","coordinates":[[69.3419397,53.2750771],[69.359935,53.2750241]]},"properties":{"id":"S900-1","road_id":"S900","road_class":"urban","speed_kmh":35,"u":"K-3600_-900","v":"K-2400_-900","length_m":1200.0,"bridge_id":null,"embankment_m":0.25,"key":"K-3600_-900>K-2400_-900","name_kk":"Көше S900","name_ru":"Улица S900","name_en":"Street S900","name_original":"Улица S900","source":"DEMO"}},{"type":"Feature","geometry":{"type":"LineString","coordinates":[[69.359935,53.2750241],[69.3779301,53.2749685]]},"properties":{"id":"S900-2","road_id":"S900","road_class":"urban","speed_kmh":35,"u":"K-2400_-900","v":"K-1200_-900","length_m":1200.0,"bridge_id":null,"embankment_m":0.25,"key":"K-2400_-900>K-1200_-900","name_kk":"Көше S900","name_ru":"Улица S900","name_en":"Street S900","name_original":"Улица S900","source":"DEMO"}},{"type":"Feature","geometry":{"type":"LineString","coordinates":[[69.3779301,53.2749685],[69.3959252,53.2749101]]},"properties":{"id":"S900-3","road_id":"S900","road_class":"urban","speed_kmh":35,"u":"K-1200_-900","v":"K0_-900","length_m":1200.0,"bridge_id":null,"embankment_m":0.25,"key":"K-1200_-900>K0_-900","name_kk":"Көше S900","name_ru":"Улица S900","name_en":"Street S900","name_original":"Улица S900","source":"DEMO"}},{"type":"Feature","geometry":{"type":"LineString","coordinates":[[69.3959252,53.2749101],[69.4139203,53.274849]]},"properties":{"id":"S900-4","road_id":"S900","road_class":"urban","speed_kmh":35,"u":"K0_-900","v":"K1200_-900","length_m":1200.0,"bridge_id":null,"embankment_m":0.25,"key":"K0_-900>K1200_-900","name_kk":"Көше S900","name_ru":"Улица S900","name_en":"Street S900","name_original":"Улица S900","source":"DEMO"}},{"type":"Feature","geometry":{"type":"LineString","coordinates":[[69.4139203,53.274849],[69.4319152,53.2747852]]},"properties":{"id":"S900-5","road_id":"S900","road_class":"urban","speed_kmh":35,"u":"K1200_-900","v":"K2400_-900","length_m":1200.0,"bridge_id":null,"embankment_m":0.25,"key":"K1200_-900>K2400_-900","name_kk":"Көше S900","name_ru":"Улица S900","name_en":"Street S900","name_original":"Улица S900","source":"DEMO"}},{"type":"Feature","geometry":{"type":"LineString","coordinates":[[69.4319152,53.2747852],[69.4499101,53.2747186]]},"properties":{"id":"S900-6","road_id":"S900","road_class":"urban","speed_kmh":35,"u":"K2400_-900","v":"K3600_-900","length_m":1200.0,"bridge_id":null,"embankment_m":0.25,"key":"K2400_-900>K3600_-900","name_kk":"Көше S900","name_ru":"Улица S900","name_en":"Street S900","name_original":"Улица S900","source":"DEMO"}},{"type":"Feature","geometry":{"type":"LineString","coordinates":[[69.3418895,53.2687849],[69.3598821,53.268732]]},"properties":{"id":"S1600-1","road_id":"S1600","road_class":"urban","speed_kmh":35,"u":"K-3600_-1600","v":"K-2400_-1600","length_m":1200.0,"bridge_id":null,"embankment_m":0.25,"key":"K-3600_-1600>K-2400_-1600","name_kk":"Көше S1600","name_ru":"Улица S1600","name_en":"Street S1600","name_original":"Улица S1600","source":"DEMO"}},{"type":"Feature","geometry":{"type":"LineString","coordinates":[[69.3598821,53.268732],[69.3778746,53.2686763]]},"properties":{"id":"S1600-2","road_id":"S1600","road_class":"urban","speed_kmh":35,"u":"K-2400_-1600","v":"K-1200_-1600","length_m":1200.0,"bridge_id":null,"embankment_m":0.25,"key":"K-2400_-1600>K-1200_-1600","name_kk":"Көше S1600","name_ru":"Улица S1600","name_en":"Street S1600","name_original":"Улица S1600","source":"DEMO"}},{"type":"Feature","geometry":{"type":"LineString","coordinates":[[69.3778746,53.2686763],[69.3958671,53.2686179]]},"properties":{"id":"S1600-3","road_id":"S1600","road_class":"urban","speed_kmh":35,"u":"K-1200_-1600","v":"K0_-1600","length_m":1200.0,"bridge_id":null,"embankment_m":0.25,"key":"K-1200_-1600>K0_-1600","name_kk":"Көше S1600","name_ru":"Улица S1600","name_en":"Street S1600","name_original":"Улица S1600","source":"DEMO"}},{"type":"Feature","geometry":{"type":"LineString","coordinates":[[69.3958671,53.2686179],[69.4138595,53.2685568]]},"properties":{"id":"S1600-4","road_id":"S1600","road_class":"urban","speed_kmh":35,"u":"K0_-1600","v":"K1200_-1600","length_m":1200.0,"bridge_id":null,"embankment_m":0.25,"key":"K0_-1600>K1200_-1600","name_kk":"Көше S1600","name_ru":"Улица S1600","name_en":"Street S1600","name_original":"Улица S1600","source":"DEMO"}},{"type":"Feature","geometry":{"type":"LineString","coordinates":[[69.4138595,53.2685568],[69.4318518,53.268493]]},"properties":{"id":"S1600-5","road_id":"S1600","road_class":"urban","speed_kmh":35,"u":"K1200_-1600","v":"K2400_-1600","length_m":1200.0,"bridge_id":null,"embankment_m":0.25,"key":"K1200_-1600>K2400_-1600","name_kk":"Көше S1600","name_ru":"Улица S1600","name_en":"Street S1600","name_original":"Улица S1600","source":"DEMO"}},{"type":"Feature","geometry":{"type":"LineString","coordinates":[[69.4318518,53.268493],[69.4498441,53.2684265]]},"properties":{"id":"S1600-6","road_id":"S1600","road_class":"urban","speed_kmh":35,"u":"K2400_-1600","v":"K3600_-1600","length_m":1200.0,"bridge_id":null,"embankment_m":0.25,"key":"K2400_-1600>K3600_-1600","name_kk":"Көше S1600","name_ru":"Улица S1600","name_en":"Street S1600","name_original":"Улица S1600","source":"DEMO"}},{"type":"Feature","geometry":{"type":"LineString","coordinates":[[69.3418322,53.2615938],[69.3598217,53.2615409]]},"properties":{"id":"S2400-1","road_id":"S2400","road_class":"urban","speed_kmh":35,"u":"K-3600_-2400","v":"K-2400_-2400","length_m":1200.0,"bridge_id":null,"embankment_m":0.25,"key":"K-3600_-2400>K-2400_-2400","name_kk":"Көше S2400","name_ru":"Улица S2400","name_en":"Street S2400","name_original":"Улица S2400","source":"DEMO"}},{"type":"Feature","geometry":{"type":"LineString","coordinates":[[69.3598217,53.2615409],[69.3778112,53.2614852]]},"properties":{"id":"S2400-2","road_id":"S2400","road_class":"urban","speed_kmh":35,"u":"K-2400_-2400","v":"K-1200_-2400","length_m":1200.0,"bridge_id":null,"embankment_m":0.25,"key":"K-2400_-2400>K-1200_-2400","name_kk":"Көше S2400","name_ru":"Улица S2400","name_en":"Street S2400","name_original":"Улица S2400","source":"DEMO"}},{"type":"Feature","geometry":{"type":"LineString","coordinates":[[69.3778112,53.2614852],[69.3958007,53.2614269]]},"properties":{"id":"S2400-3","road_id":"S2400","road_class":"urban","speed_kmh":35,"u":"K-1200_-2400","v":"K0_-2400","length_m":1200.0,"bridge_id":null,"embankment_m":0.25,"key":"K-1200_-2400>K0_-2400","name_kk":"Көше S2400","name_ru":"Улица S2400","name_en":"Street S2400","name_original":"Улица S2400","source":"DEMO"}},{"type":"Feature","geometry":{"type":"LineString","coordinates":[[69.3958007,53.2614269],[69.4137901,53.2613658]]},"properties":{"id":"S2400-4","road_id":"S2400","road_class":"urban","speed_kmh":35,"u":"K0_-2400","v":"K1200_-2400","length_m":1200.0,"bridge_id":null,"embankment_m":0.25,"key":"K0_-2400>K1200_-2400","name_kk":"Көше S2400","name_ru":"Улица S2400","name_en":"Street S2400","name_original":"Улица S2400","source":"DEMO"}},{"type":"Feature","geometry":{"type":"LineString","coordinates":[[69.4137901,53.2613658],[69.4317794,53.261302]]},"properties":{"id":"S2400-5","road_id":"S2400","road_class":"urban","speed_kmh":35,"u":"K1200_-2400","v":"K2400_-2400","length_m":1200.0,"bridge_id":null,"embankment_m":0.25,"key":"K1200_-2400>K2400_-2400","name_kk":"Көше S2400","name_ru":"Улица S2400","name_en":"Street S2400","name_original":"Улица S2400","source":"DEMO"}},{"type":"Feature","geometry":{"type":"LineString","coordinates":[[69.4317794,53.261302],[69.4497686,53.2612355]]},"properties":{"id":"S2400-6","road_id":"S2400","road_class":"urban","speed_kmh":35,"u":"K2400_-2400","v":"K3600_-2400","length_m":1200.0,"bridge_id":null,"embankment_m":0.25,"key":"K2400_-2400>K3600_-2400","name_kk":"Көше S2400","name_ru":"Улица S2400","name_en":"Street S2400","name_original":"Улица S2400","source":"DEMO"}},{"type":"Feature","geometry":{"type":"LineString","coordinates":[[69.3419397,53.2750771],[69.3418895,53.2687849]]},"properties":{"id":"C-3600-1","road_id":"C-3600","road_class":"urban","speed_kmh":35,"u":"K-3600_-900","v":"K-3600_-1600","length_m":700.0,"bridge_id":null,"embankment_m":0.25,"key":"K-3600_-900>K-3600_-1600","name_kk":"Көше C-3600","name_ru":"Улица C-3600","name_en":"Street C-3600","name_original":"Улица C-3600","source":"DEMO"}},{"type":"Feature","geometry":{"type":"LineString","coordinates":[[69.3418895,53.2687849],[69.3418322,53.2615938]]},"properties":{"id":"C-3600-2","road_id":"C-3600","road_class":"urban","speed_kmh":35,"u":"K-3600_-1600","v":"K-3600_-2400","length_m":800.0,"bridge_id":null,"embankment_m":0.25,"key":"K-3600_-1600>K-3600_-2400","name_kk":"Көше C-3600","name_ru":"Улица C-3600","name_en":"Street C-3600","name_original":"Улица C-3600","source":"DEMO"}},{"type":"Feature","geometry":{"type":"LineString","coordinates":[[69.3600407,53.2876085],[69.3600936,53.2939007]]},"properties":{"id":"C-2400-1","road_id":"C-2400","road_class":"urban","speed_kmh":35,"u":"K-2400_500","v":"K-2400_1200","length_m":700.0,"bridge_id":null,"embankment_m":0.25,"key":"K-2400_500>K-2400_1200","name_kk":"Көше C-2400","name_ru":"Улица C-2400","name_en":"Street C-2400","name_original":"Улица C-2400","source":"DEMO"}},{"type":"Feature","geometry":{"type":"LineString","coordinates":[[69.3601844,53.3046872],[69.3602297,53.3100805]]},"properties":{"id":"C-2400-2","road_id":"C-2400","road_class":"urban","speed_kmh":35,"u":"K-2400_2400","v":"K-2400_3000","length_m":600.0,"bridge_id":null,"embankment_m":0.25,"key":"K-2400_2400>K-2400_3000","name_kk":"Көше C-2400","name_ru":"Улица C-2400","name_en":"Street C-2400","name_original":"Улица C-2400","source":"DEMO"}},{"type":"Feature","geometry":{"type":"LineString","coordinates":[[69.359935,53.2750241],[69.3598821,53.268732]]},"properties":{"id":"C-2400-3","road_id":"C-2400","road_class":"urban","speed_kmh":35,"u":"K-2400_-900","v":"K-2400_-1600","length_m":700.0,"bridge_id":null,"embankment_m":0.25,"key":"K-2400_-900>K-2400_-1600","name_kk":"Көше C-2400","name_ru":"Улица C-2400","name_en":"Street C-2400","name_original":"Улица C-2400","source":"DEMO"}},{"type":"Feature","geometry":{"type":"LineString","coordinates":[[69.3598821,53.268732],[69.3598217,53.2615409]]},"properties":{"id":"C-2400-4","road_id":"C-2400","road_class":"urban","speed_kmh":35,"u":"K-2400_-1600","v":"K-2400_-2400","length_m":800.0,"bridge_id":null,"embankment_m":0.25,"key":"K-2400_-1600>K-2400_-2400","name_kk":"Көше C-2400","name_ru":"Улица C-2400","name_en":"Street C-2400","name_original":"Улица C-2400","source":"DEMO"}},{"type":"Feature","geometry":{"type":"LineString","coordinates":[[69.3780412,53.2875528],[69.3780967,53.293845]]},"properties":{"id":"C-1200-1","road_id":"C-1200","road_class":"urban","speed_kmh":35,"u":"K-1200_500","v":"K-1200_1200","length_m":700.0,"bridge_id":null,"embankment_m":0.25,"key":"K-1200_500>K-1200_1200","name_kk":"Көше C-1200","name_ru":"Улица C-1200","name_en":"Street C-1200","name_original":"Улица C-1200","source":"DEMO"}},{"type":"Feature","geometry":{"type":"LineString","coordinates":[[69.378192,53.3046315],[69.3782397,53.3100248]]},"properties":{"id":"C-1200-2","road_id":"C-1200","road_class":"urban","speed_kmh":35,"u":"K-1200_2400","v":"K-1200_3000","length_m":600.0,"bridge_id":null,"embankment_m":0.25,"key":"K-1200_2400>K-1200_3000","name_kk":"Көше C-1200","name_ru":"Улица C-1200","name_en":"Street C-1200","name_original":"Улица C-1200","source":"DEMO"}},{"type":"Feature","geometry":{"type":"LineString","coordinates":[[69.3779301,53.2749685],[69.3778746,53.2686763]]},"properties":{"id":"C-1200-3","road_id":"C-1200","road_class":"urban","speed_kmh":35,"u":"K-1200_-900","v":"K-1200_-1600","length_m":700.0,"bridge_id":null,"embankment_m":0.25,"key":"K-1200_-900>K-1200_-1600","name_kk":"Көше C-1200","name_ru":"Улица C-1200","name_en":"Street C-1200","name_original":"Улица C-1200","source":"DEMO"}},{"type":"Feature","geometry":{"type":"LineString","coordinates":[[69.3778746,53.2686763],[69.3778112,53.2614852]]},"properties":{"id":"C-1200-4","road_id":"C-1200","road_class":"urban","speed_kmh":35,"u":"K-1200_-1600","v":"K-1200_-2400","length_m":800.0,"bridge_id":null,"embankment_m":0.25,"key":"K-1200_-1600>K-1200_-2400","name_kk":"Көше C-1200","name_ru":"Улица C-1200","name_en":"Street C-1200","name_original":"Улица C-1200","source":"DEMO"}},{"type":"Feature","geometry":{"type":"LineString","coordinates":[[69.4140419,53.2874333],[69.4141027,53.2937254]]},"properties":{"id":"C1200-1","road_id":"C1200","road_class":"urban","speed_kmh":35,"u":"K1200_500","v":"K1200_1200","length_m":700.0,"bridge_id":null,"embankment_m":0.25,"key":"K1200_500>K1200_1200","name_kk":"Көше C1200","name_ru":"Улица C1200","name_en":"Street C1200","name_original":"Улица C1200","source":"DEMO"}},{"type":"Feature","geometry":{"type":"LineString","coordinates":[[69.4142071,53.3045119],[69.4142593,53.3099051]]},"properties":{"id":"C1200-2","road_id":"C1200","road_class":"urban","speed_kmh":35,"u":"K1200_2400","v":"K1200_3000","length_m":600.0,"bridge_id":null,"embankment_m":0.25,"key":"K1200_2400>K1200_3000","name_kk":"Көше C1200","name_ru":"Улица C1200","name_en":"Street C1200","name_original":"Улица C1200","source":"DEMO"}},{"type":"Feature","geometry":{"type":"LineString","coordinates":[[69.4139203,53.274849],[69.4138595,53.2685568]]},"properties":{"id":"C1200-3","road_id":"C1200","road_class":"urban","speed_kmh":35,"u":"K1200_-900","v":"K1200_-1600","length_m":700.0,"bridge_id":null,"embankment_m":0.25,"key":"K1200_-900>K1200_-1600","name_kk":"Көше C1200","name_ru":"Улица C1200","name_en":"Street C1200","name_original":"Улица C1200","source":"DEMO"}},{"type":"Feature","geometry":{"type":"LineString","coordinates":[[69.4138595,53.2685568],[69.4137901,53.2613658]]},"properties":{"id":"C1200-4","road_id":"C1200","road_class":"urban","speed_kmh":35,"u":"K1200_-1600","v":"K1200_-2400","length_m":800.0,"bridge_id":null,"embankment_m":0.25,"key":"K1200_-1600>K1200_-2400","name_kk":"Көше C1200","name_ru":"Улица C1200","name_en":"Street C1200","name_original":"Улица C1200","source":"DEMO"}},{"type":"Feature","geometry":{"type":"LineString","coordinates":[[69.4320421,53.2873694],[69.4321056,53.2936615]]},"properties":{"id":"C2400-1","road_id":"C2400","road_class":"urban","speed_kmh":35,"u":"K2400_500","v":"K2400_1200","length_m":700.0,"bridge_id":null,"embankment_m":0.25,"key":"K2400_500>K2400_1200","name_kk":"Көше C2400","name_ru":"Улица C2400","name_en":"Street C2400","name_original":"Улица C2400","source":"DEMO"}},{"type":"Feature","geometry":{"type":"LineString","coordinates":[[69.4322145,53.304448],[69.432269,53.3098412]]},"properties":{"id":"C2400-2","road_id":"C2400","road_class":"urban","speed_kmh":35,"u":"K2400_2400","v":"K2400_3000","length_m":600.0,"bridge_id":null,"embankment_m":0.25,"key":"K2400_2400>K2400_3000","name_kk":"Көше C2400","name_ru":"Улица C2400","name_en":"Street C2400","name_original":"Улица C2400","source":"DEMO"}},{"type":"Feature","geometry":{"type":"LineString","coordinates":[[69.4319152,53.2747852],[69.4318518,53.268493]]},"properties":{"id":"C2400-3","road_id":"C2400","road_class":"urban","speed_kmh":35,"u":"K2400_-900","v":"K2400_-1600","length_m":700.0,"bridge_id":null,"embankment_m":0.25,"key":"K2400_-900>K2400_-1600","name_kk":"Көше C2400","name_ru":"Улица C2400","name_en":"Street C2400","name_original":"Улица C2400","source":"DEMO"}},{"type":"Feature","geometry":{"type":"LineString","coordinates":[[69.4318518,53.268493],[69.4317794,53.261302]]},"properties":{"id":"C2400-4","road_id":"C2400","road_class":"urban","speed_kmh":35,"u":"K2400_-1600","v":"K2400_-2400","length_m":800.0,"bridge_id":null,"embankment_m":0.25,"key":"K2400_-1600>K2400_-2400","name_kk":"Көше C2400","name_ru":"Улица C2400","name_en":"Street C2400","name_original":"Улица C2400","source":"DEMO"}},{"type":"Feature","geometry":{"type":"LineString","coordinates":[[69.4500423,53.2873029],[69.4501085,53.293595]]},"properties":{"id":"C3600-1","road_id":"C3600","road_class":"urban","speed_kmh":35,"u":"K3600_500","v":"K3600_1200","length_m":700.0,"bridge_id":null,"embankment_m":0.25,"key":"K3600_500>K3600_1200","name_kk":"Көше C3600","name_ru":"Улица C3600","name_en":"Street C3600","name_original":"Улица C3600","source":"DEMO"}},{"type":"Feature","geometry":{"type":"LineString","coordinates":[[69.4502219,53.3043814],[69.4502786,53.3097746]]},"properties":{"id":"C3600-2","road_id":"C3600","road_class":"urban","speed_kmh":35,"u":"K3600_2400","v":"K3600_3000","length_m":600.0,"bridge_id":null,"embankment_m":0.25,"key":"K3600_2400>K3600_3000","name_kk":"Көше C3600","name_ru":"Улица C3600","name_en":"Street C3600","name_original":"Улица C3600","source":"DEMO"}},{"type":"Feature","geometry":{"type":"LineString","coordinates":[[69.4499101,53.2747186],[69.4498441,53.2684265]]},"properties":{"id":"C3600-3","road_id":"C3600","road_class":"urban","speed_kmh":35,"u":"K3600_-900","v":"K3600_-1600","length_m":700.0,"bridge_id":null,"embankment_m":0.25,"key":"K3600_-900>K3600_-1600","name_kk":"Көше C3600","name_ru":"Улица C3600","name_en":"Street C3600","name_original":"Улица C3600","source":"DEMO"}},{"type":"Feature","geometry":{"type":"LineString","coordinates":[[69.4498441,53.2684265],[69.4497686,53.2612355]]},"properties":{"id":"C3600-4","road_id":"C3600","road_class":"urban","speed_kmh":35,"u":"K3600_-1600","v":"K3600_-2400","length_m":800.0,"bridge_id":null,"embankment_m":0.25,"key":"K3600_-1600>K3600_-2400","name_kk":"Көше C3600","name_ru":"Улица C3600","name_en":"Street C3600","name_original":"Улица C3600","source":"DEMO"}}]}