{"type":"FeatureCollection","demo":true,"note":"DEMO DATA — synthetic, not surveyed or measured. For demonstration of ARGUS workflows only.","features":[{"type":"Feature","geometry":{"type":"Polygon","coordinates":[[[69.3690255,53.2857832],[69.4230243,53.2856039],[69.423153,53.2986376],[69.3691378,53.298817],[69.3690255,53.2857832]]]},"properties":{"id":"KC","code":"KC","name_kk":"Орталық","name_ru":"Центр","name_en":"City centre","name_original":"Центр"}},{"type":"Feature","geometry":{"type":"Polygon","coordinates":[[[69.3509521,53.2768487],[69.4409312,53.27655],[69.4407463,53.2585725],[69.3508049,53.258871],[69.3509521,53.2768487]]]},"properties":{"id":"KS","code":"KS","name_kk":"Сол жағалау","name_ru":"Левобережье","name_en":"Left bank","name_original":"Левобережье"}},{"type":"Feature","geometry":{"type":"Polygon","coordinates":[[[69.4230243,53.2856039],[69.4650229,53.2854476],[69.4651645,53.2984812],[69.423153,53.2986376],[69.4230243,53.2856039]]]},"properties":{"id":"KE","code":"KE","name_kk":"Шығыс аудан","name_ru":"Восточный район","name_en":"Eastern district","name_original":"Восточный район"}},{"type":"Feature","geometry":{"type":"Polygon","coordinates":[[[69.3330259,53.2858892],[69.3690255,53.2857832],[69.3691378,53.298817],[69.3331273,53.298923],[69.3330259,53.2858892]]]},"properties":{"id":"KW","code":"KW","name_kk":"Батыс аудан","name_ru":"Западный район","name_en":"Western district","name_original":"Западный район"}},{"type":"Feature","geometry":{"type":"Polygon","coordinates":[[[69.3331343,53.2998219],[69.4591725,53.2994033],[69.4593124,53.3124369],[69.3332358,53.3128557],[69.3331343,53.2998219]]]},"properties":{"id":"KN","code":"KN","name_kk":"Теміржолдың солтүстігі","name_ru":"За железной дорогой","name_en":"North of railway","name_original":"За железной дорогой"}}]}