{"type":"FeatureCollection","demo":true,"note":"DEMO DATA — synthetic, not surveyed or measured. For demonstration of ARGUS workflows only.","features":[{"type":"Feature","geometry":{"type":"Point","coordinates":[69.3961496,53.2991798]},"properties":{"id":"KS-UNDERPASS","kind":"DRAINAGE_POINT","sector_id":"KC","protects":{"sector_ids":["KN"],"facility_ids":["KF-HOSP"]},"work_depth_limit_m":0.6,"name_kk":"Теміржол астындағы өткел","name_ru":"Путепровод под железной дорогой","name_en":"Railway underpass","name_original":"Путепровод под железной дорогой"}},{"type":"Feature","geometry":{"type":"Point","coordinates":[69.3420905,53.2939537]},"properties":{"id":"KS-CULVERT","kind":"CULVERT","sector_id":"KW","protects":{"sector_ids":["KW"]},"work_depth_limit_m":0.3,"name_kk":"Батыс су өткізгіш құбыры","name_ru":"Западная водопропускная труба","name_en":"Western culvert","name_original":"Западная водопропускная труба"}},{"type":"Feature","geometry":{"type":"Point","coordinates":[69.4048718,53.2694866]},"properties":{"id":"KS-MAT","kind":"FACILITY","sector_id":"KS","protects":{"facility_ids":["KF-MAT"]},"work_depth_limit_m":0.25,"name_kk":"Перзентхана","name_ru":"Роддом","name_en":"Maternity hospital","name_original":"Роддом"}},{"type":"Feature","geometry":{"type":"Point","coordinates":[69.4604603,53.2796224]},"properties":{"id":"KS-WTP","kind":"FACILITY","sector_id":null,"protects":{"facility_ids":["KF-WTP"]},"work_depth_limit_m":0.2,"name_kk":"Су тазарту құрылыстары","name_ru":"Очистные сооружения","name_en":"Water treatment plant","name_original":"Очистные сооружения"}},{"type":"Feature","geometry":{"type":"Point","coordinates":[69.3599652,53.2786197]},"properties":{"id":"KS-SUB","kind":"FACILITY","sector_id":null,"protects":{"facility_ids":["KF-SUB"]},"work_depth_limit_m":0.2,"name_kk":"Батыс қосалқы станциясы","name_ru":"Западная подстанция","name_en":"Western substation","name_original":"Западная подстанция"}},{"type":"Feature","geometry":{"type":"Point","coordinates":[69.4093872,53.271269]},"properties":{"id":"KS-LEFT","kind":"DRAINAGE_POINT","sector_id":"KS","protects":{"sector_ids":["KS"]},"work_depth_limit_m":0.25,"name_kk":"Сол жағалау ойпаңы","name_ru":"Понижение левобережья","name_en":"Left-bank low district","name_original":"Понижение левобережья"}},{"type":"Feature","geometry":{"type":"Point","coordinates":[69.3778746,53.2686763]},"properties":{"id":"KS-SCH","kind":"FACILITY","sector_id":"KS","protects":{"facility_ids":["KF-SCH"]},"work_depth_limit_m":0.3,"name_kk":"№12 мектеп — пана","name_ru":"Школа №12 — пункт размещения","name_en":"School No. 12 — shelter","name_original":"Школа №12 — пункт размещения"}}]}